{
  "version": 0.6,
  "generator": "Overpass API 0.7.62.8 e802775f",
  "osm3s": {
    "timestamp_osm_base": "2025-10-23T20:00:28Z",
    "copyright": "The data included in this document is from www.openstreetmap.org. The data is made available under ODbL."
  },
  "elements": [
    {
      "type": "node",
      "id": 770998689,
      "lat": 29.8074687,
      "lon": -114.3955969,
      "timestamp": "2019-03-03T22:52:51Z",
      "version": 3,
      "changeset": 67749239,
      "user": "dima",
      "uid": 50743,
      "tags": {
        "amenity": "bar"
      }
    },
    {
      "type": "node",
      "id": 986750400,
      "lat": 24.1624901,
      "lon": -110.3173634,
      "timestamp": "2010-11-12T16:29:30Z",
      "version": 1,
      "changeset": 6351775,
      "user": "atoBeto",
      "uid": 349438,
      "tags": {
        "amenity": "bar"
      }
    },
    {
      "type": "node",
      "id": 986750403,
      "lat": 24.1633026,
      "lon": -110.3161403,
      "timestamp": "2012-01-09T23:26:18Z",
      "version": 3,
      "changeset": 10347299,
      "user": "Diana Isabel AG",
      "uid": 581451,
      "tags": {
        "amenity": "bar",
        "name": "La Cantina"
      }
    },
    {
      "type": "node",
      "id": 986750404,
      "lat": 24.163212,
      "lon": -110.3167747,
      "timestamp": "2012-01-09T23:26:19Z",
      "version": 3,
      "changeset": 10347299,
      "user": "Diana Isabel AG",
      "uid": 581451,
      "tags": {
        "amenity": "bar",
        "name": "Catrina"
      }
    },
    {
      "type": "node",
      "id": 986750412,
      "lat": 24.1625146,
      "lon": -110.3149172,
      "timestamp": "2011-12-12T04:10:15Z",
      "version": 2,
      "changeset": 10095747,
      "user": "wheelmap_visitor",
      "uid": 290680,
      "tags": {
        "amenity": "bar",
        "name": "La Varitas",
        "wheelchair": "no"
      }
    },
    {
      "type": "node",
      "id": 986750413,
      "lat": 24.1625341,
      "lon": -110.3145954,
      "timestamp": "2010-11-17T18:17:47Z",
      "version": 2,
      "changeset": 6394713,
      "user": "atoBeto",
      "uid": 349438,
      "tags": {
        "amenity": "bar",
        "name": "Sinatra (Bay & Karaoke)"
      }
    },
    {
      "type": "node",
      "id": 986750415,
      "lat": 24.1630554,
      "lon": -110.3170147,
      "timestamp": "2010-11-12T16:29:34Z",
      "version": 1,
      "changeset": 6351775,
      "user": "atoBeto",
      "uid": 349438,
      "tags": {
        "amenity": "bar",
        "name": "Jungle"
      }
    },
    {
      "type": "node",
      "id": 986790036,
      "lat": 24.1609239,
      "lon": -110.3162744,
      "timestamp": "2010-11-12T17:18:02Z",
      "version": 1,
      "changeset": 6351775,
      "user": "atoBeto",
      "uid": 349438,
      "tags": {
        "amenity": "bar",
        "name": "Amnesia (men's club)"
      }
    },
    {
      "type": "node",
      "id": 986790092,
      "lat": 24.16006,
      "lon": -110.3175565,
      "timestamp": "2010-11-12T17:18:04Z",
      "version": 1,
      "changeset": 6351775,
      "user": "atoBeto",
      "uid": 349438,
      "tags": {
        "amenity": "bar",
        "name": "La Cazona"
      }
    },
    {
      "type": "node",
      "id": 992911685,
      "lat": 24.1554606,
      "lon": -110.3240391,
      "timestamp": "2010-11-17T18:17:46Z",
      "version": 1,
      "changeset": 6394713,
      "user": "atoBeto",
      "uid": 349438,
      "tags": {
        "amenity": "bar",
        "name": "Chiltepinos"
      }
    },
    {
      "type": "node",
      "id": 992993238,
      "lat": 24.1566133,
      "lon": -110.3206756,
      "timestamp": "2011-12-13T20:24:32Z",
      "version": 2,
      "changeset": 10107035,
      "user": "wheelmap_visitor",
      "uid": 290680,
      "tags": {
        "amenity": "bar",
        "name": "Salsipuedes",
        "wheelchair": "no"
      }
    },
    {
      "type": "node",
      "id": 1103573152,
      "lat": 24.1622842,
      "lon": -110.314576,
      "timestamp": "2014-08-27T04:17:37Z",
      "version": 2,
      "changeset": 25043535,
      "user": "osorioweb",
      "uid": 2291987,
      "tags": {
        "amenity": "bar",
        "name": "La Esquina"
      }
    },
    {
      "type": "node",
      "id": 1103573789,
      "lat": 24.1627539,
      "lon": -110.3145038,
      "timestamp": "2011-01-14T18:34:37Z",
      "version": 1,
      "changeset": 6969861,
      "user": "atoBeto",
      "uid": 349438,
      "tags": {
        "amenity": "bar",
        "name": "Cheve & Music"
      }
    },
    {
      "type": "node",
      "id": 1584165398,
      "lat": 24.1634966,
      "lon": -110.3162031,
      "timestamp": "2012-01-09T23:26:16Z",
      "version": 1,
      "changeset": 10347299,
      "user": "Diana Isabel AG",
      "uid": 581451,
      "tags": {
        "amenity": "bar",
        "name": "Casa de Villa"
      }
    },
    {
      "type": "node",
      "id": 1776167412,
      "lat": 24.336475,
      "lon": -110.315653,
      "timestamp": "2012-06-04T16:47:01Z",
      "version": 2,
      "changeset": 11798202,
      "user": "playatecolote",
      "uid": 695885,
      "tags": {
        "amenity": "bar",
        "name": "El Tecolote"
      }
    },
    {
      "type": "node",
      "id": 2690713291,
      "lat": 29.0938213,
      "lon": -110.996376,
      "timestamp": "2014-02-26T05:10:57Z",
      "version": 1,
      "changeset": 20783578,
      "user": "blakviper",
      "uid": 268739,
      "tags": {
        "addr:housename": "Hotel San Angel",
        "addr:housenumber": "104",
        "addr:postcode": "83210",
        "addr:street": "Jesús García Morales",
        "amenity": "bar",
        "name": "Bar Hotel San Angel",
        "website": "http://www.hotelsanange.com"
      }
    },
    {
      "type": "node",
      "id": 3285231171,
      "lat": 29.5172035,
      "lon": -114.2910939,
      "timestamp": "2015-01-13T03:30:37Z",
      "version": 2,
      "changeset": 28102474,
      "user": "ajk",
      "uid": 227502,
      "tags": {
        "amenity": "bar",
        "name": "Cocos Corner",
        "place": "locality",
        "wifi": "no"
      }
    },
    {
      "type": "node",
      "id": 3890055356,
      "lat": 29.0322406,
      "lon": -110.9592154,
      "timestamp": "2015-12-13T09:24:45Z",
      "version": 1,
      "changeset": 35922463,
      "user": "Gamaliel Espinoza Macedo",
      "uid": 1340435,
      "tags": {
        "amenity": "bar"
      }
    },
    {
      "type": "node",
      "id": 4579905792,
      "lat": 24.1565789,
      "lon": -110.3208745,
      "timestamp": "2016-12-29T18:05:15Z",
      "version": 1,
      "changeset": 44764563,
      "user": "wonderchook",
      "uid": 95488,
      "tags": {
        "amenity": "bar",
        "name:en": "The Shack"
      }
    },
    {
      "type": "node",
      "id": 4739028221,
      "lat": 27.9666771,
      "lon": -111.1123168,
      "timestamp": "2017-03-17T00:22:19Z",
      "version": 1,
      "changeset": 46914108,
      "user": "Alec Meyerhofff",
      "uid": 4572394,
      "tags": {
        "amenity": "bar",
        "name:en": "The Soggy Peso Bar"
      }
    },
    {
      "type": "node",
      "id": 4978104066,
      "lat": 23.4512631,
      "lon": -110.2248466,
      "timestamp": "2022-02-18T16:29:54Z",
      "version": 5,
      "changeset": 117572877,
      "user": "Josuer",
      "uid": 3382594,
      "tags": {
        "addr:city": "Todos Santos",
        "addr:housenumber": "27",
        "addr:postcode": "23300",
        "addr:street": "Calle Miguel López de Legazpi",
        "amenity": "biergarten",
        "description": "Restaurant bar in downtown Todos Santos with the best view in town, located a short walk from the main plaza",
        "email": "reservation@guaycura.com",
        "name": "Sky Lounge Bar - Todos Santos",
        "opening_hours": "Mo-Su 12:00-21:00",
        "outdoor_seating": "yes",
        "phone": "+52 (612) 175 0800",
        "website": "https://guaycura.com/en/sky-lounge-bar/",
        "wheelchair": "yes"
      }
    },
    {
      "type": "node",
      "id": 4985400357,
      "lat": 27.9575111,
      "lon": -111.0423053,
      "timestamp": "2017-07-21T18:07:29Z",
      "version": 2,
      "changeset": 50465204,
      "user": "PowerSports",
      "uid": 6355207,
      "tags": {
        "addr:city": "San Carlos",
        "addr:housenumber": "140",
        "addr:postcode": "85506",
        "addr:street": "Lateral Manlio Fabio Beltrones",
        "amenity": "bar",
        "name": "San Carlos PowerSports",
        "opening_hours": "12/7 We-Mo 8:00-17:00",
        "outdoor_seating": "yes",
        "smoking": "no"
      }
    },
    {
      "type": "node",
      "id": 5322868678,
      "lat": 26.8992535,
      "lon": -111.969338,
      "timestamp": "2018-01-05T22:52:31Z",
      "version": 1,
      "changeset": 55199942,
      "user": "TejasT",
      "uid": 7418053,
      "tags": {
        "amenity": "bar",
        "name": "Racing Bar"
      }
    },
    {
      "type": "node",
      "id": 5322872960,
      "lat": 26.8979002,
      "lon": -111.9674674,
      "timestamp": "2018-01-05T22:51:16Z",
      "version": 1,
      "changeset": 55199916,
      "user": "TejasT",
      "uid": 7418053,
      "tags": {
        "amenity": "bar",
        "name": "Jungla Jim's"
      }
    },
    {
      "type": "node",
      "id": 5408130028,
      "lat": 24.1594276,
      "lon": -110.3190283,
      "timestamp": "2018-02-12T20:06:30Z",
      "version": 1,
      "changeset": 56304453,
      "user": "DonCorriente",
      "uid": 1708308,
      "tags": {
        "amenity": "bar",
        "name": "Sabor a Malta",
        "outdoor_seating": "yes",
        "smoking": "no"
      }
    },
    {
      "type": "node",
      "id": 5828251969,
      "lat": 29.7321092,
      "lon": -114.7219411,
      "timestamp": "2018-08-13T01:32:52Z",
      "version": 1,
      "changeset": 61607897,
      "user": "bretonsuisse",
      "uid": 695157,
      "tags": {
        "amenity": "bar",
        "name": "Cocos del rancho"
      }
    },
    {
      "type": "node",
      "id": 6124344190,
      "lat": 29.07612,
      "lon": -110.953924,
      "timestamp": "2019-01-18T20:41:44Z",
      "version": 2,
      "changeset": 66439408,
      "user": "Eden Z",
      "uid": 5204229,
      "tags": {
        "amenity": "bar",
        "name": "Barra Hidalgo"
      }
    },
    {
      "type": "node",
      "id": 6219440832,
      "lat": 29.0760918,
      "lon": -110.9537456,
      "timestamp": "2019-01-18T20:41:44Z",
      "version": 1,
      "changeset": 66439408,
      "user": "Eden Z",
      "uid": 5204229,
      "tags": {
        "amenity": "bar",
        "name": "Club Obregon"
      }
    },
    {
      "type": "node",
      "id": 7061385185,
      "lat": 24.1633956,
      "lon": -110.3163113,
      "timestamp": "2019-12-16T18:58:24Z",
      "version": 1,
      "changeset": 78488494,
      "user": "MikeLondonSE",
      "uid": 9853372,
      "tags": {
        "addr:housenumber": "5",
        "addr:street": "16 de Septiembre",
        "amenity": "bar",
        "name": "Parnazo"
      }
    },
    {
      "type": "node",
      "id": 7161099292,
      "lat": 24.1608725,
      "lon": -110.3161517,
      "timestamp": "2020-01-26T20:10:41Z",
      "version": 1,
      "changeset": 80107768,
      "user": "Liamj",
      "uid": 10704515,
      "tags": {
        "amenity": "bar",
        "name": "Jack Bar"
      }
    },
    {
      "type": "node",
      "id": 7192241885,
      "lat": 23.8026581,
      "lon": -110.1082125,
      "timestamp": "2020-02-07T01:28:30Z",
      "version": 1,
      "changeset": 80665533,
      "user": "briandguerin",
      "uid": 8597456,
      "tags": {
        "amenity": "pub"
      }
    },
    {
      "type": "node",
      "id": 8189331417,
      "lat": 24.1634658,
      "lon": -110.3137773,
      "timestamp": "2025-08-30T18:57:36Z",
      "version": 3,
      "changeset": 171241843,
      "user": "Comino",
      "uid": 6794624,
      "tags": {
        "addr:city": "La Paz",
        "addr:neighbourhood": "Zona Central",
        "addr:postcode": "23000",
        "addr:street": "Belisario Domínguez",
        "amenity": "bar",
        "check_date:currency:XBT": "2024-01-01",
        "currency:XBT": "yes",
        "name": "Les Miserable",
        "payment:lightning": "yes",
        "payment:onchain": "yes"
      }
    },
    {
      "type": "node",
      "id": 9211383513,
      "lat": 29.0752419,
      "lon": -110.9643974,
      "timestamp": "2021-10-30T03:28:00Z",
      "version": 1,
      "changeset": 113146912,
      "user": "MarcAbonce",
      "uid": 13849323,
      "tags": {
        "amenity": "pub",
        "brewery": "various",
        "name": "Barrio Roma"
      }
    },
    {
      "type": "node",
      "id": 9633732118,
      "lat": 26.8891898,
      "lon": -111.987252,
      "timestamp": "2022-04-29T18:04:06Z",
      "version": 2,
      "changeset": 120359456,
      "user": "Erlen Dur",
      "uid": 4242854,
      "tags": {
        "amenity": "pub",
        "contact:facebook": "https://www.facebook.com/mulegebrewingco/",
        "microbrewery": "yes",
        "name": "Mulegé Brewing Co.",
        "opening_hours": "Mo-Th 11:00-21:00; Fr-Sa 11:00-21:00"
      }
    },
    {
      "type": "node",
      "id": 9875280818,
      "lat": 24.1799127,
      "lon": -110.303016,
      "timestamp": "2023-01-11T20:17:27Z",
      "version": 3,
      "changeset": 131160856,
      "user": "CENTSOARER",
      "uid": 232801,
      "tags": {
        "amenity": "pub",
        "food": "yes",
        "name": "Cocos el Terraplén"
      }
    },
    {
      "type": "node",
      "id": 11520294457,
      "lat": 23.4499854,
      "lon": -110.2244542,
      "timestamp": "2024-01-15T23:40:10Z",
      "version": 1,
      "changeset": 146301972,
      "user": "Karindag",
      "uid": 635984,
      "tags": {
        "amenity": "bar",
        "name": "Boyitacos Bar and Grill"
      }
    },
    {
      "type": "node",
      "id": 11973945044,
      "lat": 24.1591068,
      "lon": -110.318334,
      "timestamp": "2025-08-30T18:57:17Z",
      "version": 2,
      "changeset": 171241830,
      "user": "Comino",
      "uid": 6794624,
      "tags": {
        "addr:city": "La Paz",
        "addr:housenumber": "314",
        "addr:neighbourhood": "Zona Comercial",
        "addr:postcode": "23000",
        "addr:state": "B.C.S.",
        "addr:street": "Calle Mutualismo",
        "amenity": "bar",
        "check_date:currency:XBT": "2024-01-01",
        "currency:XBT": "yes",
        "name": "La Mechuda Vermuteria",
        "payment:lightning": "yes",
        "payment:onchain": "yes"
      }
    },
    {
      "type": "node",
      "id": 11973991762,
      "lat": 24.1635508,
      "lon": -110.3163238,
      "timestamp": "2025-08-30T18:57:01Z",
      "version": 2,
      "changeset": 171241818,
      "user": "Comino",
      "uid": 6794624,
      "tags": {
        "amenity": "bar",
        "check_date:currency:XBT": "2024-01-01",
        "currency:XBT": "yes",
        "name": "Terrace La Choperia",
        "payment:lightning": "yes",
        "payment:onchain": "yes"
      }
    },
    {
      "type": "way",
      "id": 515719681,
      "timestamp": "2017-08-15T03:23:43Z",
      "version": 1,
      "changeset": 51127203,
      "user": "Juan Felipe Lopez",
      "uid": 6483424,
      "center": {
        "lat": 27.3540996,
        "lon": -110.0366275
      },
      "nodes": [
        5035927113,
        5035927053,
        5035927114,
        5035927115,
        5035927113
      ],
      "tags": {
        "amenity": "bar",
        "building": "yes",
        "name": "Yaqui Town"
      }
    },
    {
      "type": "way",
      "id": 515722031,
      "timestamp": "2017-08-15T03:44:50Z",
      "version": 1,
      "changeset": 51127396,
      "user": "Juan Felipe Lopez",
      "uid": 6483424,
      "center": {
        "lat": 27.3533089,
        "lon": -110.0361929
      },
      "nodes": [
        5035948658,
        5035948659,
        5035948660,
        5035948661,
        5035948658
      ],
      "tags": {
        "amenity": "bar",
        "building": "yes"
      }
    },
    {
      "type": "way",
      "id": 515722032,
      "timestamp": "2017-08-15T03:44:50Z",
      "version": 1,
      "changeset": 51127396,
      "user": "Juan Felipe Lopez",
      "uid": 6483424,
      "center": {
        "lat": 27.3530487,
        "lon": -110.0362886
      },
      "nodes": [
        5035948662,
        5035948663,
        5035948664,
        5035948665,
        5035948662
      ],
      "tags": {
        "amenity": "bar",
        "building": "yes"
      }
    },
    {
      "type": "way",
      "id": 515724101,
      "timestamp": "2017-08-15T04:06:11Z",
      "version": 1,
      "changeset": 51127566,
      "user": "Juan Felipe Lopez",
      "uid": 6483424,
      "center": {
        "lat": 27.3547315,
        "lon": -110.0354133
      },
      "nodes": [
        5035961723,
        5035961724,
        5035961725,
        5035961726,
        5035961723
      ],
      "tags": {
        "amenity": "bar",
        "building": "yes",
        "name": "Expendio"
      }
    },
    {
      "type": "way",
      "id": 517128996,
      "timestamp": "2017-08-21T02:52:04Z",
      "version": 1,
      "changeset": 51289450,
      "user": "Juan Felipe Lopez",
      "uid": 6483424,
      "center": {
        "lat": 27.3541721,
        "lon": -110.0341736
      },
      "nodes": [
        5047155803,
        5047155804,
        5047155805,
        5047155806,
        5047155803
      ],
      "tags": {
        "amenity": "bar",
        "building": "yes"
      }
    },
    {
      "type": "way",
      "id": 835396769,
      "timestamp": "2020-08-10T00:18:53Z",
      "version": 4,
      "changeset": 89168564,
      "user": "mdelatorre",
      "uid": 84642,
      "center": {
        "lat": 28.8586961,
        "lon": -112.0205495
      },
      "nodes": [
        7797700056,
        7797606548,
        7797606549,
        7797606550,
        7797700056
      ],
      "tags": {
        "addr:city": "Bahía de Kino",
        "addr:country": "MX",
        "addr:housenumber": "674",
        "addr:postcode": "83348",
        "addr:province": "Hermosillo",
        "addr:state": "SON",
        "addr:street": "Avenida Mar de Cortés",
        "addr:suburb": "Kino Nuevo",
        "amenity": "bar",
        "building": "hotel",
        "image": "http://www.casablancakinobay.com/wp-content/uploads/2012/10/DSC_0759-1024x680.jpg",
        "name": "Casa Blanca Inn",
        "operator": "Casa Blanca Inn",
        "phone": "+52-662-242-0777",
        "tourism": "hotel",
        "website": "http://www.casablancakinobay.com/"
      }
    }
  ]
}