{
  "version": 0.6,
  "generator": "Overpass API 0.7.62.8 e802775f",
  "osm3s": {
    "timestamp_osm_base": "2025-10-23T20:04:35Z",
    "copyright": "The data included in this document is from www.openstreetmap.org. The data is made available under ODbL."
  },
  "elements": [
    {
      "type": "node",
      "id": 575673008,
      "lat": 27.688615,
      "lon": 86.7313415,
      "timestamp": "2018-08-27T17:42:46Z",
      "version": 2,
      "changeset": 62047251,
      "user": "Yeti-17",
      "uid": 6969191,
      "tags": {
        "amenity": "pub",
        "name": "Sunny Garden (Everest Rock Bar)"
      }
    },
    {
      "type": "node",
      "id": 575674999,
      "lat": 27.6891618,
      "lon": 86.729851,
      "timestamp": "2019-01-29T14:41:25Z",
      "version": 5,
      "changeset": 66740963,
      "user": "uhsch",
      "uid": 3737133,
      "tags": {
        "amenity": "bar",
        "brewery": "various",
        "description": "Former Starbucks. Same staff, but now they serve beer!",
        "internet_access": "wlan",
        "name": "The Irish Pub"
      }
    },
    {
      "type": "node",
      "id": 1555308318,
      "lat": 28.2107156,
      "lon": 83.9565679,
      "timestamp": "2016-08-22T06:40:07Z",
      "version": 2,
      "changeset": 41607466,
      "user": "Bishal9841",
      "uid": 3573216,
      "tags": {
        "amenity": "bar",
        "name": "Club Nasha",
        "name:ne": "क्लब नाशा"
      }
    },
    {
      "type": "node",
      "id": 1652540270,
      "lat": 22.5905786,
      "lon": 88.4209203,
      "timestamp": "2012-03-22T15:28:32Z",
      "version": 2,
      "changeset": 11064008,
      "user": "sujandeb",
      "uid": 145671,
      "tags": {
        "amenity": "bar",
        "name": "Mishra's"
      }
    },
    {
      "type": "node",
      "id": 1892815646,
      "lat": 27.6760597,
      "lon": 85.3138375,
      "timestamp": "2015-02-15T17:17:02Z",
      "version": 4,
      "changeset": 28867811,
      "user": "prabhasp",
      "uid": 350005,
      "tags": {
        "amenity": "bar",
        "cuisine": "Wine Bar",
        "facilities": "winery",
        "name": "Vesper House"
      }
    },
    {
      "type": "node",
      "id": 1894392423,
      "lat": 27.6700803,
      "lon": 85.3324423,
      "timestamp": "2012-09-02T10:53:44Z",
      "version": 1,
      "changeset": 12952115,
      "user": "bimal(Adyota)",
      "uid": 682234,
      "tags": {
        "amenity": "pub",
        "name": "maharjan newai khaja ghar"
      }
    },
    {
      "type": "node",
      "id": 1894398536,
      "lat": 27.662775,
      "lon": 85.3294325,
      "timestamp": "2017-05-30T08:33:42Z",
      "version": 2,
      "changeset": 49096713,
      "user": "Alisha12",
      "uid": 4204463,
      "tags": {
        "amenity": "biergarten",
        "name": "Batuk bhairav khaja ghar"
      }
    },
    {
      "type": "node",
      "id": 1905861603,
      "lat": 27.6740547,
      "lon": 85.3250105,
      "timestamp": "2012-09-08T18:03:45Z",
      "version": 1,
      "changeset": 13036269,
      "user": "bibstha",
      "uid": 680866,
      "tags": {
        "amenity": "pub",
        "name": "Honacha"
      }
    },
    {
      "type": "node",
      "id": 1917102697,
      "lat": 27.7384384,
      "lon": 85.3353257,
      "timestamp": "2024-05-29T07:06:41Z",
      "version": 7,
      "changeset": 151974033,
      "user": "Bogomil Shopov - Бого",
      "uid": 335143,
      "tags": {
        "amenity": "pub",
        "amenity_1": "restaurant",
        "name": "All Star Sports Bar",
        "name:en": "Headlines Sports Restaurant & Bar",
        "phone": "98510 656 92",
        "smoking": "yes"
      }
    },
    {
      "type": "node",
      "id": 2002392575,
      "lat": 27.7353383,
      "lon": 85.3162267,
      "timestamp": "2012-11-08T10:28:05Z",
      "version": 1,
      "changeset": 13795791,
      "user": "Nama",
      "uid": 24996,
      "tags": {
        "amenity": "bar",
        "name": "Salsa Bar"
      }
    },
    {
      "type": "node",
      "id": 2078570596,
      "lat": 27.6321878,
      "lon": 85.3908857,
      "timestamp": "2012-12-22T13:27:07Z",
      "version": 1,
      "changeset": 14365801,
      "user": "prajjwal",
      "uid": 1089235,
      "tags": {
        "amenity": "pub",
        "name": "newari khaja ghar"
      }
    },
    {
      "type": "node",
      "id": 2110225744,
      "lat": 27.6692009,
      "lon": 85.2766003,
      "timestamp": "2013-01-14T10:00:27Z",
      "version": 2,
      "changeset": 14645794,
      "user": "shashish",
      "uid": 236945,
      "tags": {
        "amenity": "pub",
        "shop": "beverages"
      }
    },
    {
      "type": "node",
      "id": 2113481508,
      "lat": 27.668796,
      "lon": 85.2767418,
      "timestamp": "2013-01-16T10:06:18Z",
      "version": 1,
      "changeset": 14670577,
      "user": "Rupendra",
      "uid": 1189808,
      "tags": {
        "amenity": "pub",
        "name": "Sadikshya Khaja Ghar"
      }
    },
    {
      "type": "node",
      "id": 2166606916,
      "lat": 27.7035139,
      "lon": 85.307054,
      "timestamp": "2021-02-13T00:07:57Z",
      "version": 3,
      "changeset": 99199775,
      "user": "Tulsi bhatt",
      "uid": 11587766,
      "tags": {
        "amenity": "pub",
        "name": "Rooftop restaurant"
      }
    },
    {
      "type": "node",
      "id": 2178304445,
      "lat": 22.7629135,
      "lon": 88.3637669,
      "timestamp": "2013-02-28T13:05:32Z",
      "version": 3,
      "changeset": 15196260,
      "user": "Ritwick",
      "uid": 1237884,
      "tags": {
        "amenity": "pub",
        "name": "Ubique Hotel & Restaurant-cum-Bar",
        "source": "Survey",
        "wifi": "no"
      }
    },
    {
      "type": "node",
      "id": 2196720596,
      "lat": 27.6888582,
      "lon": 85.3982833,
      "timestamp": "2013-03-12T00:59:42Z",
      "version": 1,
      "changeset": 15335128,
      "user": "Arjankc",
      "uid": 1261970,
      "tags": {
        "addr:housename": "Green House",
        "addr:street": "Bakha bazzar",
        "alt_name": "WJCP",
        "amenity": "pub",
        "designation": "Cafe and Pub",
        "int_name": "Green House",
        "name": "Wall Junction Chiya Pasal",
        "old_name": "Kaka ko pasal",
        "source": "Local resident",
        "wifi": "no"
      }
    },
    {
      "type": "node",
      "id": 2318651595,
      "lat": 27.5761273,
      "lon": 84.4927084,
      "timestamp": "2018-08-20T19:23:41Z",
      "version": 2,
      "changeset": 61833899,
      "user": "LateNightTone",
      "uid": 4003485,
      "tags": {
        "amenity": "pub",
        "name": "Chitwan Bar"
      }
    },
    {
      "type": "node",
      "id": 2419480180,
      "lat": 22.2577887,
      "lon": 85.8086516,
      "timestamp": "2022-03-29T18:53:59Z",
      "version": 4,
      "changeset": 119084490,
      "user": "sfrank",
      "uid": 18052,
      "tags": {
        "addr:postcode": "833214",
        "amenity": "bar",
        "name": "'Diyeng' Rice Beer."
      }
    },
    {
      "type": "node",
      "id": 2419776834,
      "lat": 23.350289,
      "lon": 85.3262418,
      "timestamp": "2021-01-13T15:23:24Z",
      "version": 4,
      "changeset": 97451171,
      "user": "Prakash Baski",
      "uid": 12078020,
      "tags": {
        "amenity": "bar",
        "name": "Palash Bar",
        "name:sat": "ᱯᱟᱞᱟᱥ ᱵᱟᱨ"
      }
    },
    {
      "type": "node",
      "id": 2419780019,
      "lat": 23.3602446,
      "lon": 85.3573797,
      "timestamp": "2013-08-15T12:52:05Z",
      "version": 2,
      "changeset": 17358881,
      "user": "Sushil K Pingua",
      "uid": 1713059,
      "tags": {
        "amenity": "bar",
        "name": "Gaon"
      }
    },
    {
      "type": "node",
      "id": 2461251697,
      "lat": 22.5494789,
      "lon": 88.4010016,
      "timestamp": "2013-09-17T07:21:06Z",
      "version": 1,
      "changeset": 17880901,
      "user": "maxsaurav",
      "uid": 1441814,
      "tags": {
        "amenity": "pub",
        "name": "The Spring Club"
      }
    },
    {
      "type": "node",
      "id": 2464357910,
      "lat": 22.5818422,
      "lon": 88.449317,
      "timestamp": "2013-09-19T19:32:24Z",
      "version": 1,
      "changeset": 17928742,
      "user": "maxsaurav",
      "uid": 1441814,
      "tags": {
        "amenity": "pub",
        "name": "Oval"
      }
    },
    {
      "type": "node",
      "id": 2626916300,
      "lat": 23.7319414,
      "lon": 86.8442558,
      "timestamp": "2014-01-18T11:47:44Z",
      "version": 1,
      "changeset": 20064790,
      "user": "UV!",
      "uid": 1885513,
      "tags": {
        "amenity": "pub",
        "name": "Kulti Club"
      }
    },
    {
      "type": "node",
      "id": 2684769719,
      "lat": 27.6719594,
      "lon": 85.3152496,
      "timestamp": "2014-02-22T09:31:13Z",
      "version": 1,
      "changeset": 20709821,
      "user": "ashmi",
      "uid": 1948322,
      "tags": {
        "amenity": "bar",
        "name": "crazy dance bar"
      }
    },
    {
      "type": "node",
      "id": 2807805446,
      "lat": 28.1900185,
      "lon": 83.0890705,
      "timestamp": "2014-04-22T02:59:12Z",
      "version": 1,
      "changeset": 21853759,
      "user": "elmiguel14",
      "uid": 2040642,
      "tags": {
        "amenity": "pub",
        "name": "Deurali MonkeyBar"
      }
    },
    {
      "type": "node",
      "id": 2910370253,
      "lat": 23.3788266,
      "lon": 85.3239575,
      "timestamp": "2014-06-11T06:50:44Z",
      "version": 1,
      "changeset": 22865019,
      "user": "neha sahu",
      "uid": 2113383,
      "tags": {
        "amenity": "bar",
        "name": "wine shop"
      }
    },
    {
      "type": "node",
      "id": 2935075370,
      "lat": 20.2428144,
      "lon": 85.7861129,
      "timestamp": "2014-06-27T08:01:42Z",
      "version": 2,
      "changeset": 23207975,
      "user": "sunita dumuduma",
      "uid": 2150358,
      "tags": {
        "amenity": "bar",
        "name": "dumuduma bar"
      }
    },
    {
      "type": "node",
      "id": 3095105722,
      "lat": 27.6556674,
      "lon": 85.3215269,
      "timestamp": "2018-03-14T06:42:55Z",
      "version": 2,
      "changeset": 57166971,
      "user": "SujitShrestha",
      "uid": 7794099,
      "tags": {
        "amenity": "pub",
        "name": "Sherpa hotel",
        "smoking": "yes"
      }
    },
    {
      "type": "node",
      "id": 3331703762,
      "lat": 27.714444,
      "lon": 85.3122611,
      "timestamp": "2015-02-05T11:41:33Z",
      "version": 1,
      "changeset": 28628707,
      "user": "mikecc",
      "uid": 14034,
      "tags": {
        "amenity": "bar",
        "level": "1",
        "name": "Unique Bar"
      }
    },
    {
      "type": "node",
      "id": 3345444339,
      "lat": 27.6960033,
      "lon": 84.4433641,
      "timestamp": "2015-02-12T09:46:39Z",
      "version": 1,
      "changeset": 28791003,
      "user": "Aashish poudel",
      "uid": 2658224,
      "tags": {
        "amenity": "bar"
      }
    },
    {
      "type": "node",
      "id": 3416542473,
      "lat": 27.716542,
      "lon": 85.3124623,
      "timestamp": "2020-11-27T21:04:25Z",
      "version": 3,
      "changeset": 94914059,
      "user": "rouelibre1",
      "uid": 10901304,
      "tags": {
        "addr:street": "Bhagwan Bahal Marga",
        "amenity": "bar",
        "cuisine": "ramen;breakfast;local;pasta;pizza;curry;indian",
        "diet:vegetarian": "yes",
        "name": "Café des arts",
        "name:en": "Bonsai restro & bar",
        "name:nl": "Bonsai restro & bar"
      }
    },
    {
      "type": "node",
      "id": 3440414039,
      "lat": 27.5396573,
      "lon": 84.8072093,
      "timestamp": "2015-04-06T05:54:50Z",
      "version": 1,
      "changeset": 30007058,
      "user": "MeghaShrestha",
      "uid": 1290299,
      "tags": {
        "amenity": "bar",
        "name": "manahari coldstore"
      }
    },
    {
      "type": "node",
      "id": 3445992310,
      "lat": 27.5406285,
      "lon": 84.8093555,
      "timestamp": "2015-04-09T05:52:40Z",
      "version": 1,
      "changeset": 30081015,
      "user": "ReshmaLama",
      "uid": 2807179,
      "tags": {
        "amenity": "bar",
        "name": "Babu cold store"
      }
    },
    {
      "type": "node",
      "id": 3447934294,
      "lat": 27.5388777,
      "lon": 84.8074335,
      "timestamp": "2015-04-10T05:07:46Z",
      "version": 1,
      "changeset": 30109503,
      "user": "Neelam123",
      "uid": 2806022,
      "tags": {
        "amenity": "pub",
        "name": "rijal store"
      }
    },
    {
      "type": "node",
      "id": 3448046467,
      "lat": 27.7148984,
      "lon": 85.310633,
      "timestamp": "2023-06-15T09:50:37Z",
      "version": 5,
      "changeset": 137362759,
      "user": "frozenrabi",
      "uid": 10459757,
      "tags": {
        "amenity": "bar",
        "name": "चियर्स बार",
        "name:en": "Cheers Bar",
        "name:ne": "चियर्स बार"
      }
    },
    {
      "type": "node",
      "id": 3582812767,
      "lat": 26.0703601,
      "lon": 83.1808583,
      "timestamp": "2015-06-09T08:47:32Z",
      "version": 1,
      "changeset": 31837197,
      "user": "lavanyashetty",
      "uid": 2891124,
      "tags": {
        "amenity": "bar",
        "name": "jyoti"
      }
    },
    {
      "type": "node",
      "id": 3605488689,
      "lat": 27.7146939,
      "lon": 85.3109624,
      "timestamp": "2023-06-15T09:50:37Z",
      "version": 4,
      "changeset": 137362759,
      "user": "frozenrabi",
      "uid": 10459757,
      "tags": {
        "addr:city": "Kathmandu",
        "addr:country": "NP",
        "addr:postcode": "00977",
        "addr:state": "Central Region",
        "amenity": "bar",
        "name": "माया ककटेल बार",
        "name:en": "Maya Cocktail Bar",
        "name:ne": "माया ककटेल बार",
        "outdoor_seating": "no",
        "phone": "4700371"
      }
    },
    {
      "type": "node",
      "id": 3635819232,
      "lat": 28.2108905,
      "lon": 83.9569283,
      "timestamp": "2019-03-20T20:21:18Z",
      "version": 7,
      "changeset": 68352151,
      "user": "b-jazz-bot",
      "uid": 9451067,
      "tags": {
        "amenity": "pub",
        "internet_access": "yes",
        "name": "Busy Bee",
        "name:ne": "बिजी बी क्याफे",
        "note": "Free WiFi",
        "opening_hours": "11:00-24:00",
        "outdoor_seating": "yes",
        "phone": "9846394315",
        "smoking": "yes",
        "website": "https://www.cafebusybee.com/"
      }
    },
    {
      "type": "node",
      "id": 3669924575,
      "lat": 28.2127516,
      "lon": 83.9572634,
      "timestamp": "2020-03-30T04:27:04Z",
      "version": 8,
      "changeset": 82801739,
      "user": "Tyr_ant",
      "uid": 6834411,
      "tags": {
        "addr:city": "Pokhara",
        "addr:district": "Lakeside",
        "addr:street": "Baidam Road",
        "amenity": "bar",
        "contact:phone": "+977 9826134004",
        "name": "New Sky Palace Dance Bar & Restaurant",
        "name:ne": "न्यु इस्काई प्यालेस डान्स बार एंड रेस्टुरेन्ट",
        "opening_hours": "8:00-23:00",
        "operator": "Arun K. Limbu",
        "website": "https://skypalacebar.business.site/"
      }
    },
    {
      "type": "node",
      "id": 3672887627,
      "lat": 25.2985986,
      "lon": 83.0019449,
      "timestamp": "2015-07-30T06:55:25Z",
      "version": 1,
      "changeset": 32970912,
      "user": "Nearo",
      "uid": 672542,
      "tags": {
        "amenity": "bar"
      }
    },
    {
      "type": "node",
      "id": 3674405042,
      "lat": 27.6695239,
      "lon": 84.5476658,
      "timestamp": "2015-07-31T06:41:48Z",
      "version": 1,
      "changeset": 32999179,
      "user": "SReed",
      "uid": 2872970,
      "tags": {
        "amenity": "bar"
      }
    },
    {
      "type": "node",
      "id": 3700719643,
      "lat": 28.2234303,
      "lon": 83.9875321,
      "timestamp": "2016-09-14T10:02:59Z",
      "version": 3,
      "changeset": 42145444,
      "user": "Bishal9841",
      "uid": 3573216,
      "tags": {
        "amenity": "bar",
        "name": "VE'YE Restro Bar Lounge",
        "name:ne": "भी.ये रेस्ट्रो बार लन्ज"
      }
    },
    {
      "type": "node",
      "id": 3708834311,
      "lat": 22.0592901,
      "lon": 88.0617595,
      "timestamp": "2015-08-22T04:31:41Z",
      "version": 1,
      "changeset": 33498451,
      "user": "samit_53",
      "uid": 2297171,
      "tags": {
        "addr:city": "Haldia",
        "addr:housenumber": "Kadamtala",
        "amenity": "bar",
        "name": "Hotel Suraj"
      }
    },
    {
      "type": "node",
      "id": 4012267067,
      "lat": 27.7153536,
      "lon": 85.3101692,
      "timestamp": "2016-02-18T08:48:20Z",
      "version": 1,
      "changeset": 37282616,
      "user": "OMNIBUS",
      "uid": 223444,
      "tags": {
        "amenity": "bar",
        "name": "Shisha terrace Cafe n' Bar",
        "phone": "01-4701104"
      }
    },
    {
      "type": "node",
      "id": 4104026289,
      "lat": 27.7143028,
      "lon": 85.3108006,
      "timestamp": "2023-06-15T09:50:37Z",
      "version": 5,
      "changeset": 137362759,
      "user": "frozenrabi",
      "uid": 10459757,
      "tags": {
        "addr:street": "Narsingh Chowk",
        "amenity": "bar",
        "email": "rootsbarnepal@gmail.com",
        "name": "रुट्स रेस्ट्रो र बार नेपाल",
        "name:en": "Roots Restro and Bar Nepal",
        "name:ne": "रुट्स रेस्ट्रो र बार नेपाल",
        "opening_hours": "Su-Th 12:00-23:30; Fr 12:00-24:00; Sa 13:00-24:00",
        "phone": "977014700490"
      }
    },
    {
      "type": "node",
      "id": 4168476990,
      "lat": 27.7207168,
      "lon": 85.3085274,
      "timestamp": "2024-03-10T16:18:37Z",
      "version": 2,
      "changeset": 148469793,
      "user": "chsel",
      "uid": 10717503,
      "tags": {
        "amenity": "pub",
        "check_date": "2024-03-07",
        "name": "Harati Newari"
      }
    },
    {
      "type": "node",
      "id": 4221129305,
      "lat": 27.4719104,
      "lon": 89.6387735,
      "timestamp": "2021-11-26T16:20:27Z",
      "version": 4,
      "changeset": 114269914,
      "user": "seichter",
      "uid": 66497,
      "tags": {
        "addr:housenumber": "4",
        "addr:postcode": "11001",
        "addr:street": "Norzin Lam - 2",
        "amenity": "bar",
        "name": "Lungta Gongphel Drayang/Club",
        "name:en": "Trophel Drayang",
        "opening_hours": "06:00-23:00",
        "operator": "Club",
        "smoking": "no"
      }
    },
    {
      "type": "node",
      "id": 4226498590,
      "lat": 27.5752931,
      "lon": 84.4932501,
      "timestamp": "2021-12-03T14:03:46Z",
      "version": 2,
      "changeset": 114524647,
      "user": "PraKH",
      "uid": 11491881,
      "tags": {
        "amenity": "bar",
        "internet_access": "wlan",
        "name": "Sunset View Restaurant & Bar"
      }
    },
    {
      "type": "node",
      "id": 4290990090,
      "lat": 28.2103676,
      "lon": 83.9558355,
      "timestamp": "2016-08-22T09:04:26Z",
      "version": 2,
      "changeset": 41609733,
      "user": "Bishal9841",
      "uid": 3573216,
      "tags": {
        "amenity": "bar",
        "cuisine": "local;breakfast",
        "name": "Planet Purple",
        "name:ne": "प्लानेट पर्पल"
      }
    },
    {
      "type": "node",
      "id": 4322306261,
      "lat": 27.4616502,
      "lon": 89.6417822,
      "timestamp": "2020-06-22T07:50:42Z",
      "version": 2,
      "changeset": 86965076,
      "user": "rinchendorji",
      "uid": 11144710,
      "tags": {
        "amenity": "bar",
        "name": "Meena Bar",
        "phone": "17619449"
      }
    },
    {
      "type": "node",
      "id": 4327597890,
      "lat": 27.7147873,
      "lon": 85.310431,
      "timestamp": "2021-03-19T16:31:17Z",
      "version": 6,
      "changeset": 101341384,
      "user": "wvdp",
      "uid": 436419,
      "tags": {
        "addr:street": "Chaksibari Marg",
        "amenity": "bar",
        "cuisine": "asian;american;chicken;curry;indian;international;noodles",
        "internet_access": "wlan",
        "name": "Purple Haze",
        "opening_hours": "Mo-Su 17:00-24:00",
        "website": "https://www.purplehazerockbar.com/"
      }
    },
    {
      "type": "node",
      "id": 4353571377,
      "lat": 27.4775766,
      "lon": 89.6372871,
      "timestamp": "2022-11-08T17:14:04Z",
      "version": 4,
      "changeset": 128650376,
      "user": "seichter",
      "uid": 66497,
      "tags": {
        "addr:city": "Thimphu",
        "addr:housenumber": "142",
        "addr:postcode": "11001",
        "addr:street": "Thagzo Lam SE",
        "amenity": "bar",
        "name": "The Station, Bistro bar & Grill"
      }
    },
    {
      "type": "node",
      "id": 4353594610,
      "lat": 27.4762899,
      "lon": 89.6363824,
      "timestamp": "2016-08-17T08:35:06Z",
      "version": 1,
      "changeset": 41507160,
      "user": "TsheringJC",
      "uid": 4427426,
      "tags": {
        "amenity": "pub",
        "name": "Tiger Pub",
        "source": "fieldwork"
      }
    },
    {
      "type": "node",
      "id": 4361035009,
      "lat": 27.4727607,
      "lon": 89.6406383,
      "timestamp": "2016-08-22T05:51:40Z",
      "version": 1,
      "changeset": 41606727,
      "user": "oogyen",
      "uid": 4447600,
      "tags": {
        "addr:city": "Thimphu",
        "addr:place": "Thimphu central Plaza",
        "amenity": "bar",
        "internet_access": "yes",
        "internet_access:fee": "no",
        "name": "Barz Brothers",
        "operator": "Barz Brothers",
        "outdoor_seating": "yes",
        "phone": "+975 17374771",
        "smoking": "outside"
      }
    },
    {
      "type": "node",
      "id": 4361063286,
      "lat": 27.4715783,
      "lon": 89.6375395,
      "timestamp": "2016-08-22T06:06:48Z",
      "version": 1,
      "changeset": 41606981,
      "user": "Drona",
      "uid": 4447603,
      "tags": {
        "amenity": "bar",
        "name": "fusion"
      }
    },
    {
      "type": "node",
      "id": 4361065204,
      "lat": 27.4733513,
      "lon": 89.6371988,
      "timestamp": "2016-08-22T06:06:48Z",
      "version": 1,
      "changeset": 41606981,
      "user": "Drona",
      "uid": 4447603,
      "tags": {
        "amenity": "pub",
        "name": "winner pub"
      }
    },
    {
      "type": "node",
      "id": 4361065230,
      "lat": 27.4750703,
      "lon": 89.636178,
      "timestamp": "2016-08-22T06:07:12Z",
      "version": 1,
      "changeset": 41606988,
      "user": "Ram Mukhia",
      "uid": 4447619,
      "tags": {
        "amenity": "bar",
        "name": "Choden Bar & Grocery"
      }
    },
    {
      "type": "node",
      "id": 4361137894,
      "lat": 27.4696774,
      "lon": 89.6389902,
      "timestamp": "2024-05-21T15:35:57Z",
      "version": 2,
      "changeset": 151634904,
      "user": "Tpema",
      "uid": 21549869,
      "tags": {
        "amenity": "bar",
        "name": "DE Heaven Club (Karaoke, Live, Bar & Café)"
      }
    },
    {
      "type": "node",
      "id": 4361138372,
      "lat": 27.4728289,
      "lon": 89.6374389,
      "timestamp": "2016-08-22T06:54:17Z",
      "version": 1,
      "changeset": 41607685,
      "user": "Drona",
      "uid": 4447603,
      "tags": {
        "amenity": "pub",
        "microbrewery": "yes",
        "name": "Norzang Restaurant",
        "phone": "02325597"
      }
    },
    {
      "type": "node",
      "id": 4363030845,
      "lat": 27.7167144,
      "lon": 85.3101427,
      "timestamp": "2023-05-26T14:25:45Z",
      "version": 2,
      "changeset": 136590409,
      "user": "woolfesss",
      "uid": 16738479,
      "tags": {
        "amenity": "pub",
        "indoor_seating": "yes",
        "name": "Everest Irish Pub",
        "outdoor_seating": "yes"
      }
    },
    {
      "type": "node",
      "id": 4370574995,
      "lat": 27.4728797,
      "lon": 89.6371266,
      "timestamp": "2023-11-07T11:20:07Z",
      "version": 2,
      "changeset": 143732585,
      "user": "sagarawrz07",
      "uid": 4831756,
      "tags": {
        "amenity": "bar",
        "check_date": "2023-11-07",
        "name": "Yangchen Bar",
        "operator": "326849"
      }
    },
    {
      "type": "node",
      "id": 4370624650,
      "lat": 27.4709313,
      "lon": 89.639615,
      "timestamp": "2016-08-28T06:17:10Z",
      "version": 1,
      "changeset": 41748626,
      "user": "Kesang Eden Phuntshok",
      "uid": 4447628,
      "tags": {
        "amenity": "bar",
        "contact:phone": "77777719",
        "contact:website": "www.thewoodsbhutan.com",
        "name": "The Woods"
      }
    },
    {
      "type": "node",
      "id": 4370810196,
      "lat": 27.4688904,
      "lon": 89.6408955,
      "timestamp": "2016-08-28T10:00:17Z",
      "version": 1,
      "changeset": 41751927,
      "user": "jimpalden",
      "uid": 4447527,
      "tags": {
        "amenity": "bar",
        "name": "B.B Be Delight Rest and Bar"
      }
    },
    {
      "type": "node",
      "id": 4383892189,
      "lat": 27.4723088,
      "lon": 89.6414819,
      "timestamp": "2016-09-04T16:06:05Z",
      "version": 1,
      "changeset": 41911097,
      "user": "Ruling Garab",
      "uid": 4484710,
      "tags": {
        "amenity": "pub",
        "name:en": "Bhutan Tennis Federation"
      }
    },
    {
      "type": "node",
      "id": 4395635389,
      "lat": 20.2007817,
      "lon": 84.4456817,
      "timestamp": "2016-09-11T04:56:33Z",
      "version": 4,
      "changeset": 42070877,
      "user": "Ganesh Badatya",
      "uid": 4559334,
      "tags": {
        "amenity": "bar",
        "shop": "bakery",
        "tourism": "attraction"
      }
    },
    {
      "type": "node",
      "id": 4395635589,
      "lat": 20.2006131,
      "lon": 84.4456572,
      "timestamp": "2016-09-11T04:56:37Z",
      "version": 2,
      "changeset": 42070877,
      "user": "Ganesh Badatya",
      "uid": 4559334,
      "tags": {
        "amenity": "bar"
      }
    },
    {
      "type": "node",
      "id": 4396296420,
      "lat": 27.4699128,
      "lon": 89.6405266,
      "timestamp": "2021-11-26T16:20:27Z",
      "version": 2,
      "changeset": 114269914,
      "user": "seichter",
      "uid": 66497,
      "tags": {
        "addr:housenumber": "13",
        "addr:postcode": "11001",
        "addr:street": "Chang Lam - 1",
        "amenity": "pub",
        "name:en": "Om Pub"
      }
    },
    {
      "type": "node",
      "id": 4397665789,
      "lat": 27.7404552,
      "lon": 86.7126718,
      "timestamp": "2016-09-12T15:07:06Z",
      "version": 1,
      "changeset": 42103194,
      "user": "Prabin Shrestha",
      "uid": 4168439,
      "tags": {
        "addr:postcode": "977",
        "addr:street": "Lukla to Namche kun",
        "amenity": "bar",
        "internet_access": "wlan",
        "name:en": "Sherpa Liquid Bar",
        "opening_hours": "24/7"
      }
    },
    {
      "type": "node",
      "id": 4403934075,
      "lat": 26.4537815,
      "lon": 87.2652403,
      "timestamp": "2016-09-16T11:27:27Z",
      "version": 2,
      "changeset": 42200555,
      "user": "rupeshneupane",
      "uid": 4584324,
      "tags": {
        "addr:city": "biratnagar 15, pitchra, alka tole",
        "addr:street": "gokul marg",
        "amenity": "bar",
        "name": "Dewan house"
      }
    },
    {
      "type": "node",
      "id": 4405531492,
      "lat": 21.9442123,
      "lon": 83.340198,
      "timestamp": "2016-09-17T11:09:18Z",
      "version": 1,
      "changeset": 42224598,
      "user": "Preetish Manvi",
      "uid": 4590662,
      "tags": {
        "addr:housenumber": "96 NE Tower",
        "addr:postcode": "496001",
        "amenity": "bar",
        "email": "emanvi@yahoo.co.in",
        "internet_access": "wlan",
        "phone": "9827477709"
      }
    },
    {
      "type": "node",
      "id": 4413054189,
      "lat": 27.4592194,
      "lon": 89.6463893,
      "timestamp": "2022-07-15T08:25:07Z",
      "version": 3,
      "changeset": 123640721,
      "user": "Tashi_Dorji",
      "uid": 16530353,
      "tags": {
        "addr:housenumber": "16",
        "addr:postcode": "11001",
        "addr:street": "Zamdo Lam",
        "amenity": "bar",
        "email": "dawa9dorji@yahoo.com",
        "name:en": "Chha",
        "opening_hours": "Mo-Sa; Su 10:00-22:00",
        "phone": "17610090"
      }
    },
    {
      "type": "node",
      "id": 4414859694,
      "lat": 27.429743,
      "lon": 89.4136627,
      "timestamp": "2016-09-23T13:23:13Z",
      "version": 1,
      "changeset": 42373967,
      "user": "Sonam Tshewang",
      "uid": 670875,
      "tags": {
        "amenity": "bar",
        "name:en": "Lollipop Restaurant and Bar",
        "phone": "08-271951"
      }
    },
    {
      "type": "node",
      "id": 4415716290,
      "lat": 27.4297612,
      "lon": 89.4135963,
      "timestamp": "2016-09-23T22:44:58Z",
      "version": 1,
      "changeset": 42396207,
      "user": "Sonam Tshewang",
      "uid": 670875,
      "tags": {
        "amenity": "bar",
        "name:en": "Gurung Restaurant and Bar",
        "phone": "17346728"
      }
    },
    {
      "type": "node",
      "id": 4416405298,
      "lat": 27.4698709,
      "lon": 89.6404073,
      "timestamp": "2021-11-26T16:20:27Z",
      "version": 2,
      "changeset": 114269914,
      "user": "seichter",
      "uid": 66497,
      "tags": {
        "addr:housenumber": "13",
        "addr:postcode": "11001",
        "addr:street": "Chang Lam - 1",
        "amenity": "pub",
        "name:en": "Om Pub"
      }
    },
    {
      "type": "node",
      "id": 4421978477,
      "lat": 22.0959543,
      "lon": 82.1515481,
      "timestamp": "2021-04-27T20:19:00Z",
      "version": 2,
      "changeset": 103730106,
      "user": "Heinz_V",
      "uid": 91490,
      "tags": {
        "addr:city": "BILASPUR",
        "addr:postcode": "495001",
        "amenity": "bar",
        "name": "DESI SHARAB DUKHAN",
        "operator": "GOVT.",
        "smoking": "outside"
      }
    },
    {
      "type": "node",
      "id": 4425253613,
      "lat": 27.658945,
      "lon": 83.0416708,
      "timestamp": "2017-09-23T12:00:56Z",
      "version": 2,
      "changeset": 52302143,
      "user": "avanzaboy",
      "uid": 4653430,
      "tags": {
        "addr:street": "health post road",
        "amenity": "bar",
        "name": "SUBAIDA LOUNGE",
        "opening_hours": "24/7",
        "operator": "BASU DAI",
        "outdoor_seating": "yes",
        "smoking": "separated"
      }
    },
    {
      "type": "node",
      "id": 4425954723,
      "lat": 27.6617516,
      "lon": 83.0417674,
      "timestamp": "2021-09-30T01:01:18Z",
      "version": 4,
      "changeset": 111891947,
      "user": "avanzaboy",
      "uid": 4653430,
      "tags": {
        "addr:city": "Gorusinghe",
        "addr:street": "महेन्द्र राज्मार्ग्",
        "amenity": "bar",
        "name": "Hotel Pauwa",
        "opening_hours": "Mo-Su 07:00-22:00",
        "operator": "guu",
        "smoking": "no"
      }
    },
    {
      "type": "node",
      "id": 4432070572,
      "lat": 27.4513234,
      "lon": 89.6596512,
      "timestamp": "2016-10-05T04:28:38Z",
      "version": 1,
      "changeset": 42647357,
      "user": "tsheringlhamo",
      "uid": 4495462,
      "tags": {
        "addr:city": "Thimphu, Olakha",
        "addr:street": "Jàlu Lam",
        "amenity": "bar",
        "name": "Phuntshok LhendupsGrocery cum Bar"
      }
    },
    {
      "type": "node",
      "id": 4443683686,
      "lat": 21.2413091,
      "lon": 81.6842484,
      "timestamp": "2020-12-28T19:44:40Z",
      "version": 2,
      "changeset": 96556211,
      "user": "Josef73",
      "uid": 213831,
      "tags": {
        "addr:city": "raipur",
        "addr:postcode": "492001",
        "addr:street": "Magneto The Mall,Raipur",
        "amenity": "bar",
        "name": "10 Downing Street",
        "opening_hours": "Mo-Su 11:00-23:00",
        "phone": "+91 96914 41604",
        "website": "http://10ds.in/raipur/"
      }
    },
    {
      "type": "node",
      "id": 4443695283,
      "lat": 21.2599271,
      "lon": 81.5958741,
      "timestamp": "2024-02-13T17:35:00Z",
      "version": 2,
      "changeset": 147419296,
      "user": "Josef73",
      "uid": 213831,
      "tags": {
        "addr:city": "raipur",
        "addr:postcode": "492001",
        "addr:street": "Maruthi LifeStyle,Pamanand nagar,kota",
        "amenity": "bar",
        "name": "Club Paraiso",
        "opening_hours": "Mo-Su 06:00-18:00",
        "phone": "+91 0771-2970431",
        "website": "http://clubparaiso.in/Default.aspx"
      }
    },
    {
      "type": "node",
      "id": 4443710311,
      "lat": 21.2320516,
      "lon": 81.6809188,
      "timestamp": "2023-03-11T12:03:40Z",
      "version": 2,
      "changeset": 133550787,
      "user": "Josef73",
      "uid": 213831,
      "tags": {
        "addr:city": "raipur",
        "addr:postcode": "492007",
        "addr:street": "VIP Road, Vishal Nagr,Near Hotel Shethal International",
        "amenity": "bar",
        "name": "Boozars Lounge",
        "opening_hours": "Mo-Su 10:00-23:00",
        "phone": "+91 8109110007"
      }
    },
    {
      "type": "node",
      "id": 4443739017,
      "lat": 21.2399174,
      "lon": 81.6789196,
      "timestamp": "2019-03-07T03:13:01Z",
      "version": 3,
      "changeset": 67866453,
      "user": "b-jazz-bot",
      "uid": 9451067,
      "tags": {
        "addr:city": "raipur",
        "addr:postcode": "492001",
        "addr:street": "zone by the park, Jivan Vihar",
        "amenity": "bar",
        "name": "Z Bar",
        "opening_hours": "Mo-Su 11:00-22:00",
        "phone": "+91 7714320000",
        "website": "https://www.zonebythepark.com/"
      }
    },
    {
      "type": "node",
      "id": 4444240135,
      "lat": 21.2427,
      "lon": 81.6436235,
      "timestamp": "2024-03-28T17:13:05Z",
      "version": 3,
      "changeset": 149279839,
      "user": "Josef73",
      "uid": 213831,
      "tags": {
        "addr:city": "raipur",
        "addr:postcode": "492001",
        "addr:street": "Daga Building,near raj bavan,civil lines",
        "amenity": "bar",
        "name": "j juice bar",
        "opening_hours": "Mo-Su 11:00-23:45",
        "phone": "+0771-4013690",
        "website": "https://www.jjuicebar.com/"
      }
    },
    {
      "type": "node",
      "id": 4444297938,
      "lat": 21.2339329,
      "lon": 81.6801172,
      "timestamp": "2020-03-19T17:01:01Z",
      "version": 2,
      "changeset": 82399757,
      "user": "Josef73",
      "uid": 213831,
      "tags": {
        "addr:city": "raipur",
        "addr:postcode": "492012",
        "addr:street": "VIshal nagar",
        "amenity": "bar",
        "name": "XtremeSports Bar",
        "opening_hours": "Mo-Su 11:00-24:00",
        "website": "http://www.xtremesportsbar.in/raipur.html"
      }
    },
    {
      "type": "node",
      "id": 4444311160,
      "lat": 21.2403147,
      "lon": 81.625387,
      "timestamp": "2016-10-12T17:21:37Z",
      "version": 1,
      "changeset": 42835768,
      "user": "GIS EXECUTIVE",
      "uid": 4624567,
      "tags": {
        "addr:city": "raipur",
        "addr:postcode": "492001",
        "addr:street": "raipur,chattisgarh",
        "amenity": "bar",
        "name": "Metro 7X11",
        "phone": "+91 9165272077"
      }
    },
    {
      "type": "node",
      "id": 4444322309,
      "lat": 21.2517794,
      "lon": 81.6480269,
      "timestamp": "2020-12-28T19:44:17Z",
      "version": 2,
      "changeset": 96556198,
      "user": "Josef73",
      "uid": 213831,
      "tags": {
        "addr:city": "raipur",
        "addr:postcode": "492001",
        "amenity": "bar",
        "name": "Orchid",
        "opening_hours": "Mo-Su 11:00-23:00",
        "phone": "+91 9926204313"
      }
    },
    {
      "type": "node",
      "id": 4445151489,
      "lat": 25.3060188,
      "lon": 83.008909,
      "timestamp": "2023-10-31T12:26:03Z",
      "version": 5,
      "changeset": 143418122,
      "user": "woolfesss",
      "uid": 16738479,
      "tags": {
        "air_conditioning": "no",
        "amenity": "bar",
        "indoor_seating": "yes",
        "internet_access": "wlan",
        "name:en": "JYOTI CAFE",
        "name:es": "Bana Lassi",
        "outdoor_seating": "no",
        "smoking": "no"
      }
    },
    {
      "type": "node",
      "id": 4461730735,
      "lat": 24.2951287,
      "lon": 87.852204,
      "timestamp": "2016-10-24T13:00:30Z",
      "version": 1,
      "changeset": 43122241,
      "user": "Ayan Roy",
      "uid": 4773876,
      "tags": {
        "amenity": "bar"
      }
    },
    {
      "type": "node",
      "id": 4477409493,
      "lat": 27.7100569,
      "lon": 85.3105894,
      "timestamp": "2022-01-30T10:06:10Z",
      "version": 2,
      "changeset": 116772487,
      "user": "Manoj Thapa",
      "uid": 781054,
      "tags": {
        "amenity": "bar",
        "name": "Roots",
        "phone": "9851182528"
      }
    },
    {
      "type": "node",
      "id": 4491752993,
      "lat": 28.2113859,
      "lon": 83.9664603,
      "timestamp": "2018-04-01T06:29:13Z",
      "version": 3,
      "changeset": 57705112,
      "user": "Shrestha Khum",
      "uid": 7644104,
      "tags": {
        "amenity": "bar",
        "name:en": "Bullet Basecamp",
        "phone": "9856038354,984-7088858"
      }
    },
    {
      "type": "node",
      "id": 4509911189,
      "lat": 27.0396783,
      "lon": 88.2655448,
      "timestamp": "2016-11-19T05:09:45Z",
      "version": 1,
      "changeset": 43789787,
      "user": "Rince Bee(Kumar Baral)",
      "uid": 4862755,
      "tags": {
        "amenity": "pub",
        "name": "Joey's pub",
        "name:en": "Joey's pub"
      }
    },
    {
      "type": "node",
      "id": 4509929991,
      "lat": 27.7191869,
      "lon": 85.3571358,
      "timestamp": "2016-11-19T05:47:27Z",
      "version": 1,
      "changeset": 43790257,
      "user": "Bijay Sapkota",
      "uid": 4748002,
      "tags": {
        "amenity": "pub",
        "name:en": "tom & jerry"
      }
    },
    {
      "type": "node",
      "id": 4518674989,
      "lat": 27.8051311,
      "lon": 86.7101021,
      "timestamp": "2022-04-07T16:28:29Z",
      "version": 2,
      "changeset": 119436759,
      "user": "baum10",
      "uid": 5507919,
      "tags": {
        "amenity": "bar",
        "name:en": "Liquid Bar"
      }
    },
    {
      "type": "node",
      "id": 4527629090,
      "lat": 27.72084,
      "lon": 85.319459,
      "timestamp": "2017-02-11T14:05:48Z",
      "version": 2,
      "changeset": 45998418,
      "user": "Traveler Pizza",
      "uid": 4446424,
      "tags": {
        "amenity": "bar",
        "internet_access": "wlan",
        "name:en": "Jazz Upstairs"
      }
    },
    {
      "type": "node",
      "id": 4540633192,
      "lat": 28.2095861,
      "lon": 83.9569165,
      "timestamp": "2021-03-16T08:20:49Z",
      "version": 4,
      "changeset": 101102985,
      "user": "helnershingthapa",
      "uid": 10291369,
      "tags": {
        "amenity": "bar",
        "email": "Paradisosportsbar@gmail.com",
        "name:en": "Paradiso Sports Bar & Grill",
        "phone": "9856021939",
        "safety:health_protocol_guidelines_by:covid19": "NTO",
        "safety:protocol_training_by:covid19": "In-house Management",
        "website": "Paradisosportsbar.com"
      }
    },
    {
      "type": "node",
      "id": 4555545492,
      "lat": 27.7158482,
      "lon": 85.3076745,
      "timestamp": "2024-09-23T11:09:23Z",
      "version": 3,
      "changeset": 156990063,
      "user": "frozenrabi",
      "uid": 10459757,
      "tags": {
        "amenity": "bar",
        "name": "आर्टमुन्डो लाउन्ज",
        "name:en": "Artmundo Lounge",
        "name:ne": "आर्टमुन्डो लाउन्ज"
      }
    },
    {
      "type": "node",
      "id": 4559143644,
      "lat": 27.7163835,
      "lon": 85.3017218,
      "timestamp": "2024-03-22T11:43:22Z",
      "version": 4,
      "changeset": 149009165,
      "user": "Mateusz Konieczny - bot account",
      "uid": 3199858,
      "tags": {
        "addr:street": "Kushibu",
        "amenity": "pub",
        "cuisine": "noodle",
        "name:en": "local noodles Mingmar"
      }
    },
    {
      "type": "node",
      "id": 4572683889,
      "lat": 21.6301932,
      "lon": 87.4606114,
      "timestamp": "2016-12-26T07:13:53Z",
      "version": 1,
      "changeset": 44676259,
      "user": "chandan patra",
      "uid": 5024038,
      "tags": {
        "amenity": "bar"
      }
    },
    {
      "type": "node",
      "id": 4572683989,
      "lat": 21.6300106,
      "lon": 87.460583,
      "timestamp": "2016-12-26T07:14:03Z",
      "version": 1,
      "changeset": 44676259,
      "user": "chandan patra",
      "uid": 5024038,
      "tags": {
        "amenity": "bar"
      }
    },
    {
      "type": "node",
      "id": 4609603892,
      "lat": 28.2170236,
      "lon": 83.957397,
      "timestamp": "2025-08-14T04:47:51Z",
      "version": 9,
      "changeset": 170416229,
      "user": "François Bronchart",
      "uid": 8642829,
      "tags": {
        "air_conditioning": "no",
        "amenity": "bar",
        "check_date": "2025-08-14",
        "indoor_seating": "yes",
        "name": "Maseer Cafe",
        "name:en": "Maseer Cafe",
        "outdoor_seating": "yes",
        "smoking": "yes",
        "wheelchair": "limited"
      }
    },
    {
      "type": "node",
      "id": 4619781489,
      "lat": 26.6597499,
      "lon": 87.6894003,
      "timestamp": "2023-06-13T15:32:52Z",
      "version": 2,
      "changeset": 137291809,
      "user": "Nishant Sapkota",
      "uid": 19544233,
      "tags": {
        "amenity": "bar",
        "name:fr": "Nepal Bar Domak ok pour one nuit"
      }
    },
    {
      "type": "node",
      "id": 4646548489,
      "lat": 22.53893,
      "lon": 88.3656293,
      "timestamp": "2017-01-31T05:33:04Z",
      "version": 1,
      "changeset": 45673945,
      "user": "Hannah Maguire",
      "uid": 5162508,
      "tags": {
        "amenity": "bar",
        "name": "The Irish House",
        "name:hi": "The Irish House"
      }
    },
    {
      "type": "node",
      "id": 4664882890,
      "lat": 28.0661518,
      "lon": 81.6355304,
      "timestamp": "2017-02-05T07:52:53Z",
      "version": 1,
      "changeset": 45822668,
      "user": "Labin",
      "uid": 5090563,
      "tags": {
        "amenity": "pub",
        "name:en": "Shrestha Khaja Ghar"
      }
    },
    {
      "type": "node",
      "id": 4665021794,
      "lat": 27.7104639,
      "lon": 85.3104469,
      "timestamp": "2022-01-30T10:06:10Z",
      "version": 3,
      "changeset": 116772487,
      "user": "Manoj Thapa",
      "uid": 781054,
      "tags": {
        "amenity": "bar",
        "name": "Small Star"
      }
    },
    {
      "type": "node",
      "id": 4665575692,
      "lat": 28.2085233,
      "lon": 83.9578373,
      "timestamp": "2017-02-05T16:06:09Z",
      "version": 1,
      "changeset": 45832839,
      "user": "Jay Shah420",
      "uid": 3893109,
      "tags": {
        "amenity": "bar",
        "name:en": "The box,the bar"
      }
    },
    {
      "type": "node",
      "id": 4668423791,
      "lat": 26.6281392,
      "lon": 87.9899053,
      "timestamp": "2017-02-06T16:03:23Z",
      "version": 1,
      "changeset": 45859546,
      "user": "New moon restaurant and bar",
      "uid": 5270034,
      "tags": {
        "addr:street": "Birtamod — Chandragadhi",
        "amenity": "bar",
        "internet_access": "wlan",
        "name:en": "New Moon Restaurant And Bar"
      }
    },
    {
      "type": "node",
      "id": 4675917591,
      "lat": 27.7103788,
      "lon": 85.3124732,
      "timestamp": "2024-09-23T11:09:44Z",
      "version": 3,
      "changeset": 156990075,
      "user": "frozenrabi",
      "uid": 10459757,
      "tags": {
        "amenity": "bar",
        "name": "दोर्जे रेस्टुरेन्ट",
        "name:en": "Dorje restaurant",
        "name:ne": "दोर्जे रेस्टुरेन्ट"
      }
    },
    {
      "type": "node",
      "id": 4686906802,
      "lat": 25.3326437,
      "lon": 82.9886448,
      "timestamp": "2025-02-27T15:16:04Z",
      "version": 3,
      "changeset": 163017112,
      "user": "drehrumbum71",
      "uid": 2020993,
      "tags": {
        "amenity": "bar",
        "min_age": "18"
      }
    },
    {
      "type": "node",
      "id": 4688687989,
      "lat": 28.2214717,
      "lon": 83.9531201,
      "timestamp": "2024-03-18T02:18:25Z",
      "version": 5,
      "changeset": 148796147,
      "user": "chsel",
      "uid": 10717503,
      "tags": {
        "amenity": "bar",
        "check_date": "2024-03-17",
        "cuisine": "coffee_shop",
        "internet_access": "wlan",
        "name": "Krazy Gecko Bar & Restaurant",
        "name:en": "Krazy Gecko Bar & Restaurant"
      }
    },
    {
      "type": "node",
      "id": 4690554890,
      "lat": 24.2780923,
      "lon": 88.7489859,
      "timestamp": "2017-02-17T14:16:17Z",
      "version": 1,
      "changeset": 46165934,
      "user": "gazi limon",
      "uid": 5335825,
      "tags": {
        "amenity": "bar"
      }
    },
    {
      "type": "node",
      "id": 4697090889,
      "lat": 27.7173548,
      "lon": 85.3132287,
      "timestamp": "2023-06-15T09:50:37Z",
      "version": 3,
      "changeset": 137362759,
      "user": "frozenrabi",
      "uid": 10459757,
      "tags": {
        "amenity": "bar",
        "name": "संगीतको घर",
        "name:en": "House of Music",
        "name:ne": "संगीतको घर",
        "name:nl": "House of Music"
      }
    },
    {
      "type": "node",
      "id": 4707657489,
      "lat": 28.2114524,
      "lon": 83.9570616,
      "timestamp": "2018-03-18T10:56:05Z",
      "version": 3,
      "changeset": 57287461,
      "user": "Gaurav Thapa",
      "uid": 4212590,
      "tags": {
        "amenity": "bar",
        "name": "Sugar Cane Bar",
        "name:en": "Sugar Cane Bar"
      }
    },
    {
      "type": "node",
      "id": 4707657789,
      "lat": 28.2135123,
      "lon": 83.9572277,
      "timestamp": "2017-02-27T04:08:41Z",
      "version": 1,
      "changeset": 46431687,
      "user": "Pradip Khatiwada",
      "uid": 4789912,
      "tags": {
        "amenity": "bar",
        "name:en": "Lake Valley Restaurant and Bar"
      }
    },
    {
      "type": "node",
      "id": 4722192691,
      "lat": 27.7028778,
      "lon": 84.4430889,
      "timestamp": "2017-03-10T06:51:57Z",
      "version": 3,
      "changeset": 46729907,
      "user": "aryunshrestha",
      "uid": 5119986,
      "tags": {
        "addr:housenumber": "05",
        "addr:street": "Ganeshsthan Marga",
        "amenity": "bar",
        "phone": "9845055174",
        "shop": "clothes"
      }
    },
    {
      "type": "node",
      "id": 4724201792,
      "lat": 22.649759,
      "lon": 88.3776395,
      "timestamp": "2017-03-08T15:29:00Z",
      "version": 1,
      "changeset": 46683309,
      "user": "Biki Sarkar",
      "uid": 5450523,
      "tags": {
        "amenity": "bar"
      }
    },
    {
      "type": "node",
      "id": 4732262721,
      "lat": 22.4319379,
      "lon": 88.468012,
      "timestamp": "2017-03-13T14:07:53Z",
      "version": 1,
      "changeset": 46813834,
      "user": "AaSpanMap",
      "uid": 5393792,
      "tags": {
        "addr:street": "Sonarpur Station Road",
        "amenity": "pub",
        "name": "Indian Oil",
        "name:en": "Indian Oil",
        "opening_hours": "24/7"
      }
    },
    {
      "type": "node",
      "id": 4738540921,
      "lat": 26.8952106,
      "lon": 88.0688094,
      "timestamp": "2017-03-16T18:58:15Z",
      "version": 1,
      "changeset": 46906636,
      "user": "Papayaved",
      "uid": 406299,
      "tags": {
        "amenity": "bar"
      }
    },
    {
      "type": "node",
      "id": 4740198950,
      "lat": 26.7356855,
      "lon": 85.9321787,
      "timestamp": "2017-03-17T17:40:23Z",
      "version": 1,
      "changeset": 46935169,
      "user": "Papayaved",
      "uid": 406299,
      "tags": {
        "amenity": "bar",
        "name": "Juice bar"
      }
    },
    {
      "type": "node",
      "id": 4749401721,
      "lat": 25.4299814,
      "lon": 81.8610072,
      "timestamp": "2020-12-31T18:05:50Z",
      "version": 2,
      "changeset": 96747153,
      "user": "shashan12",
      "uid": 12416073,
      "tags": {
        "amenity": "bar",
        "name": "Lassi"
      }
    },
    {
      "type": "node",
      "id": 4762401054,
      "lat": 27.7153844,
      "lon": 85.3087365,
      "timestamp": "2017-03-29T17:34:06Z",
      "version": 1,
      "changeset": 47267518,
      "user": "Sammusama",
      "uid": 5393482,
      "tags": {
        "amenity": "bar",
        "name:en": "Hole In The Wall"
      }
    },
    {
      "type": "node",
      "id": 4764659922,
      "lat": 27.7162695,
      "lon": 85.3100553,
      "timestamp": "2023-09-20T02:16:20Z",
      "version": 3,
      "changeset": 141490959,
      "user": "osmuser63783",
      "uid": 14047157,
      "tags": {
        "amenity": "pub",
        "check_date": "2023-09-19",
        "name": "Sam's Bar"
      }
    },
    {
      "type": "node",
      "id": 4764660021,
      "lat": 27.7155749,
      "lon": 85.3104848,
      "timestamp": "2022-01-11T08:13:31Z",
      "version": 5,
      "changeset": 116012769,
      "user": "Manoj Thapa",
      "uid": 781054,
      "tags": {
        "addr:city": "Kathmandu",
        "addr:street": "Chaksibari Marg",
        "amenity": "pub",
        "name": "Tom & Jerry's",
        "opening_hours": "Mo-Su 16:00-23:59",
        "phone": "+9779851072794"
      }
    },
    {
      "type": "node",
      "id": 4774872364,
      "lat": 27.7160051,
      "lon": 85.3117197,
      "timestamp": "2023-06-15T09:50:37Z",
      "version": 5,
      "changeset": 137362759,
      "user": "frozenrabi",
      "uid": 10459757,
      "tags": {
        "amenity": "bar",
        "name": "बीटा हाउस",
        "name:en": "Beta House",
        "name:ne": "बीटा हाउस"
      }
    },
    {
      "type": "node",
      "id": 4774887621,
      "lat": 27.7132603,
      "lon": 85.3186837,
      "timestamp": "2023-05-26T14:26:31Z",
      "version": 2,
      "changeset": 136590409,
      "user": "woolfesss",
      "uid": 16738479,
      "tags": {
        "amenity": "bar",
        "indoor_seating": "yes",
        "name:en": "Club Déjà Vu",
        "outdoor_seating": "yes"
      }
    },
    {
      "type": "node",
      "id": 4786253931,
      "lat": 28.3408494,
      "lon": 83.7409795,
      "timestamp": "2017-04-10T14:53:26Z",
      "version": 1,
      "changeset": 47626362,
      "user": "Niels Wabeke",
      "uid": 5647149,
      "tags": {
        "addr:housenumber": "7",
        "addr:street": "Hille-7-Kaski",
        "amenity": "bar",
        "name:en": "Great Point"
      }
    },
    {
      "type": "node",
      "id": 4790245421,
      "lat": 28.2140639,
      "lon": 83.9584009,
      "timestamp": "2017-04-13T04:22:31Z",
      "version": 2,
      "changeset": 47729169,
      "user": "ayushupreti22",
      "uid": 3911278,
      "tags": {
        "amenity": "bar",
        "name": "Desi Bar Night Club"
      }
    },
    {
      "type": "node",
      "id": 4791306607,
      "lat": 28.2103863,
      "lon": 83.9584613,
      "timestamp": "2017-04-13T08:13:41Z",
      "version": 1,
      "changeset": 47734302,
      "user": "Bishal9841",
      "uid": 3573216,
      "tags": {
        "amenity": "biergarten",
        "name": "Pokhrel Wine and Liquor Shop"
      }
    },
    {
      "type": "node",
      "id": 4791306609,
      "lat": 28.2107557,
      "lon": 83.9570032,
      "timestamp": "2017-04-18T08:50:03Z",
      "version": 2,
      "changeset": 47898176,
      "user": "Gaurav Thapa",
      "uid": 4212590,
      "tags": {
        "amenity": "bar",
        "name": "Taj Mahal Dance Bar"
      }
    },
    {
      "type": "node",
      "id": 4800530724,
      "lat": 27.5781632,
      "lon": 84.4940612,
      "timestamp": "2017-04-18T07:32:16Z",
      "version": 1,
      "changeset": 47895608,
      "user": "laslooo",
      "uid": 5659250,
      "tags": {
        "amenity": "bar",
        "name:en": "Accoustica Shisha Bar"
      }
    },
    {
      "type": "node",
      "id": 4800743286,
      "lat": 28.2106179,
      "lon": 83.9562989,
      "timestamp": "2017-04-18T08:38:22Z",
      "version": 1,
      "changeset": 47897811,
      "user": "Gaurav Thapa",
      "uid": 4212590,
      "tags": {
        "amenity": "pub",
        "name": "Irish Pub"
      }
    },
    {
      "type": "node",
      "id": 4800813806,
      "lat": 28.2130404,
      "lon": 83.9574727,
      "timestamp": "2018-06-26T05:51:05Z",
      "version": 4,
      "changeset": 60168696,
      "user": "Gaurav Thapa",
      "uid": 4212590,
      "tags": {
        "amenity": "bar",
        "name": "The Old Blues Bar",
        "phone": "061-464934"
      }
    },
    {
      "type": "node",
      "id": 4802894821,
      "lat": 27.0394745,
      "lon": 88.2650937,
      "timestamp": "2017-04-19T04:27:10Z",
      "version": 1,
      "changeset": 47924578,
      "user": "Canucker183",
      "uid": 5583667,
      "tags": {
        "amenity": "bar",
        "name": "Joeys pub",
        "name:hi": "Joeys pub"
      }
    },
    {
      "type": "node",
      "id": 4818356424,
      "lat": 27.266879,
      "lon": 86.9358099,
      "timestamp": "2017-04-26T15:38:06Z",
      "version": 1,
      "changeset": 48166998,
      "user": "Max Dmitriev",
      "uid": 5611666,
      "tags": {
        "amenity": "bar",
        "name:en": "Alcohol village"
      }
    },
    {
      "type": "node",
      "id": 4830990522,
      "lat": 27.7310288,
      "lon": 85.3288699,
      "timestamp": "2024-02-28T09:37:50Z",
      "version": 4,
      "changeset": 148005028,
      "user": "anishrestha",
      "uid": 2079661,
      "tags": {
        "amenity": "bar",
        "name:en": "Tiffany Restaurant & Bar"
      }
    },
    {
      "type": "node",
      "id": 4858983921,
      "lat": 27.5976789,
      "lon": 85.3715636,
      "timestamp": "2022-02-19T15:04:15Z",
      "version": 2,
      "changeset": 117607652,
      "user": "Manoj Thapa",
      "uid": 781054,
      "tags": {
        "amenity": "bar",
        "name": "Black & White Bar"
      }
    },
    {
      "type": "node",
      "id": 4869763926,
      "lat": 28.2116143,
      "lon": 83.9570628,
      "timestamp": "2018-03-18T10:56:05Z",
      "version": 2,
      "changeset": 57287461,
      "user": "Gaurav Thapa",
      "uid": 4212590,
      "tags": {
        "addr:street": "Baidam Road",
        "amenity": "bar",
        "email": "stonesbar061@gmail.com",
        "internet_access": "wlan",
        "name:en": "Rolling Stones Rock Bar",
        "phone": "061467496"
      }
    },
    {
      "type": "node",
      "id": 4889364721,
      "lat": 27.032004,
      "lon": 85.0017619,
      "timestamp": "2017-06-01T09:11:20Z",
      "version": 1,
      "changeset": 49158668,
      "user": "अस्मित सिल्वाल",
      "uid": 6104910,
      "tags": {
        "amenity": "bar",
        "name:en": "kalaiya barbecue"
      }
    },
    {
      "type": "node",
      "id": 4924452317,
      "lat": 27.7331995,
      "lon": 85.3161891,
      "timestamp": "2017-06-20T05:36:10Z",
      "version": 2,
      "changeset": 49683249,
      "user": "tsamridh86",
      "uid": 6088079,
      "tags": {
        "amenity": "bar",
        "name": "Potion Beverage House"
      }
    },
    {
      "type": "node",
      "id": 4924452521,
      "lat": 27.7343305,
      "lon": 85.3161378,
      "timestamp": "2025-09-21T14:42:23Z",
      "version": 4,
      "changeset": 172249951,
      "user": "frozenrabi",
      "uid": 10459757,
      "tags": {
        "amenity": "bar",
        "name": "सामखुशी वाइन सेन्टर",
        "name:en": "Samakhushi Wine Center",
        "name:ne": "सामखुशी वाइन सेन्टर"
      }
    },
    {
      "type": "node",
      "id": 4974899822,
      "lat": 22.5520527,
      "lon": 88.352852,
      "timestamp": "2019-12-12T08:09:03Z",
      "version": 3,
      "changeset": 78303107,
      "user": "contrapunctus",
      "uid": 4685130,
      "tags": {
        "addr:housenumber": "20G",
        "addr:street": "Park Street",
        "amenity": "bar",
        "name": "The Myx",
        "name:en": "The Myx"
      }
    },
    {
      "type": "node",
      "id": 4974928524,
      "lat": 22.5442927,
      "lon": 88.3522127,
      "timestamp": "2017-07-17T09:25:09Z",
      "version": 1,
      "changeset": 50345077,
      "user": "Mrio2015",
      "uid": 4076766,
      "tags": {
        "addr:street": "901A, 9th Floor, Fort Knox, 6, Camac, St. Elgin, Elgin, Kolkata, West Bengal 700017",
        "amenity": "bar",
        "name": "Monkey Bar",
        "name:en": "Monkey Bar"
      }
    },
    {
      "type": "node",
      "id": 5015762722,
      "lat": 27.469448,
      "lon": 89.6389378,
      "timestamp": "2017-08-05T05:06:23Z",
      "version": 1,
      "changeset": 50854548,
      "user": "Ruling Garab",
      "uid": 4484710,
      "tags": {
        "addr:housenumber": "4",
        "addr:postcode": "11001",
        "addr:street": "Gongdzin Lam",
        "amenity": "pub",
        "name:en": "Jimmy's Pub"
      }
    },
    {
      "type": "node",
      "id": 5038159593,
      "lat": 27.4549798,
      "lon": 89.6572399,
      "timestamp": "2017-08-21T05:34:24Z",
      "version": 2,
      "changeset": 51290816,
      "user": "its_dechen",
      "uid": 6495617,
      "tags": {
        "amenity": "bar",
        "name": "Dorji bar shop",
        "shop": "alcohol"
      }
    },
    {
      "type": "node",
      "id": 5041514571,
      "lat": 22.5690868,
      "lon": 88.4328732,
      "timestamp": "2017-08-17T17:26:18Z",
      "version": 1,
      "changeset": 51211614,
      "user": "Pradeep Jha",
      "uid": 6396128,
      "tags": {
        "amenity": "bar",
        "name": "Pour House"
      }
    },
    {
      "type": "node",
      "id": 5041523433,
      "lat": 22.5707195,
      "lon": 88.4353941,
      "timestamp": "2017-08-17T17:32:19Z",
      "version": 1,
      "changeset": 51211774,
      "user": "Pradeep Jha",
      "uid": 6396128,
      "tags": {
        "amenity": "bar",
        "name": "Bistro"
      }
    },
    {
      "type": "node",
      "id": 5047320318,
      "lat": 27.4485048,
      "lon": 89.6584806,
      "timestamp": "2023-09-23T04:38:45Z",
      "version": 6,
      "changeset": 141628203,
      "user": "Sonam Tshewang",
      "uid": 670875,
      "tags": {
        "amenity": "bar"
      }
    },
    {
      "type": "node",
      "id": 5047320838,
      "lat": 27.4503018,
      "lon": 89.656229,
      "timestamp": "2020-05-12T10:49:42Z",
      "version": 2,
      "changeset": 85081521,
      "user": "Taship",
      "uid": 11159264,
      "tags": {
        "amenity": "bar"
      }
    },
    {
      "type": "node",
      "id": 5047320848,
      "lat": 27.4504827,
      "lon": 89.655785,
      "timestamp": "2017-08-21T05:34:21Z",
      "version": 1,
      "changeset": 51290816,
      "user": "its_dechen",
      "uid": 6495617,
      "tags": {
        "amenity": "bar"
      }
    },
    {
      "type": "node",
      "id": 5051975484,
      "lat": 29.2595685,
      "lon": 80.9379154,
      "timestamp": "2019-11-24T13:48:09Z",
      "version": 2,
      "changeset": 77482486,
      "user": "Rabin Ojha",
      "uid": 6075053,
      "tags": {
        "amenity": "bar"
      }
    },
    {
      "type": "node",
      "id": 5062666626,
      "lat": 27.7126106,
      "lon": 85.3086784,
      "timestamp": "2024-08-02T17:05:31Z",
      "version": 3,
      "changeset": 154745701,
      "user": "frozenrabi",
      "uid": 10459757,
      "tags": {
        "addr:street": "Paknajol",
        "amenity": "bar",
        "internet_access": "wlan",
        "name": "श्यामरोक आयरिश पब रूफ टप सिनेमा",
        "name:en": "Shamrock Irish pub roof top cinema",
        "name:ne": "श्यामरोक आयरिश पब रूफ टप सिनेमा",
        "opening_hours": "Mo-Su 05:00-12:10",
        "website": "http://rooftopcinemaktm.com"
      }
    },
    {
      "type": "node",
      "id": 5066973421,
      "lat": 27.712561,
      "lon": 85.3085737,
      "timestamp": "2022-01-18T09:00:39Z",
      "version": 2,
      "changeset": 116287892,
      "user": "Manoj Thapa",
      "uid": 781054,
      "tags": {
        "amenity": "bar",
        "name": "Shamrock Rooftop Bar"
      }
    },
    {
      "type": "node",
      "id": 5104525755,
      "lat": 28.2077079,
      "lon": 83.964622,
      "timestamp": "2017-09-14T05:15:01Z",
      "version": 1,
      "changeset": 52025913,
      "user": "Ashish Thapa",
      "uid": 4039113,
      "tags": {
        "amenity": "bar",
        "name": "Bindass Pathak Cafe and Hukka Bar"
      }
    },
    {
      "type": "node",
      "id": 5107792731,
      "lat": 27.6889467,
      "lon": 85.2640719,
      "timestamp": "2017-09-15T16:32:55Z",
      "version": 1,
      "changeset": 52073997,
      "user": "Red House Restaurant & Bar",
      "uid": 6226546,
      "tags": {
        "addr:postcode": "977",
        "addr:street": "New Naikap",
        "amenity": "bar",
        "cuisine": "local",
        "name:en": "Red House Restaurant",
        "opening_hours": "Mo-Su 01:00-20:00"
      }
    },
    {
      "type": "node",
      "id": 5126206947,
      "lat": 27.7737709,
      "lon": 85.3605281,
      "timestamp": "2017-09-25T04:04:05Z",
      "version": 2,
      "changeset": 52343577,
      "user": "ramyaragupathy",
      "uid": 2823295,
      "tags": {
        "amenity": "bar",
        "name": "New Bishram Restaurant & Bar"
      }
    },
    {
      "type": "node",
      "id": 5148877992,
      "lat": 27.4455094,
      "lon": 89.6612198,
      "timestamp": "2017-10-05T04:38:11Z",
      "version": 1,
      "changeset": 52642731,
      "user": "its_dechen",
      "uid": 6495617,
      "tags": {
        "amenity": "bar"
      }
    },
    {
      "type": "node",
      "id": 5148878004,
      "lat": 27.4448475,
      "lon": 89.661705,
      "timestamp": "2017-10-05T04:38:12Z",
      "version": 1,
      "changeset": 52642731,
      "user": "its_dechen",
      "uid": 6495617,
      "tags": {
        "amenity": "bar"
      }
    },
    {
      "type": "node",
      "id": 5148889258,
      "lat": 27.4453798,
      "lon": 89.6622644,
      "timestamp": "2022-07-14T06:10:54Z",
      "version": 2,
      "changeset": 123591232,
      "user": "roshanrai1729",
      "uid": 16530778,
      "tags": {
        "amenity": "bar"
      }
    },
    {
      "type": "node",
      "id": 5148906423,
      "lat": 27.4568512,
      "lon": 89.647519,
      "timestamp": "2022-07-15T06:19:14Z",
      "version": 2,
      "changeset": 123635781,
      "user": "Tashi_Dorji",
      "uid": 16530353,
      "tags": {
        "amenity": "bar",
        "name": "chilli restraurant",
        "phone": "17661229"
      }
    },
    {
      "type": "node",
      "id": 5148906424,
      "lat": 27.4568018,
      "lon": 89.6475358,
      "timestamp": "2022-07-15T06:19:14Z",
      "version": 2,
      "changeset": 123635781,
      "user": "Tashi_Dorji",
      "uid": 16530353,
      "tags": {
        "amenity": "bar",
        "name": "om grocery",
        "phone": "17621232",
        "shop": "convenience"
      }
    },
    {
      "type": "node",
      "id": 5148906435,
      "lat": 27.4566282,
      "lon": 89.6476096,
      "timestamp": "2022-07-15T06:19:14Z",
      "version": 2,
      "changeset": 123635781,
      "user": "Tashi_Dorji",
      "uid": 16530353,
      "tags": {
        "amenity": "bar",
        "name": "white rose restraurant",
        "phone": "17648538"
      }
    },
    {
      "type": "node",
      "id": 5169018622,
      "lat": 27.7220576,
      "lon": 85.3749828,
      "timestamp": "2017-10-15T13:16:57Z",
      "version": 1,
      "changeset": 52954973,
      "user": "अमर श्रेष्ठ",
      "uid": 6801920,
      "tags": {
        "addr:street": "Jorpati Main Road",
        "amenity": "bar",
        "internet_access": "wlan",
        "name:en": "Shrestha",
        "opening_hours": "Mo-Su 09:00-20:00"
      }
    },
    {
      "type": "node",
      "id": 5170557947,
      "lat": 27.4601338,
      "lon": 89.6353286,
      "timestamp": "2024-05-25T10:34:26Z",
      "version": 2,
      "changeset": 151804631,
      "user": "Namsel_123",
      "uid": 21550827,
      "tags": {
        "amenity": "bar",
        "name": "Peldon Restaurant"
      }
    },
    {
      "type": "node",
      "id": 5170557951,
      "lat": 27.4604596,
      "lon": 89.6362214,
      "timestamp": "2022-07-13T09:26:44Z",
      "version": 2,
      "changeset": 123554445,
      "user": "Tashi_Dorji",
      "uid": 16530353,
      "tags": {
        "amenity": "bar"
      }
    },
    {
      "type": "node",
      "id": 5170557965,
      "lat": 27.4594794,
      "lon": 89.634852,
      "timestamp": "2017-10-16T04:58:32Z",
      "version": 1,
      "changeset": 52971446,
      "user": "its_dechen",
      "uid": 6495617,
      "tags": {
        "amenity": "bar"
      }
    },
    {
      "type": "node",
      "id": 5170594511,
      "lat": 27.460031,
      "lon": 89.6408406,
      "timestamp": "2022-12-21T04:46:35Z",
      "version": 3,
      "changeset": 130314054,
      "user": "Sonam Tshewang",
      "uid": 670875,
      "tags": {
        "amenity": "bar",
        "name": "Tashi general shop",
        "shop": "convenience"
      }
    },
    {
      "type": "node",
      "id": 5170909636,
      "lat": 23.1615448,
      "lon": 89.2225503,
      "timestamp": "2017-10-16T09:37:21Z",
      "version": 1,
      "changeset": 52976656,
      "user": "Nazmul Hoque Sohel",
      "uid": 6682473,
      "tags": {
        "amenity": "bar",
        "name": "Anwar Moyla"
      }
    },
    {
      "type": "node",
      "id": 5180218321,
      "lat": 27.7145229,
      "lon": 85.3110698,
      "timestamp": "2023-06-15T09:50:37Z",
      "version": 4,
      "changeset": 137362759,
      "user": "frozenrabi",
      "uid": 10459757,
      "tags": {
        "amenity": "bar",
        "internet_access": "wlan",
        "name": "बुद्ध बार",
        "name:en": "Buddha Bar",
        "name:fr": "Buddha Bar",
        "name:ne": "बुद्ध बार"
      }
    },
    {
      "type": "node",
      "id": 5195705821,
      "lat": 28.4337256,
      "lon": 81.2286965,
      "timestamp": "2017-10-28T09:04:22Z",
      "version": 1,
      "changeset": 53312377,
      "user": "Pramesh Yogi",
      "uid": 6868488,
      "tags": {
        "addr:street": "Hattisar road",
        "amenity": "bar",
        "cuisine": "tea;breakfast;coffee_shop",
        "email": "prameshyogi@gmail.com",
        "internet_access": "wlan",
        "name:en": "Sunsetview cafe & jungle bar",
        "opening_hours": "Mo-Su 09:00-11:00",
        "phone": "+9779848032653"
      }
    },
    {
      "type": "node",
      "id": 5195705921,
      "lat": 28.4337456,
      "lon": 81.228732,
      "timestamp": "2017-10-28T09:04:25Z",
      "version": 1,
      "changeset": 53312377,
      "user": "Pramesh Yogi",
      "uid": 6868488,
      "tags": {
        "addr:street": "Hattisar road",
        "amenity": "bar",
        "cuisine": "tea;breakfast;coffee_shop",
        "email": "prameshyogi@gmail.com",
        "internet_access": "wlan",
        "name:en": "Sunsetview cafe & jungle bar",
        "opening_hours": "Mo-Su 09:00-11:00",
        "phone": "+9779848032653"
      }
    },
    {
      "type": "node",
      "id": 5199608421,
      "lat": 27.7146379,
      "lon": 85.3107165,
      "timestamp": "2022-01-11T08:24:35Z",
      "version": 2,
      "changeset": 116013194,
      "user": "Manoj Thapa",
      "uid": 781054,
      "tags": {
        "amenity": "bar",
        "name": "Buddha Bar and Maya Cocktail Bar"
      }
    },
    {
      "type": "node",
      "id": 5207943797,
      "lat": 26.541913,
      "lon": 86.7440361,
      "timestamp": "2017-11-03T08:32:16Z",
      "version": 1,
      "changeset": 53472423,
      "user": "bosslee21",
      "uid": 6903820,
      "tags": {
        "amenity": "bar"
      }
    },
    {
      "type": "node",
      "id": 5207944281,
      "lat": 26.5387798,
      "lon": 86.7414987,
      "timestamp": "2017-11-03T08:32:19Z",
      "version": 1,
      "changeset": 53472423,
      "user": "bosslee21",
      "uid": 6903820,
      "tags": {
        "amenity": "bar"
      }
    },
    {
      "type": "node",
      "id": 5207944282,
      "lat": 26.5389579,
      "lon": 86.7413579,
      "timestamp": "2017-11-03T08:32:19Z",
      "version": 1,
      "changeset": 53472423,
      "user": "bosslee21",
      "uid": 6903820,
      "tags": {
        "amenity": "bar"
      }
    },
    {
      "type": "node",
      "id": 5207944303,
      "lat": 26.5451928,
      "lon": 86.7406193,
      "timestamp": "2017-11-03T08:32:19Z",
      "version": 1,
      "changeset": 53472423,
      "user": "bosslee21",
      "uid": 6903820,
      "tags": {
        "amenity": "bar"
      }
    },
    {
      "type": "node",
      "id": 5207944304,
      "lat": 26.5450358,
      "lon": 86.7407301,
      "timestamp": "2017-11-03T08:32:19Z",
      "version": 1,
      "changeset": 53472423,
      "user": "bosslee21",
      "uid": 6903820,
      "tags": {
        "amenity": "bar"
      }
    },
    {
      "type": "node",
      "id": 5207944305,
      "lat": 26.5451763,
      "lon": 86.7407947,
      "timestamp": "2017-11-03T08:32:20Z",
      "version": 1,
      "changeset": 53472423,
      "user": "bosslee21",
      "uid": 6903820,
      "tags": {
        "amenity": "bar"
      }
    },
    {
      "type": "node",
      "id": 5207944306,
      "lat": 26.5451557,
      "lon": 86.7405638,
      "timestamp": "2017-11-03T08:32:20Z",
      "version": 1,
      "changeset": 53472423,
      "user": "bosslee21",
      "uid": 6903820,
      "tags": {
        "amenity": "bar"
      }
    },
    {
      "type": "node",
      "id": 5207944307,
      "lat": 26.5453705,
      "lon": 86.7407809,
      "timestamp": "2017-11-03T08:32:20Z",
      "version": 1,
      "changeset": 53472423,
      "user": "bosslee21",
      "uid": 6903820,
      "tags": {
        "amenity": "bar"
      }
    },
    {
      "type": "node",
      "id": 5207944308,
      "lat": 26.5450317,
      "lon": 86.7408594,
      "timestamp": "2017-11-03T08:32:20Z",
      "version": 1,
      "changeset": 53472423,
      "user": "bosslee21",
      "uid": 6903820,
      "tags": {
        "amenity": "bar"
      }
    },
    {
      "type": "node",
      "id": 5207944312,
      "lat": 26.5454738,
      "lon": 86.7417184,
      "timestamp": "2017-11-03T08:32:20Z",
      "version": 1,
      "changeset": 53472423,
      "user": "bosslee21",
      "uid": 6903820,
      "tags": {
        "amenity": "bar"
      }
    },
    {
      "type": "node",
      "id": 5209508125,
      "lat": 27.7154613,
      "lon": 85.3086803,
      "timestamp": "2017-11-04T05:06:47Z",
      "version": 1,
      "changeset": 53495201,
      "user": "GilmoreMunro",
      "uid": 6790339,
      "tags": {
        "amenity": "bar",
        "name:en": "Hole in the Wall"
      }
    },
    {
      "type": "node",
      "id": 5223218323,
      "lat": 27.6019668,
      "lon": 85.2893462,
      "timestamp": "2017-11-11T14:34:57Z",
      "version": 1,
      "changeset": 53692048,
      "user": "Prachand adhikari",
      "uid": 3800407,
      "tags": {
        "amenity": "pub",
        "name:en": "pakha chauwer"
      }
    },
    {
      "type": "node",
      "id": 5239937523,
      "lat": 26.6641275,
      "lon": 87.2751235,
      "timestamp": "2017-11-20T19:58:09Z",
      "version": 1,
      "changeset": 53959222,
      "user": "Blue_yankez",
      "uid": 7030080,
      "tags": {
        "amenity": "bar",
        "name:en": "Kundalini"
      }
    },
    {
      "type": "node",
      "id": 5241930863,
      "lat": 22.5709743,
      "lon": 88.4012179,
      "timestamp": "2017-11-21T23:13:38Z",
      "version": 1,
      "changeset": 53988252,
      "user": "agnibho",
      "uid": 6773520,
      "tags": {
        "amenity": "bar",
        "name": "Beer Republic"
      }
    },
    {
      "type": "node",
      "id": 5273548621,
      "lat": 27.7141298,
      "lon": 85.3079916,
      "timestamp": "2022-01-16T07:33:36Z",
      "version": 4,
      "changeset": 116204919,
      "user": "Manoj Thapa",
      "uid": 781054,
      "tags": {
        "amenity": "bar",
        "name": "Jammin Lounge and Bar"
      }
    },
    {
      "type": "node",
      "id": 5273548821,
      "lat": 28.2131936,
      "lon": 83.9571353,
      "timestamp": "2017-12-09T13:29:01Z",
      "version": 1,
      "changeset": 54486017,
      "user": "Andy Hawthorne",
      "uid": 7188107,
      "tags": {
        "amenity": "bar",
        "name:en": "crazy gecko"
      }
    },
    {
      "type": "node",
      "id": 5280208221,
      "lat": 27.7200436,
      "lon": 85.3871987,
      "timestamp": "2017-12-12T18:10:29Z",
      "version": 1,
      "changeset": 54573745,
      "user": "Prachand adhikari",
      "uid": 3800407,
      "tags": {
        "amenity": "pub",
        "name:en": "Buddha niwas"
      }
    },
    {
      "type": "node",
      "id": 5287398822,
      "lat": 27.7200403,
      "lon": 85.3871868,
      "timestamp": "2017-12-16T11:53:24Z",
      "version": 1,
      "changeset": 54677666,
      "user": "Prachand adhikari",
      "uid": 3800407,
      "tags": {
        "amenity": "pub",
        "name:en": "Buddha niwas"
      }
    },
    {
      "type": "node",
      "id": 5315968722,
      "lat": 28.2134096,
      "lon": 83.956857,
      "timestamp": "2018-01-02T07:43:27Z",
      "version": 1,
      "changeset": 55093294,
      "user": "Sanita Dhaubanjar",
      "uid": 4901219,
      "tags": {
        "amenity": "bar",
        "name:en": "Message in a bottle"
      }
    },
    {
      "type": "node",
      "id": 5322573112,
      "lat": 27.8042645,
      "lon": 86.7104058,
      "timestamp": "2024-03-08T14:17:20Z",
      "version": 2,
      "changeset": 148386329,
      "user": "BaboucheVerte",
      "uid": 6296343,
      "tags": {
        "amenity": "pub",
        "name": "Irish Pub"
      }
    },
    {
      "type": "node",
      "id": 5334812022,
      "lat": 28.2297926,
      "lon": 83.9825002,
      "timestamp": "2018-01-12T11:31:40Z",
      "version": 1,
      "changeset": 55377235,
      "user": "Purna Adhikari",
      "uid": 4241479,
      "tags": {
        "amenity": "bar",
        "name:en": "Krishna uncle home pokhara nalaamukh"
      }
    },
    {
      "type": "node",
      "id": 5342739024,
      "lat": 27.7163254,
      "lon": 85.3102426,
      "timestamp": "2022-01-11T08:02:54Z",
      "version": 2,
      "changeset": 116012439,
      "user": "Manoj Thapa",
      "uid": 781054,
      "tags": {
        "amenity": "bar",
        "name": "Liquid happiness"
      }
    },
    {
      "type": "node",
      "id": 5342739025,
      "lat": 27.7147548,
      "lon": 85.3107113,
      "timestamp": "2022-01-11T08:24:35Z",
      "version": 2,
      "changeset": 116013194,
      "user": "Manoj Thapa",
      "uid": 781054,
      "tags": {
        "amenity": "bar",
        "name": "English bar"
      }
    },
    {
      "type": "node",
      "id": 5351390922,
      "lat": 27.679958,
      "lon": 85.3374264,
      "timestamp": "2018-01-20T17:46:39Z",
      "version": 1,
      "changeset": 55609181,
      "user": "Su Ren",
      "uid": 4847142,
      "tags": {
        "addr:street": "Shringhkhala Galli",
        "amenity": "bar",
        "name:en": "SHAYOGINAGAR",
        "opening_hours": "Mo-Su 08:00-20:00"
      }
    },
    {
      "type": "node",
      "id": 5358812823,
      "lat": 27.4082313,
      "lon": 86.4306084,
      "timestamp": "2018-01-24T11:51:41Z",
      "version": 1,
      "changeset": 55710567,
      "user": "sarki sherpa",
      "uid": 5743145,
      "tags": {
        "amenity": "bar",
        "name:en": "Patle"
      }
    },
    {
      "type": "node",
      "id": 5395352515,
      "lat": 28.0634955,
      "lon": 81.6219592,
      "timestamp": "2018-03-18T13:25:30Z",
      "version": 2,
      "changeset": 57290901,
      "user": "su shma",
      "uid": 7516039,
      "tags": {
        "amenity": "biergarten",
        "contact:phone": "o81-415092",
        "name": "Asmita drug House",
        "opening_hours": "08:00-06:00"
      }
    },
    {
      "type": "node",
      "id": 5430633940,
      "lat": 28.0762225,
      "lon": 81.6364002,
      "timestamp": "2018-02-23T05:50:47Z",
      "version": 1,
      "changeset": 56599180,
      "user": "Satyaraj143",
      "uid": 7510621,
      "tags": {
        "amenity": "bar",
        "contact:phone": "9814432520",
        "name": "Royal Palpali Resturant and Bar",
        "opening_hours": "su-sa 06:00-20:00",
        "smoking": "no"
      }
    },
    {
      "type": "node",
      "id": 5449195239,
      "lat": 22.7548526,
      "lon": 89.2553011,
      "timestamp": "2018-03-02T22:05:14Z",
      "version": 1,
      "changeset": 56833992,
      "user": "Tanjim Elahi",
      "uid": 7610146,
      "tags": {
        "amenity": "bar",
        "name": "Shawon's Home"
      }
    },
    {
      "type": "node",
      "id": 5483898040,
      "lat": 28.0576468,
      "lon": 81.6157298,
      "timestamp": "2018-03-17T05:30:14Z",
      "version": 1,
      "changeset": 57258535,
      "user": "Sandesh Khanal",
      "uid": 7516028,
      "tags": {
        "amenity": "bar",
        "designation": "Anjani Bar",
        "name": "Anjani Bar"
      }
    },
    {
      "type": "node",
      "id": 5491718621,
      "lat": 25.3088759,
      "lon": 82.9993278,
      "timestamp": "2018-03-20T17:02:52Z",
      "version": 1,
      "changeset": 57359370,
      "user": "Harry Hayward",
      "uid": 7876851,
      "tags": {
        "amenity": "bar",
        "name": "Beer “Bar”"
      }
    },
    {
      "type": "node",
      "id": 5491718721,
      "lat": 25.3092532,
      "lon": 83.0026692,
      "timestamp": "2020-03-13T07:49:44Z",
      "version": 2,
      "changeset": 82149565,
      "user": "OneTwoThreeFour",
      "uid": 9830089,
      "tags": {
        "amenity": "bar",
        "name": "Beer Bar"
      }
    },
    {
      "type": "node",
      "id": 5520695747,
      "lat": 28.1516092,
      "lon": 84.028928,
      "timestamp": "2018-04-01T17:09:49Z",
      "version": 1,
      "changeset": 57717652,
      "user": "Amrit Devkota",
      "uid": 6497064,
      "tags": {
        "amenity": "biergarten",
        "name": "Sakura Apiary & Honey Product",
        "source": "2cpokhara"
      }
    },
    {
      "type": "node",
      "id": 5530567276,
      "lat": 28.223716,
      "lon": 83.9459221,
      "timestamp": "2025-05-06T04:49:19Z",
      "version": 3,
      "changeset": 165873031,
      "user": "z-z-z88",
      "uid": 2346318,
      "tags": {
        "addr:street": "pame street",
        "amenity": "bar",
        "name": "Gusto Restro & Bar",
        "opening_hours": "09:00-20:00"
      }
    },
    {
      "type": "node",
      "id": 5539196621,
      "lat": 27.673466,
      "lon": 85.3245345,
      "timestamp": "2018-04-09T04:40:04Z",
      "version": 1,
      "changeset": 57928615,
      "user": "Joan Caillon",
      "uid": 7588321,
      "tags": {
        "amenity": "bar",
        "cuisine": "chicken;noodles;grill;asian",
        "internet_access": "wlan",
        "name:en": "Strings",
        "phone": "9803303050"
      }
    },
    {
      "type": "node",
      "id": 5561517527,
      "lat": 27.7300624,
      "lon": 85.3482187,
      "timestamp": "2025-04-22T14:02:06Z",
      "version": 3,
      "changeset": 165287844,
      "user": "frozenrabi",
      "uid": 10459757,
      "tags": {
        "addr:postcode": "44600",
        "addr:street": "Sukedhara Marg",
        "amenity": "bar",
        "cuisine": "american",
        "internet_access": "wlan",
        "name": "बेन्डर बीन्स",
        "name:en": "Bender Beans",
        "name:ne": "बेन्डर बीन्स",
        "opening_hours": "Mo-Su 08:00-20:00",
        "phone": "014015236",
        "website": "https://benderbeans.com/"
      }
    },
    {
      "type": "node",
      "id": 5564275225,
      "lat": 27.7179692,
      "lon": 85.3224327,
      "timestamp": "2023-03-10T11:41:33Z",
      "version": 2,
      "changeset": 133515110,
      "user": "woolfesss",
      "uid": 16738479,
      "tags": {
        "amenity": "bar",
        "indoor_seating": "yes",
        "name:en": "The Cafe World",
        "outdoor_seating": "no"
      }
    },
    {
      "type": "node",
      "id": 5719952222,
      "lat": 27.9327683,
      "lon": 83.6055928,
      "timestamp": "2018-06-26T10:12:41Z",
      "version": 1,
      "changeset": 60177025,
      "user": "Satya Narayan Neupane",
      "uid": 8468384,
      "tags": {
        "amenity": "bar"
      }
    },
    {
      "type": "node",
      "id": 5738074854,
      "lat": 27.6771881,
      "lon": 84.4472383,
      "timestamp": "2018-07-04T05:06:55Z",
      "version": 1,
      "changeset": 60396847,
      "user": "Prashanna Frank",
      "uid": 5130366,
      "tags": {
        "amenity": "bar",
        "name:en": "Krishna adh home"
      }
    },
    {
      "type": "node",
      "id": 5791597254,
      "lat": 28.9659853,
      "lon": 80.1803959,
      "timestamp": "2023-08-12T09:10:48Z",
      "version": 2,
      "changeset": 139778929,
      "user": "Lochan Pant",
      "uid": 14854690,
      "tags": {
        "amenity": "bar",
        "name": "Durbar Restaurant and Bar"
      }
    },
    {
      "type": "node",
      "id": 5808325253,
      "lat": 27.6437479,
      "lon": 85.3150339,
      "timestamp": "2018-08-04T04:44:44Z",
      "version": 1,
      "changeset": 61345961,
      "user": "प्रचण्ड बहादुर अधिकारी",
      "uid": 4603732,
      "tags": {
        "addr:street": "ढोलाहिटी - नख्खिपोट बाटो",
        "amenity": "pub",
        "name:en": "अधिकारी निवास(चोखेल्)",
        "operator": "अधिकारी"
      }
    },
    {
      "type": "node",
      "id": 5808325353,
      "lat": 26.9960157,
      "lon": 85.1183151,
      "timestamp": "2018-08-04T04:44:46Z",
      "version": 1,
      "changeset": 61345961,
      "user": "प्रचण्ड बहादुर अधिकारी",
      "uid": 4603732,
      "tags": {
        "amenity": "pub",
        "name:en": "Amod sir's mamaghar"
      }
    },
    {
      "type": "node",
      "id": 5840135383,
      "lat": 20.1396382,
      "lon": 85.5110481,
      "timestamp": "2018-08-18T17:19:54Z",
      "version": 1,
      "changeset": 61775796,
      "user": "BABUL KUMAR",
      "uid": 8701213,
      "tags": {
        "amenity": "bar",
        "name": "DALATOLA CAUNTOR",
        "opening_hours": "24/7",
        "outdoor_seating": "no",
        "smoking": "no"
      }
    },
    {
      "type": "node",
      "id": 5900339885,
      "lat": 25.3386621,
      "lon": 82.9823733,
      "timestamp": "2018-09-11T21:42:26Z",
      "version": 1,
      "changeset": 62502853,
      "user": "Madie_Bland",
      "uid": 7175421,
      "tags": {
        "amenity": "bar",
        "cuisine": "indian;chinese",
        "name:en": "Treat Bar"
      }
    },
    {
      "type": "node",
      "id": 5913697485,
      "lat": 28.209142,
      "lon": 83.9570058,
      "timestamp": "2022-12-26T12:25:44Z",
      "version": 3,
      "changeset": 130514244,
      "user": "Kristjan ESPERANTO",
      "uid": 77904,
      "tags": {
        "addr:postcode": "33700",
        "addr:street": "Lakeside Marg",
        "amenity": "bar",
        "cuisine": "chicken;burger;curry;fish;fish_and_chips;grill;indian;international;local;pizza",
        "diet:vegan": "yes",
        "email": "loungeoxygen@gmail.com",
        "internet_access": "wlan",
        "name:en": "Oxygen lounge Bar",
        "opening_hours": "Mo-Su 09:00-23:55",
        "phone": "+977 980 4103258"
      }
    },
    {
      "type": "node",
      "id": 5931153085,
      "lat": 27.7038556,
      "lon": 85.3028001,
      "timestamp": "2022-02-11T07:48:29Z",
      "version": 3,
      "changeset": 117275757,
      "user": "Pragya Pant",
      "uid": 10967140,
      "tags": {
        "amenity": "bar",
        "name:en": "Indra Pub"
      }
    },
    {
      "type": "node",
      "id": 6008131669,
      "lat": 21.3100423,
      "lon": 81.6367807,
      "timestamp": "2018-10-23T17:57:26Z",
      "version": 1,
      "changeset": 63805362,
      "user": "akashraj22",
      "uid": 8992850,
      "tags": {
        "amenity": "bar"
      }
    },
    {
      "type": "node",
      "id": 6012406385,
      "lat": 28.9655151,
      "lon": 80.1800963,
      "timestamp": "2018-10-25T10:14:31Z",
      "version": 1,
      "changeset": 63862042,
      "user": "Nabinnegi",
      "uid": 8570136,
      "tags": {
        "amenity": "bar",
        "internet_access": "wlan",
        "name:en": "Grand pacific restaurant and bar",
        "phone": "+977980644210"
      }
    },
    {
      "type": "node",
      "id": 6031122715,
      "lat": 27.7142021,
      "lon": 85.3120841,
      "timestamp": "2021-02-07T10:01:39Z",
      "version": 2,
      "changeset": 98843495,
      "user": "deepa_chand",
      "uid": 11575989,
      "tags": {
        "amenity": "bar",
        "name": "Nasha Bar",
        "toilets:wheelchair": "no",
        "wheelchair": "no"
      }
    },
    {
      "type": "node",
      "id": 6036168086,
      "lat": 28.8776804,
      "lon": 81.8054594,
      "timestamp": "2021-06-18T12:43:10Z",
      "version": 3,
      "changeset": 106588870,
      "user": "piaco_dk",
      "uid": 3442203,
      "tags": {
        "amenity": "bar",
        "name:en": "Wada office salleri",
        "operator": "khaldada"
      }
    },
    {
      "type": "node",
      "id": 6038225256,
      "lat": 28.3504902,
      "lon": 83.7423439,
      "timestamp": "2020-03-26T12:33:31Z",
      "version": 2,
      "changeset": 82662687,
      "user": "Tyr_ant",
      "uid": 6834411,
      "tags": {
        "amenity": "bar",
        "brewery": "various;yes",
        "name": "Waterfall Bar & Get Together",
        "opening_hours": "Mo-Su 09:00-22:00",
        "outdoor_seating": "yes",
        "phone": "+977 9825102716",
        "smoking": "yes",
        "tourism": "attraction"
      }
    },
    {
      "type": "node",
      "id": 6043111786,
      "lat": 28.9419152,
      "lon": 80.1255636,
      "timestamp": "2018-11-07T03:50:52Z",
      "version": 2,
      "changeset": 64250950,
      "user": "Nabinnegi",
      "uid": 8570136,
      "tags": {
        "addr:street": "Badaipur",
        "amenity": "bar",
        "leisure": "fitness_station",
        "name:en": "Kapil don ko ghar",
        "phone": "+9779865862320"
      }
    },
    {
      "type": "node",
      "id": 6065356585,
      "lat": 28.8137957,
      "lon": 80.5474038,
      "timestamp": "2018-11-16T04:51:50Z",
      "version": 1,
      "changeset": 64552429,
      "user": "Nabinnegi",
      "uid": 8570136,
      "tags": {
        "addr:street": "Mahakali Highway",
        "amenity": "bar",
        "internet_access": "wlan",
        "name:en": "Dada karki",
        "phone": "+9779825663867"
      }
    },
    {
      "type": "node",
      "id": 6068079288,
      "lat": 27.7196752,
      "lon": 85.3282203,
      "timestamp": "2019-01-07T18:46:52Z",
      "version": 2,
      "changeset": 66105969,
      "user": "Sassquatch",
      "uid": 7774084,
      "tags": {
        "amenity": "bar",
        "facebook": "https://www.facebook.com/los.escobars/",
        "name": "Los Escobar's"
      }
    },
    {
      "type": "node",
      "id": 6078491985,
      "lat": 27.7156665,
      "lon": 85.3096655,
      "timestamp": "2022-01-11T07:52:14Z",
      "version": 2,
      "changeset": 116012062,
      "user": "Manoj Thapa",
      "uid": 781054,
      "tags": {
        "amenity": "bar",
        "name": "Electric Pagoda"
      }
    },
    {
      "type": "node",
      "id": 6087196586,
      "lat": 29.3925159,
      "lon": 82.1497108,
      "timestamp": "2018-11-24T07:58:48Z",
      "version": 1,
      "changeset": 64838956,
      "user": "Llux Man",
      "uid": 9140409,
      "tags": {
        "amenity": "bar"
      }
    },
    {
      "type": "node",
      "id": 6128699893,
      "lat": 27.7182257,
      "lon": 85.3501023,
      "timestamp": "2018-12-10T16:32:00Z",
      "version": 1,
      "changeset": 65349739,
      "user": "Pradip Khatiwada",
      "uid": 4789912,
      "tags": {
        "addr:housenumber": "5",
        "addr:street": "Chabhil-Boudha-Jorpati Road",
        "amenity": "pub",
        "internet_access": "wlan",
        "name:en": "Hive"
      }
    },
    {
      "type": "node",
      "id": 6141500381,
      "lat": 22.5471967,
      "lon": 88.3523673,
      "timestamp": "2018-12-17T02:46:34Z",
      "version": 1,
      "changeset": 65535997,
      "user": "contrapunctus",
      "uid": 4685130,
      "tags": {
        "amenity": "pub",
        "name": "Pls Dnt Tlk"
      }
    },
    {
      "type": "node",
      "id": 6149298485,
      "lat": 28.9285327,
      "lon": 80.1380984,
      "timestamp": "2022-04-24T16:43:16Z",
      "version": 2,
      "changeset": 120131737,
      "user": "TeBaMa",
      "uid": 6519568,
      "tags": {
        "amenity": "bar",
        "email": "kunwarsumshersagar47@gmail.com",
        "name:en": "Zen kunwar",
        "phone": "+9779812712737"
      }
    },
    {
      "type": "node",
      "id": 6198687485,
      "lat": 27.620779,
      "lon": 85.5526563,
      "timestamp": "2019-01-10T15:16:26Z",
      "version": 1,
      "changeset": 66199276,
      "user": "Sujan Makaju Shrestha",
      "uid": 6280725,
      "tags": {
        "amenity": "bar",
        "name:en": "Cheers lounge and bar"
      }
    },
    {
      "type": "node",
      "id": 6231328428,
      "lat": 27.7147492,
      "lon": 85.3102089,
      "timestamp": "2021-06-01T04:02:38Z",
      "version": 3,
      "changeset": 105651865,
      "user": "Ro Sun",
      "uid": 3112087,
      "tags": {
        "addr:street": "Chaksibari Marg",
        "amenity": "bar",
        "contact:facebook": "https://www.facebook.com/reggaebarthamel",
        "email": "reggaebarthamel@gmail.com",
        "name": "Reggae Bar Thamel",
        "phone": "+977 9851053436",
        "source": "C2M2 Kathmandu Field Survey 2021",
        "website": "http://reggaebarthamel.com/"
      }
    },
    {
      "type": "node",
      "id": 6246072985,
      "lat": 27.7138713,
      "lon": 85.3113073,
      "timestamp": "2022-01-12T11:22:30Z",
      "version": 2,
      "changeset": 116062378,
      "user": "Manoj Thapa",
      "uid": 781054,
      "tags": {
        "addr:street": "Narsingh Chowk",
        "amenity": "pub",
        "name": "turtles club"
      }
    },
    {
      "type": "node",
      "id": 6316039085,
      "lat": 27.7151033,
      "lon": 85.3103767,
      "timestamp": "2022-01-11T08:24:35Z",
      "version": 4,
      "changeset": 116013194,
      "user": "Manoj Thapa",
      "uid": 781054,
      "tags": {
        "amenity": "pub",
        "name": "Paddy Foley’s Irish Pub"
      }
    },
    {
      "type": "node",
      "id": 6355976186,
      "lat": 27.6300407,
      "lon": 85.522963,
      "timestamp": "2019-03-23T08:21:05Z",
      "version": 1,
      "changeset": 68437592,
      "user": "Badal Baidar",
      "uid": 8353262,
      "tags": {
        "addr:street": "Araniko Highway",
        "amenity": "pub",
        "cuisine": "steak_house;sandwich;noodles;italian_pizza;grill;fish_and_chips;coffee_shop;chicken;burger;breakfast;barbecue",
        "email": "haitsportsbarandlounge@gmail.com",
        "internet_access": "wlan",
        "name:en": "H.A.I.T Sports Bar & Lounge",
        "opening_hours": "Mo-Su 11:00-23:00",
        "phone": "9808490999",
        "website": "http://www.haitlounge.com"
      }
    },
    {
      "type": "node",
      "id": 6396390986,
      "lat": 27.7125573,
      "lon": 85.3111568,
      "timestamp": "2023-09-08T07:53:40Z",
      "version": 4,
      "changeset": 140973777,
      "user": "frozenrabi",
      "uid": 10459757,
      "tags": {
        "amenity": "bar",
        "name:he": "חנות.. 2800 מעיל.. אולי 2500"
      }
    },
    {
      "type": "node",
      "id": 6399945585,
      "lat": 27.6807137,
      "lon": 85.3099268,
      "timestamp": "2019-04-12T05:30:10Z",
      "version": 1,
      "changeset": 69138492,
      "user": "Retromax",
      "uid": 2788095,
      "tags": {
        "amenity": "bar",
        "name:en": "Base Camp: Outdoor Lifestyle",
        "opening_hours": "Mo-Su 10:00-22:00",
        "phone": "984-1226397"
      }
    },
    {
      "type": "node",
      "id": 6459130787,
      "lat": 27.7396548,
      "lon": 85.3109596,
      "timestamp": "2019-05-08T16:44:04Z",
      "version": 1,
      "changeset": 70037421,
      "user": "deepak parajuli",
      "uid": 3686585,
      "tags": {
        "amenity": "bar",
        "name:en": "Sajja catering"
      }
    },
    {
      "type": "node",
      "id": 6596476992,
      "lat": 27.6782898,
      "lon": 85.3123462,
      "timestamp": "2019-07-08T13:22:18Z",
      "version": 1,
      "changeset": 72014387,
      "user": "Anunratna Bajracharya",
      "uid": 10139046,
      "tags": {
        "amenity": "bar",
        "name:en": "Beers N Cheers"
      }
    },
    {
      "type": "node",
      "id": 6643018694,
      "lat": 26.8661065,
      "lon": 81.0079955,
      "timestamp": "2019-08-08T08:02:36Z",
      "version": 2,
      "changeset": 73141191,
      "user": "Arhaansheikh",
      "uid": 10175104,
      "tags": {
        "addr:city": "Lucknow",
        "addr:housenumber": "27 & 31",
        "addr:postcode": "226010",
        "addr:street": "Rohtas Presidential Arcade, Vijaipur Colony, Vibhuti Khand, Gomti Nagar",
        "air_conditioning": "yes",
        "amenity": "bar",
        "brewery": "yes",
        "description": "Munick is bistro and bar located in gomti nagar lucknow uttar pradesh ",
        "email": "munickbistroandbar@gmail.com",
        "name": "Munick bistro & bar",
        "opening_hours": "Mo-Su 11:00-2:30",
        "outdoor_seating": "yes",
        "payment:american_express": "yes",
        "payment:cash": "yes",
        "payment:credit_cards": "yes",
        "payment:debit_cards": "yes",
        "payment:maestro": "yes",
        "payment:mastercard": "yes",
        "payment:visa": "yes"
      }
    },
    {
      "type": "node",
      "id": 6734398385,
      "lat": 28.4323698,
      "lon": 81.2283584,
      "timestamp": "2019-08-22T05:29:45Z",
      "version": 1,
      "changeset": 73604885,
      "user": "Bricouille",
      "uid": 1160772,
      "tags": {
        "amenity": "bar",
        "name:en": "Freedom beer bar"
      }
    },
    {
      "type": "node",
      "id": 6743484985,
      "lat": 22.5352649,
      "lon": 88.3566292,
      "timestamp": "2019-08-25T05:51:00Z",
      "version": 1,
      "changeset": 73709952,
      "user": "ARUN BHATIA",
      "uid": 9358090,
      "tags": {
        "amenity": "bar",
        "name": "Automobile association of eastern India"
      }
    },
    {
      "type": "node",
      "id": 6784472338,
      "lat": 26.6863726,
      "lon": 87.2743198,
      "timestamp": "2019-09-10T06:57:54Z",
      "version": 1,
      "changeset": 74291924,
      "user": "sagar17",
      "uid": 10129954,
      "tags": {
        "amenity": "bar"
      }
    },
    {
      "type": "node",
      "id": 6834191386,
      "lat": 28.2240074,
      "lon": 83.9518817,
      "timestamp": "2019-09-29T09:38:22Z",
      "version": 1,
      "changeset": 75057316,
      "user": "Bart Spelbos",
      "uid": 10320650,
      "tags": {
        "addr:street": "veiw point road",
        "amenity": "bar",
        "cuisine": "american;sandwich;pancake",
        "internet_access": "wlan",
        "name:en": "Café GP",
        "opening_hours": "Mo-Su 07:00-23:00"
      }
    },
    {
      "type": "node",
      "id": 6897272685,
      "lat": 27.3981245,
      "lon": 89.4227462,
      "timestamp": "2019-10-19T04:15:37Z",
      "version": 1,
      "changeset": 75919168,
      "user": "Rpoccia",
      "uid": 10052698,
      "tags": {
        "amenity": "pub",
        "name:en": "Namgay Artisanal Brewery"
      }
    },
    {
      "type": "node",
      "id": 6977126685,
      "lat": 28.2165029,
      "lon": 83.9572414,
      "timestamp": "2023-04-05T14:17:18Z",
      "version": 4,
      "changeset": 134540933,
      "user": "woolfesss",
      "uid": 16738479,
      "tags": {
        "air_conditioning": "no",
        "amenity": "bar",
        "cuisine": "burger;regional;sandwich;international;tea;coffee_shop;local;noodles;indian",
        "indoor_seating": "yes",
        "internet_access": "wlan",
        "name:en": "Hakunana Tata Café",
        "outdoor_seating": "no",
        "smoking": "separated"
      }
    },
    {
      "type": "node",
      "id": 7089256485,
      "lat": 27.7168286,
      "lon": 85.3095797,
      "timestamp": "2019-12-27T16:22:38Z",
      "version": 1,
      "changeset": 78933920,
      "user": "Pranika",
      "uid": 10596519,
      "tags": {
        "addr:postcode": "44600",
        "addr:street": "Z Marg",
        "amenity": "pub",
        "cuisine": "tea;chicken;noodles;pasta;asian;pancake;sausage;breakfast;indian",
        "internet_access": "wlan",
        "name:en": "English Pub",
        "opening_hours": "Mo-Su 08:00-01:00"
      }
    },
    {
      "type": "node",
      "id": 7114644187,
      "lat": 27.6693329,
      "lon": 83.4484259,
      "timestamp": "2020-01-07T15:23:17Z",
      "version": 1,
      "changeset": 79299171,
      "user": "Deepsk",
      "uid": 10610075,
      "tags": {
        "amenity": "bar",
        "email": "deepakpandey20433@gmail.com",
        "name:en": "Raniganj Butwal",
        "phone": "9867018465"
      }
    },
    {
      "type": "node",
      "id": 7154359098,
      "lat": 28.8424947,
      "lon": 81.7109487,
      "timestamp": "2020-01-23T15:52:24Z",
      "version": 1,
      "changeset": 79986077,
      "user": "flavito poirier",
      "uid": 10693272,
      "tags": {
        "amenity": "bar"
      }
    },
    {
      "type": "node",
      "id": 7173977787,
      "lat": 27.7162715,
      "lon": 85.3100959,
      "timestamp": "2020-01-31T04:05:04Z",
      "version": 1,
      "changeset": 80346019,
      "user": "Alexshanti",
      "uid": 10721957,
      "tags": {
        "amenity": "bar",
        "name:ru": "бар без вайфая"
      }
    },
    {
      "type": "node",
      "id": 7176778585,
      "lat": 27.6879279,
      "lon": 85.3356432,
      "timestamp": "2020-02-01T08:38:54Z",
      "version": 1,
      "changeset": 80402747,
      "user": "Maladeep",
      "uid": 6666493,
      "tags": {
        "amenity": "bar",
        "name:en": "Cityscape Lounge & Bar"
      }
    },
    {
      "type": "node",
      "id": 7250060686,
      "lat": 27.7127352,
      "lon": 85.3179074,
      "timestamp": "2023-01-29T10:42:00Z",
      "version": 6,
      "changeset": 131835403,
      "user": "Parassrest",
      "uid": 3569249,
      "tags": {
        "addr:city": "Kathmandu",
        "addr:street": "Durbar Marg",
        "amenity": "pub",
        "contact:facebook": "https://www.facebook.com/LondonPub.ktm",
        "cuisine": "italian_pizza;seafood;chicken;pizza;burger;fish_and_chips;italian;local",
        "diet:vegetarian": "yes",
        "email": "londonpub.ktm@gmail.com",
        "internet_access": "wlan",
        "name:en": "London Pub",
        "opening_hours": "Mo-Su 15:00-03:00",
        "phone": "+977 1-4220256"
      }
    },
    {
      "type": "node",
      "id": 7314440085,
      "lat": 27.7152958,
      "lon": 85.3102419,
      "timestamp": "2022-01-11T08:13:31Z",
      "version": 2,
      "changeset": 116012769,
      "user": "Manoj Thapa",
      "uid": 781054,
      "tags": {
        "addr:street": "Chaksibari Marg",
        "amenity": "bar",
        "internet_access": "wlan",
        "name": "Shisha Lounge and Bar",
        "opening_hours": "Mo-Su 12:00-01:00"
      }
    },
    {
      "type": "node",
      "id": 7315844773,
      "lat": 25.3387221,
      "lon": 82.980089,
      "timestamp": "2020-03-21T16:23:05Z",
      "version": 1,
      "changeset": 82463551,
      "user": "OneTwoThreeFour",
      "uid": 9830089,
      "tags": {
        "amenity": "bar",
        "name": "Sol Bar",
        "note": "Belongs to Surya Kaiser Palace"
      }
    },
    {
      "type": "node",
      "id": 7388632785,
      "lat": 27.6327616,
      "lon": 85.317666,
      "timestamp": "2020-04-10T09:27:02Z",
      "version": 1,
      "changeset": 83352798,
      "user": "Nikay Mhz",
      "uid": 4494614,
      "tags": {
        "addr:street": "Thecho Chapagaun Road",
        "amenity": "pub",
        "internet_access": "wlan",
        "name:en": "Maila dai newari khaja ghar",
        "opening_hours": "Mo-Su 12:00-18:00",
        "phone": "977015573369"
      }
    },
    {
      "type": "node",
      "id": 7515235051,
      "lat": 22.5798849,
      "lon": 88.3044766,
      "timestamp": "2020-05-13T15:49:56Z",
      "version": 1,
      "changeset": 85154172,
      "user": "navonil",
      "uid": 10893297,
      "tags": {
        "amenity": "bar",
        "name": "NOXX"
      }
    },
    {
      "type": "node",
      "id": 7730897991,
      "lat": 27.6794797,
      "lon": 85.3645335,
      "timestamp": "2025-04-11T11:48:06Z",
      "version": 2,
      "changeset": 164812068,
      "user": "marek kleciak",
      "uid": 338611,
      "tags": {
        "amenity": "bar"
      }
    },
    {
      "type": "node",
      "id": 7817062283,
      "lat": 27.7268485,
      "lon": 85.3308963,
      "timestamp": "2020-08-16T11:18:32Z",
      "version": 1,
      "changeset": 89469093,
      "user": "sullepjk",
      "uid": 11658858,
      "tags": {
        "amenity": "bar",
        "name": "Elements Cafe"
      }
    },
    {
      "type": "node",
      "id": 8402298659,
      "lat": 27.7157541,
      "lon": 85.3095604,
      "timestamp": "2023-06-15T09:50:37Z",
      "version": 4,
      "changeset": 137362759,
      "user": "frozenrabi",
      "uid": 10459757,
      "tags": {
        "addr:postcode": "44600",
        "addr:street": "Saat Ghumti Marg",
        "amenity": "bar",
        "cuisine": "asian",
        "email": "grasshoppercafeandbar@gmail.com",
        "internet_access": "wlan",
        "name": "घाँसकोट क्याफे र बार",
        "name:en": "Grasshopper Cafe and Bar",
        "name:ne": "घाँसकोट क्याफे र बार",
        "phone": "+9779841225722"
      }
    },
    {
      "type": "node",
      "id": 8578807773,
      "lat": 28.2134513,
      "lon": 83.957498,
      "timestamp": "2021-03-31T10:50:33Z",
      "version": 3,
      "changeset": 102049360,
      "user": "arungrg",
      "uid": 11529731,
      "tags": {
        "amenity": "bar",
        "description": "THE ROOF IS A BAR AT THE TOP, OPPOSITE TO LAKESIDE CORNER",
        "name": "THE ROOF"
      }
    },
    {
      "type": "node",
      "id": 8696860175,
      "lat": 27.7146402,
      "lon": 85.3103613,
      "timestamp": "2024-08-02T17:06:00Z",
      "version": 2,
      "changeset": 154745724,
      "user": "frozenrabi",
      "uid": 10459757,
      "tags": {
        "amenity": "bar",
        "name": "लाउन्ज बार प्रा. लि",
        "name:en": "Lounge Bar Pvt.Ltd",
        "name:ne": "लाउन्ज बार प्रा. लि",
        "source": "C2M2 Kathmandu Field Survey 2021"
      }
    },
    {
      "type": "node",
      "id": 8696860194,
      "lat": 27.7144317,
      "lon": 85.309993,
      "timestamp": "2021-05-04T10:46:37Z",
      "version": 1,
      "changeset": 104117327,
      "user": "Ro Sun",
      "uid": 3112087,
      "tags": {
        "amenity": "bar",
        "name": "Jungle Lounge And Bar",
        "source": "C2M2 Kathmandu Field Survey 2021"
      }
    },
    {
      "type": "node",
      "id": 8697036324,
      "lat": 27.714693,
      "lon": 85.3104988,
      "timestamp": "2021-05-04T11:26:24Z",
      "version": 1,
      "changeset": 104120191,
      "user": "Ro Sun",
      "uid": 3112087,
      "tags": {
        "amenity": "bar",
        "name": "Reggage Bar",
        "source": "C2M2 Kathmandu Field Survey 2021"
      }
    },
    {
      "type": "node",
      "id": 8697036341,
      "lat": 27.7151822,
      "lon": 85.3103843,
      "timestamp": "2021-05-04T11:26:24Z",
      "version": 1,
      "changeset": 104120191,
      "user": "Ro Sun",
      "uid": 3112087,
      "tags": {
        "amenity": "bar",
        "name": "26Th Street Lounge And Bar",
        "source": "C2M2 Kathmandu Field Survey 2021"
      }
    },
    {
      "type": "node",
      "id": 8699923394,
      "lat": 27.7144457,
      "lon": 85.3114522,
      "timestamp": "2023-06-15T09:50:37Z",
      "version": 3,
      "changeset": 137362759,
      "user": "frozenrabi",
      "uid": 10459757,
      "tags": {
        "amenity": "bar",
        "name": "इबिजा लाउन्ज र बार",
        "name:en": "Ibyza Lounge And Bar",
        "name:ne": "इबिजा लाउन्ज र बार",
        "source": "C2M2 Kathmandu Field Survey 2021"
      }
    },
    {
      "type": "node",
      "id": 8699923409,
      "lat": 27.7144163,
      "lon": 85.3117251,
      "timestamp": "2021-05-05T03:36:40Z",
      "version": 1,
      "changeset": 104153591,
      "user": "Ro Sun",
      "uid": 3112087,
      "tags": {
        "amenity": "bar",
        "name": "Guitar Lounge And Bar",
        "phone": "981422947",
        "source": "C2M2 Kathmandu Field Survey 2021"
      }
    },
    {
      "type": "node",
      "id": 8699925677,
      "lat": 27.7147323,
      "lon": 85.310776,
      "timestamp": "2024-12-28T12:45:06Z",
      "version": 2,
      "changeset": 160712099,
      "user": "frozenrabi",
      "uid": 10459757,
      "tags": {
        "amenity": "bar",
        "name": "माया मेक्सिकन रेस्टुरेन्ट ककटेल बार",
        "name:en": "Maya Mexican Restaurant Cocktail Bar",
        "name:ne": "माया मेक्सिकन रेस्टुरेन्ट ककटेल बार",
        "source": "C2M2 Kathmandu Field Survey 2021"
      }
    },
    {
      "type": "node",
      "id": 8699925703,
      "lat": 27.7147276,
      "lon": 85.3106374,
      "timestamp": "2024-08-02T17:05:50Z",
      "version": 2,
      "changeset": 154745713,
      "user": "frozenrabi",
      "uid": 10459757,
      "tags": {
        "amenity": "bar",
        "name": "लालटेन बार",
        "name:en": "Lantern Bar",
        "name:ne": "लालटेन बार",
        "source": "C2M2 Kathmandu Field Survey 2021"
      }
    },
    {
      "type": "node",
      "id": 8699927585,
      "lat": 27.714082,
      "lon": 85.3111616,
      "timestamp": "2021-05-05T03:32:01Z",
      "version": 1,
      "changeset": 104153459,
      "user": "Ro Sun",
      "uid": 3112087,
      "tags": {
        "amenity": "bar",
        "name": "Deva Arcade",
        "source": "C2M2 Kathmandu Field Survey 2021"
      }
    },
    {
      "type": "node",
      "id": 8699927609,
      "lat": 27.7136775,
      "lon": 85.3112758,
      "timestamp": "2023-06-15T09:50:37Z",
      "version": 3,
      "changeset": 137362759,
      "user": "frozenrabi",
      "uid": 10459757,
      "tags": {
        "amenity": "bar",
        "name": "नीलो पट्टी",
        "name:en": "Blue Bar",
        "name:ne": "नीलो पट्टी",
        "source": "C2M2 Kathmandu Field Survey 2021"
      }
    },
    {
      "type": "node",
      "id": 8730250193,
      "lat": 27.6225697,
      "lon": 83.4746018,
      "timestamp": "2023-09-09T17:12:45Z",
      "version": 2,
      "changeset": 141033138,
      "user": "Mateusz Konieczny - bot account",
      "uid": 3199858,
      "tags": {
        "addr:city": "butwal",
        "addr:street": "Siddhartha Highway",
        "amenity": "bar",
        "brewery": "Heineken",
        "min_age": "21",
        "name": "Karuna Café La Trova",
        "opening_hours": "24/7"
      }
    },
    {
      "type": "node",
      "id": 8845206131,
      "lat": 25.3035592,
      "lon": 82.9761299,
      "timestamp": "2021-06-18T11:19:34Z",
      "version": 1,
      "changeset": 106584785,
      "user": "IITBHU_Navvay_Dhingra",
      "uid": 13560639,
      "tags": {
        "amenity": "bar",
        "name": "Molecule - Varanasi"
      }
    },
    {
      "type": "node",
      "id": 8853695916,
      "lat": 25.3095133,
      "lon": 82.9897179,
      "timestamp": "2021-06-21T16:21:24Z",
      "version": 1,
      "changeset": 106726834,
      "user": "IITBHU_Navvay_Dhingra",
      "uid": 13560639,
      "tags": {
        "amenity": "bar",
        "name": "Yelchiko Bar and Restaurant"
      }
    },
    {
      "type": "node",
      "id": 8903940771,
      "lat": 25.4583316,
      "lon": 81.8639091,
      "timestamp": "2021-07-08T09:59:13Z",
      "version": 1,
      "changeset": 107623699,
      "user": "IIT BHU_VEDANSH_PANDEY",
      "uid": 13506668,
      "tags": {
        "amenity": "bar",
        "name": "pravin bar"
      }
    },
    {
      "type": "node",
      "id": 8903940776,
      "lat": 25.4548525,
      "lon": 81.8619289,
      "timestamp": "2021-07-08T09:59:13Z",
      "version": 1,
      "changeset": 107623699,
      "user": "IIT BHU_VEDANSH_PANDEY",
      "uid": 13506668,
      "tags": {
        "amenity": "bar",
        "name": "aashish"
      }
    },
    {
      "type": "node",
      "id": 8910088670,
      "lat": 20.3672755,
      "lon": 85.8312264,
      "timestamp": "2021-07-10T17:26:50Z",
      "version": 1,
      "changeset": 107756607,
      "user": "IITBHU_Baibhav Mohanty_20064007",
      "uid": 13715975,
      "tags": {
        "amenity": "bar",
        "name": "Excellency Gold Bar"
      }
    },
    {
      "type": "node",
      "id": 8911064656,
      "lat": 25.4571147,
      "lon": 81.8656686,
      "timestamp": "2021-07-11T08:13:03Z",
      "version": 1,
      "changeset": 107771701,
      "user": "IIT BHU_VEDANSH_PANDEY",
      "uid": 13506668,
      "tags": {
        "amenity": "bar",
        "name": "raju internationals"
      }
    },
    {
      "type": "node",
      "id": 8911077023,
      "lat": 25.4492569,
      "lon": 81.8578098,
      "timestamp": "2021-07-11T07:53:33Z",
      "version": 1,
      "changeset": 107771136,
      "user": "IIT BHU_VEDANSH_PANDEY",
      "uid": 13506668,
      "tags": {
        "amenity": "bar",
        "name": "beer bar mosowo"
      }
    },
    {
      "type": "node",
      "id": 8917298328,
      "lat": 23.3494826,
      "lon": 85.3289819,
      "timestamp": "2022-05-25T06:17:58Z",
      "version": 3,
      "changeset": 121456982,
      "user": "Prakash Baski",
      "uid": 12078020,
      "tags": {
        "amenity": "bar",
        "description": "Punjabi Bar",
        "name": "Punjabi Bar",
        "name:sat": "ᱯᱚᱸᱡᱟᱵᱤ ᱵᱟᱨ"
      }
    },
    {
      "type": "node",
      "id": 9076898201,
      "lat": 27.723194,
      "lon": 85.3215801,
      "timestamp": "2024-08-05T08:14:19Z",
      "version": 4,
      "changeset": 154837581,
      "user": "frozenrabi",
      "uid": 10459757,
      "tags": {
        "addr:city": "Kathmandu",
        "addr:street": "Lazimpat Sadak",
        "amenity": "bar",
        "brewery": "cocktails;mocktails;beer;gastro;wine;snacks",
        "min_age": "18",
        "name": "बिटरस एण्ड कम्पनी",
        "name:en": "Bitters & Co.",
        "name:ne": "बिटरस एण्ड कम्पनी",
        "opening_hours": "Su-Sa 14:00-24:00"
      }
    },
    {
      "type": "node",
      "id": 9367990717,
      "lat": 25.0850746,
      "lon": 88.8797405,
      "timestamp": "2021-12-26T17:37:01Z",
      "version": 1,
      "changeset": 115394205,
      "user": "riyadh_69",
      "uid": 10733023,
      "tags": {
        "amenity": "bar"
      }
    },
    {
      "type": "node",
      "id": 9369986717,
      "lat": 28.2274804,
      "lon": 83.9422804,
      "timestamp": "2021-12-27T11:18:00Z",
      "version": 1,
      "changeset": 115421250,
      "user": "apurwasingh",
      "uid": 10779881,
      "tags": {
        "addr:street": "Khapaudi Road",
        "amenity": "bar",
        "name:en": "Thyme Restaurant and Bar",
        "opening_hours": "Mo-Su 11:00-22:00",
        "phone": "9803585637"
      }
    },
    {
      "type": "node",
      "id": 9396886918,
      "lat": 27.7190618,
      "lon": 85.3567509,
      "timestamp": "2022-09-10T13:45:46Z",
      "version": 2,
      "changeset": 126016577,
      "user": "srvbhattarai",
      "uid": 5084910,
      "tags": {
        "amenity": "bar",
        "name:en": "Barghar Restaurant & Bar"
      }
    },
    {
      "type": "node",
      "id": 9473229518,
      "lat": 27.4284832,
      "lon": 89.6463852,
      "timestamp": "2022-02-04T04:30:58Z",
      "version": 1,
      "changeset": 116988301,
      "user": "Sonam Tshewang",
      "uid": 670875,
      "tags": {
        "addr:housenumber": "96",
        "addr:street": "Bapi Lam",
        "amenity": "bar",
        "name:en": "Kadu Bar",
        "phone": "17808357"
      }
    },
    {
      "type": "node",
      "id": 9473230018,
      "lat": 27.4285747,
      "lon": 89.6450758,
      "timestamp": "2022-02-04T04:30:45Z",
      "version": 1,
      "changeset": 116988301,
      "user": "Sonam Tshewang",
      "uid": 670875,
      "tags": {
        "addr:housenumber": "106",
        "addr:street": "Bapi Lam",
        "amenity": "bar",
        "name:en": "Reena Tshongkhang and Bar"
      }
    },
    {
      "type": "node",
      "id": 9529645929,
      "lat": 27.7294316,
      "lon": 85.3307489,
      "timestamp": "2022-02-23T11:31:13Z",
      "version": 1,
      "changeset": 117765761,
      "user": "Manoj Thapa",
      "uid": 781054,
      "tags": {
        "amenity": "bar",
        "name": "Fudo Eats and Drinks"
      }
    },
    {
      "type": "node",
      "id": 9532062737,
      "lat": 27.5091613,
      "lon": 89.8713922,
      "timestamp": "2022-02-24T10:27:11Z",
      "version": 1,
      "changeset": 117805717,
      "user": "Sunita_Uroan",
      "uid": 14507623,
      "tags": {
        "amenity": "bar"
      }
    },
    {
      "type": "node",
      "id": 9572977117,
      "lat": 27.7160656,
      "lon": 85.3100405,
      "timestamp": "2023-06-16T10:12:07Z",
      "version": 8,
      "changeset": 137407382,
      "user": "mikko_tamura",
      "uid": 2258022,
      "tags": {
        "air_conditioning": "no",
        "amenity": "pub",
        "internet_access": "no",
        "lgbtq": "primary",
        "name": "गुलाबी टिफनी",
        "name:en": "Pink Tiffany",
        "name:ne": "गुलाबी टिफनी",
        "opening_hours": "Mo-Su 10:00-22:00",
        "smoking": "yes",
        "wheelchair": "no"
      }
    },
    {
      "type": "node",
      "id": 9774092685,
      "lat": 23.8114098,
      "lon": 86.4530713,
      "timestamp": "2022-05-27T04:23:38Z",
      "version": 1,
      "changeset": 121553115,
      "user": "Prakash Baski",
      "uid": 12078020,
      "tags": {
        "amenity": "bar",
        "name": "Blue Star Bar"
      }
    },
    {
      "type": "node",
      "id": 9803063673,
      "lat": 27.5070979,
      "lon": 83.451103,
      "timestamp": "2022-06-08T06:10:46Z",
      "version": 1,
      "changeset": 122099984,
      "user": "Bishow Saran Baral",
      "uid": 11369449,
      "tags": {
        "amenity": "bar",
        "name": "KNK food safari"
      }
    },
    {
      "type": "node",
      "id": 9804007891,
      "lat": 27.5184434,
      "lon": 83.4470668,
      "timestamp": "2022-06-08T13:53:09Z",
      "version": 1,
      "changeset": 122119945,
      "user": "Bishow Saran Baral",
      "uid": 11369449,
      "tags": {
        "amenity": "bar",
        "name": "Liberty Restro"
      }
    },
    {
      "type": "node",
      "id": 9806016394,
      "lat": 27.508595,
      "lon": 83.454611,
      "timestamp": "2022-06-09T10:23:29Z",
      "version": 1,
      "changeset": 122157842,
      "user": "Bibekhaudi",
      "uid": 16010987,
      "tags": {
        "amenity": "pub",
        "name": "Bhumi Restaurant & Pub"
      }
    },
    {
      "type": "node",
      "id": 9806441780,
      "lat": 27.5120515,
      "lon": 83.4540516,
      "timestamp": "2022-06-09T12:56:13Z",
      "version": 1,
      "changeset": 122165149,
      "user": "Bibekhaudi",
      "uid": 16010987,
      "tags": {
        "amenity": "bar",
        "name": "Hotel Ganesh Restaurant & Bar"
      }
    },
    {
      "type": "node",
      "id": 9806441793,
      "lat": 27.5135369,
      "lon": 83.4536243,
      "timestamp": "2022-06-09T12:56:13Z",
      "version": 1,
      "changeset": 122165149,
      "user": "Bibekhaudi",
      "uid": 16010987,
      "tags": {
        "amenity": "bar",
        "name": "Black Horse Cafe, Restaurant & Bar"
      }
    },
    {
      "type": "node",
      "id": 9806442951,
      "lat": 27.5122824,
      "lon": 83.452481,
      "timestamp": "2022-06-27T13:43:37Z",
      "version": 2,
      "changeset": 122911837,
      "user": "Anil Basnet",
      "uid": 3686666,
      "tags": {
        "amenity": "bar",
        "name": "Smoke Nepal"
      }
    },
    {
      "type": "node",
      "id": 9808046541,
      "lat": 27.5043291,
      "lon": 83.4564322,
      "timestamp": "2022-06-10T07:56:16Z",
      "version": 1,
      "changeset": 122197101,
      "user": "Gaurav Parajuli",
      "uid": 8316170,
      "tags": {
        "amenity": "bar",
        "name": "Jail Restaurant and Bar"
      }
    },
    {
      "type": "node",
      "id": 9865166419,
      "lat": 27.6874843,
      "lon": 85.3408168,
      "timestamp": "2023-05-23T08:48:00Z",
      "version": 2,
      "changeset": 136445607,
      "user": "marek kleciak",
      "uid": 338611,
      "tags": {
        "addr:street": "Madan Bhandari Path",
        "amenity": "bar",
        "internet_access": "wlan"
      }
    },
    {
      "type": "node",
      "id": 9889062704,
      "lat": 27.4518975,
      "lon": 89.6583317,
      "timestamp": "2022-12-13T11:17:26Z",
      "version": 3,
      "changeset": 130032146,
      "user": "Sonam Tshewang",
      "uid": 670875,
      "tags": {
        "amenity": "bar",
        "shop": "alcohol"
      }
    },
    {
      "type": "node",
      "id": 9914348076,
      "lat": 27.6836753,
      "lon": 85.3120975,
      "timestamp": "2023-06-15T09:50:37Z",
      "version": 4,
      "changeset": 137362759,
      "user": "frozenrabi",
      "uid": 10459757,
      "tags": {
        "amenity": "bar",
        "name": "द ड्रिंकर्स नेपाल",
        "name:en": "The Drinkers Nepal",
        "name:ne": "द ड्रिंकर्स नेपाल"
      }
    },
    {
      "type": "node",
      "id": 9916370317,
      "lat": 29.2667415,
      "lon": 88.8787415,
      "timestamp": "2022-07-28T06:42:43Z",
      "version": 1,
      "changeset": 124168881,
      "user": "travelgirl179",
      "uid": 10596611,
      "tags": {
        "amenity": "bar",
        "cuisine": "american",
        "name:en": "Green Age Bar"
      }
    },
    {
      "type": "node",
      "id": 9928590098,
      "lat": 27.6988071,
      "lon": 85.3131937,
      "timestamp": "2025-01-07T09:48:46Z",
      "version": 2,
      "changeset": 161088670,
      "user": "frozenrabi",
      "uid": 10459757,
      "tags": {
        "amenity": "pub",
        "name": "सयापत्री रोधी घर",
        "name:en": "Sayapatri Rodhi Ghar",
        "name:ne": "सयापत्री रोधी घर"
      }
    },
    {
      "type": "node",
      "id": 9942171117,
      "lat": 27.6732814,
      "lon": 85.3238692,
      "timestamp": "2022-08-09T10:05:41Z",
      "version": 1,
      "changeset": 124677365,
      "user": "Aadesh Baral",
      "uid": 13526430,
      "tags": {
        "amenity": "bar",
        "name:en": "Dallucha Restro Longue and Bar",
        "phone": "9779869612014"
      }
    },
    {
      "type": "node",
      "id": 9944043218,
      "lat": 27.6724893,
      "lon": 85.3248536,
      "timestamp": "2023-11-17T10:23:35Z",
      "version": 2,
      "changeset": 144131964,
      "user": "sagarawrz07",
      "uid": 4831756,
      "tags": {
        "amenity": "bar",
        "name": "Drishya"
      }
    },
    {
      "type": "node",
      "id": 9951983477,
      "lat": 27.6856455,
      "lon": 85.3127519,
      "timestamp": "2023-06-15T09:50:37Z",
      "version": 3,
      "changeset": 137362759,
      "user": "frozenrabi",
      "uid": 10459757,
      "tags": {
        "amenity": "pub",
        "name": "बंकर हिल पब",
        "name:en": "Bunker Hill Pub",
        "name:ne": "बंकर हिल पब"
      }
    },
    {
      "type": "node",
      "id": 9956153383,
      "lat": 27.6756656,
      "lon": 85.3518654,
      "timestamp": "2024-02-10T15:48:19Z",
      "version": 2,
      "changeset": 147298046,
      "user": "frozenrabi",
      "uid": 10459757,
      "tags": {
        "amenity": "pub",
        "name": "गोर्खाली रोधिघर",
        "name:en": "Gorkhali Rodhighar",
        "name:ne": "गोर्खाली रोधिघर"
      }
    },
    {
      "type": "node",
      "id": 9956485641,
      "lat": 27.6750101,
      "lon": 85.3534274,
      "timestamp": "2022-08-16T08:39:12Z",
      "version": 1,
      "changeset": 124960161,
      "user": "Nikita2057",
      "uid": 16601239,
      "tags": {
        "amenity": "pub",
        "mobile": "9863184984",
        "name": "Trishna Rodhi Ghar"
      }
    },
    {
      "type": "node",
      "id": 9956485665,
      "lat": 27.6750431,
      "lon": 85.3525886,
      "timestamp": "2024-02-02T08:48:10Z",
      "version": 2,
      "changeset": 146975644,
      "user": "frozenrabi",
      "uid": 10459757,
      "tags": {
        "amenity": "pub",
        "name": "हब रोधी घर",
        "name:en": "Hub Rodhi Ghar",
        "name:ne": "हब रोधी घर"
      }
    },
    {
      "type": "node",
      "id": 9956485684,
      "lat": 27.6752247,
      "lon": 85.3513062,
      "timestamp": "2024-02-02T08:48:23Z",
      "version": 3,
      "changeset": 146975654,
      "user": "frozenrabi",
      "uid": 10459757,
      "tags": {
        "amenity": "pub",
        "name": "सइलुङ रोधी घर",
        "name:en": "Sailung Rodhi Ghar",
        "name:ne": "सइलुङ रोधी घर"
      }
    },
    {
      "type": "node",
      "id": 9956485703,
      "lat": 27.6789655,
      "lon": 85.3492183,
      "timestamp": "2025-06-19T08:15:50Z",
      "version": 4,
      "changeset": 167813470,
      "user": "marek kleciak",
      "uid": 338611,
      "tags": {
        "amenity": "pub",
        "name": "जुनतारा रोधी घर",
        "name:en": "JunTara Rodhi Ghar",
        "name:ne": "जुनतारा रोधी घर"
      }
    },
    {
      "type": "node",
      "id": 9956505796,
      "lat": 27.7056674,
      "lon": 85.3219037,
      "timestamp": "2022-08-16T08:51:37Z",
      "version": 1,
      "changeset": 124960691,
      "user": "Nikita2057",
      "uid": 16601239,
      "tags": {
        "amenity": "pub",
        "name": "Chahana Rodhi Ghar"
      }
    },
    {
      "type": "node",
      "id": 9967126979,
      "lat": 27.6778935,
      "lon": 85.3474167,
      "timestamp": "2024-01-27T07:16:35Z",
      "version": 2,
      "changeset": 146733982,
      "user": "Gupta321",
      "uid": 16174600,
      "tags": {
        "amenity": "pub",
        "name": "देउराली रोधिघर",
        "name:en": "Deurali RodhiGhar",
        "name:ne": "देउराली रोधिघर"
      }
    },
    {
      "type": "node",
      "id": 9967126990,
      "lat": 27.6777959,
      "lon": 85.347265,
      "timestamp": "2024-01-27T11:33:14Z",
      "version": 2,
      "changeset": 146740662,
      "user": "Gupta321",
      "uid": 16174600,
      "tags": {
        "amenity": "pub",
        "name": "गादी रोधी घर",
        "name:en": "Gadi Rodhi Ghar",
        "name:ne": "गादी रोधी घर"
      }
    },
    {
      "type": "node",
      "id": 9969339015,
      "lat": 27.6779927,
      "lon": 85.3488069,
      "timestamp": "2024-02-17T10:15:09Z",
      "version": 2,
      "changeset": 147563976,
      "user": "frozenrabi",
      "uid": 10459757,
      "tags": {
        "amenity": "pub",
        "name": "जुगल पञ्चेबाजा रोधी घर",
        "name:en": "Jugal Panchebaja Rodhi Ghar",
        "name:ne": "जुगल पञ्चेबाजा रोधी घर"
      }
    },
    {
      "type": "node",
      "id": 10004786612,
      "lat": 27.6736638,
      "lon": 85.3537557,
      "timestamp": "2023-06-15T09:50:37Z",
      "version": 3,
      "changeset": 137362759,
      "user": "frozenrabi",
      "uid": 10459757,
      "tags": {
        "amenity": "bar",
        "name": "हाकु हुक्का बार",
        "name:en": "Haku Hukka Bar",
        "name:ne": "हाकु हुक्का बार"
      }
    },
    {
      "type": "node",
      "id": 10011219625,
      "lat": 27.7367998,
      "lon": 85.3082777,
      "timestamp": "2022-09-09T12:03:18Z",
      "version": 1,
      "changeset": 125979168,
      "user": "Niruta Neeupane",
      "uid": 13116045,
      "tags": {
        "amenity": "bar"
      }
    },
    {
      "type": "node",
      "id": 10011219686,
      "lat": 27.7354667,
      "lon": 85.3079795,
      "timestamp": "2022-09-09T12:03:18Z",
      "version": 1,
      "changeset": 125979168,
      "user": "Niruta Neeupane",
      "uid": 13116045,
      "tags": {
        "amenity": "bar",
        "name": "Fulchoki Dance Bar"
      }
    },
    {
      "type": "node",
      "id": 10038549502,
      "lat": 25.4550626,
      "lon": 81.8349598,
      "timestamp": "2022-09-20T05:37:29Z",
      "version": 2,
      "changeset": 126405168,
      "user": "bacteriostat",
      "uid": 13806135,
      "tags": {
        "amenity": "bar",
        "level": "3-4",
        "name": "Barcode"
      }
    },
    {
      "type": "node",
      "id": 10057797277,
      "lat": 22.6297475,
      "lon": 88.4209996,
      "timestamp": "2022-09-28T06:24:20Z",
      "version": 1,
      "changeset": 126723840,
      "user": "swagata_sasmal",
      "uid": 15182429,
      "tags": {
        "addr:city": "Dum Dum",
        "addr:postcode": "700028",
        "addr:street": "Jessore Road",
        "air_conditioning": "yes",
        "amenity": "bar",
        "brewery": "yes",
        "cuisine": "chinese, north Indian",
        "min_age": "18",
        "name": "Maharaja Bar and Restaurant",
        "opening_hours": "Mo-Su 11:00-23:00",
        "payment:cash": "yes",
        "payment:credit_cards": "yes",
        "payment:debit_cards": "yes",
        "payment:upi": "yes",
        "smoking": "separated"
      }
    },
    {
      "type": "node",
      "id": 10121362081,
      "lat": 27.6793312,
      "lon": 85.3492182,
      "timestamp": "2023-04-26T08:55:12Z",
      "version": 2,
      "changeset": 135375215,
      "user": "frozenrabi",
      "uid": 10459757,
      "tags": {
        "amenity": "bar",
        "name": "KLC Bar",
        "name:en": "KLC Bar"
      }
    },
    {
      "type": "node",
      "id": 10121388620,
      "lat": 27.6853931,
      "lon": 85.346923,
      "timestamp": "2023-05-22T11:10:38Z",
      "version": 2,
      "changeset": 136408061,
      "user": "marek kleciak",
      "uid": 338611,
      "tags": {
        "amenity": "pub",
        "name": "Kantipur Dohori Sajha"
      }
    },
    {
      "type": "node",
      "id": 10121412580,
      "lat": 27.6782,
      "lon": 85.3465258,
      "timestamp": "2022-10-22T16:32:32Z",
      "version": 1,
      "changeset": 127929922,
      "user": "Nikita2057",
      "uid": 16601239,
      "tags": {
        "amenity": "pub",
        "name": "Tiktok Restaurant Bar and Live Music"
      }
    },
    {
      "type": "node",
      "id": 10121412581,
      "lat": 27.678104,
      "lon": 85.3464799,
      "timestamp": "2024-01-28T11:45:05Z",
      "version": 2,
      "changeset": 146775000,
      "user": "Gupta321",
      "uid": 16174600,
      "tags": {
        "amenity": "pub",
        "name": "देउराली क्याफे र रोधी घर",
        "name:en": "Deurali Cafe and Rodhi Ghar",
        "name:ne": "देउराली क्याफे र रोधी घर"
      }
    },
    {
      "type": "node",
      "id": 10121424618,
      "lat": 27.6804882,
      "lon": 85.3489816,
      "timestamp": "2022-10-22T16:32:32Z",
      "version": 1,
      "changeset": 127929922,
      "user": "Nikita2057",
      "uid": 16601239,
      "tags": {
        "amenity": "pub",
        "name": "Pacheuri Dohori Sajha"
      }
    },
    {
      "type": "node",
      "id": 10121523070,
      "lat": 27.6821983,
      "lon": 85.3490933,
      "timestamp": "2022-10-22T17:39:15Z",
      "version": 1,
      "changeset": 127932387,
      "user": "DIPA DEVKOTA",
      "uid": 16601287,
      "tags": {
        "amenity": "pub",
        "name": "Saalghari Rodhighar"
      }
    },
    {
      "type": "node",
      "id": 10182273417,
      "lat": 26.6537706,
      "lon": 87.7335333,
      "timestamp": "2022-11-14T09:20:17Z",
      "version": 1,
      "changeset": 128879975,
      "user": "Marta Roig Ferré",
      "uid": 9359055,
      "tags": {
        "amenity": "bar"
      }
    },
    {
      "type": "node",
      "id": 10183106517,
      "lat": 26.8114112,
      "lon": 86.973482,
      "timestamp": "2022-11-14T13:03:41Z",
      "version": 1,
      "changeset": 128890815,
      "user": "Marta Roig Ferré",
      "uid": 9359055,
      "tags": {
        "amenity": "bar"
      }
    },
    {
      "type": "node",
      "id": 10208828017,
      "lat": 27.6834685,
      "lon": 85.345912,
      "timestamp": "2022-11-22T05:32:03Z",
      "version": 1,
      "changeset": 129221462,
      "user": "Janak Raj",
      "uid": 3762630,
      "tags": {
        "amenity": "bar",
        "name:en": "Resunga Bhojanalaya"
      }
    },
    {
      "type": "node",
      "id": 10211206117,
      "lat": 27.9378732,
      "lon": 84.407106,
      "timestamp": "2022-11-23T05:13:33Z",
      "version": 1,
      "changeset": 129263251,
      "user": "Marta Roig Ferré",
      "uid": 9359055,
      "tags": {
        "amenity": "bar"
      }
    },
    {
      "type": "node",
      "id": 10213873617,
      "lat": 27.9375631,
      "lon": 84.4064653,
      "timestamp": "2022-11-24T08:42:37Z",
      "version": 1,
      "changeset": 129313105,
      "user": "Marta Roig Ferré",
      "uid": 9359055,
      "tags": {
        "amenity": "bar"
      }
    },
    {
      "type": "node",
      "id": 10224504992,
      "lat": 22.6439698,
      "lon": 88.4397853,
      "timestamp": "2022-11-28T22:16:36Z",
      "version": 1,
      "changeset": 129494309,
      "user": "Xvtn",
      "uid": 14249378,
      "tags": {
        "amenity": "bar",
        "name": "Ultra"
      }
    },
    {
      "type": "node",
      "id": 10225333319,
      "lat": 27.5824372,
      "lon": 89.8602494,
      "timestamp": "2022-11-29T10:05:58Z",
      "version": 2,
      "changeset": 129513384,
      "user": "Kezang Dorji Jr",
      "uid": 16530352,
      "tags": {
        "amenity": "bar",
        "name:en": "Tashi Jungney Grocery Shop",
        "phone": "17405799",
        "shop": "convenience"
      }
    },
    {
      "type": "node",
      "id": 10243720010,
      "lat": 27.0727767,
      "lon": 89.8790251,
      "timestamp": "2022-12-07T03:44:25Z",
      "version": 1,
      "changeset": 129804388,
      "user": "Carma Ongdue",
      "uid": 17900333,
      "tags": {
        "amenity": "bar"
      }
    },
    {
      "type": "node",
      "id": 10243727109,
      "lat": 27.0736501,
      "lon": 89.8801681,
      "timestamp": "2022-12-07T03:49:09Z",
      "version": 1,
      "changeset": 129804449,
      "user": "pema choeda",
      "uid": 17900386,
      "tags": {
        "amenity": "bar"
      }
    },
    {
      "type": "node",
      "id": 10244342632,
      "lat": 27.0742514,
      "lon": 89.8803958,
      "timestamp": "2022-12-07T11:20:23Z",
      "version": 1,
      "changeset": 129817667,
      "user": "Sonam Tshewang",
      "uid": 670875,
      "tags": {
        "amenity": "bar",
        "name": "Passang Bar Shop"
      }
    },
    {
      "type": "node",
      "id": 10246097710,
      "lat": 26.9575742,
      "lon": 89.9501257,
      "timestamp": "2022-12-08T06:40:04Z",
      "version": 1,
      "changeset": 129846939,
      "user": "Rinduk09",
      "uid": 17892566,
      "tags": {
        "addr:housenumber": "402",
        "addr:postcode": "975",
        "addr:street": "Balaygang zero",
        "amenity": "bar",
        "email": "r.drukpa1965@gmail.com",
        "opening_hours": "24/7",
        "phone": "77887109"
      }
    },
    {
      "type": "node",
      "id": 10275046711,
      "lat": 27.8626502,
      "lon": 83.5595791,
      "timestamp": "2022-12-20T07:59:46Z",
      "version": 1,
      "changeset": 130277850,
      "user": "Siddk",
      "uid": 11961418,
      "tags": {
        "amenity": "bar",
        "name:en": "odare ko khet"
      }
    },
    {
      "type": "node",
      "id": 10275046810,
      "lat": 27.8699977,
      "lon": 83.5524333,
      "timestamp": "2022-12-20T07:59:47Z",
      "version": 1,
      "changeset": 130277850,
      "user": "Siddk",
      "uid": 11961418,
      "tags": {
        "amenity": "bar",
        "name:en": "tansen ghar"
      }
    },
    {
      "type": "node",
      "id": 10314624202,
      "lat": 27.7051322,
      "lon": 84.3987136,
      "timestamp": "2023-01-08T12:31:34Z",
      "version": 1,
      "changeset": 131012403,
      "user": "Ayush2022",
      "uid": 17107374,
      "tags": {
        "amenity": "bar",
        "name": "swagatam restaurent & bar"
      }
    },
    {
      "type": "node",
      "id": 10316042409,
      "lat": 27.7108025,
      "lon": 85.3369343,
      "timestamp": "2023-01-09T03:57:42Z",
      "version": 1,
      "changeset": 131037275,
      "user": "srvbhattarai",
      "uid": 5084910,
      "tags": {
        "amenity": "pub",
        "name": "Maila's Bhatti"
      }
    },
    {
      "type": "node",
      "id": 10595327788,
      "lat": 27.4851378,
      "lon": 89.3292288,
      "timestamp": "2023-01-31T02:02:08Z",
      "version": 1,
      "changeset": 131902217,
      "user": "Sonam Tshewang",
      "uid": 670875,
      "tags": {
        "amenity": "bar",
        "name": "Wangmo General Shop & Bar",
        "phone": "17698171"
      }
    },
    {
      "type": "node",
      "id": 10601157005,
      "lat": 27.5028906,
      "lon": 89.3205184,
      "timestamp": "2023-02-02T12:09:44Z",
      "version": 1,
      "changeset": 132000593,
      "user": "Sonam Tshewang",
      "uid": 670875,
      "tags": {
        "amenity": "bar",
        "name:en": "Dupchu General Shop & Bar",
        "phone": "17934439"
      }
    },
    {
      "type": "node",
      "id": 10654444505,
      "lat": 27.6656977,
      "lon": 85.4067797,
      "timestamp": "2023-02-13T11:57:21Z",
      "version": 1,
      "changeset": 132486689,
      "user": "Amrit7",
      "uid": 8646315,
      "tags": {
        "amenity": "bar"
      }
    },
    {
      "type": "node",
      "id": 10727541306,
      "lat": 27.8565867,
      "lon": 84.8836403,
      "timestamp": "2023-03-11T12:24:27Z",
      "version": 1,
      "changeset": 133551420,
      "user": "Sujansh@4",
      "uid": 18340272,
      "tags": {
        "amenity": "pub",
        "name": "पोखरी टोल",
        "name:en": "Pokhari Tole"
      }
    },
    {
      "type": "node",
      "id": 10727613468,
      "lat": 22.1092787,
      "lon": 80.5706149,
      "timestamp": "2023-03-11T13:35:14Z",
      "version": 1,
      "changeset": 133553662,
      "user": "Biker69",
      "uid": 172099,
      "tags": {
        "amenity": "bar",
        "name": "Bhato Dhaba"
      }
    },
    {
      "type": "node",
      "id": 10727613469,
      "lat": 22.1100197,
      "lon": 80.5709413,
      "timestamp": "2023-03-11T13:35:14Z",
      "version": 1,
      "changeset": 133553662,
      "user": "Biker69",
      "uid": 172099,
      "tags": {
        "amenity": "bar",
        "name": "Apna Dhaba and Goldi Colddrink"
      }
    },
    {
      "type": "node",
      "id": 10727613470,
      "lat": 22.1102856,
      "lon": 80.5711936,
      "timestamp": "2023-03-11T13:35:14Z",
      "version": 1,
      "changeset": 133553662,
      "user": "Biker69",
      "uid": 172099,
      "tags": {
        "amenity": "bar",
        "name": "Shree dada jalpan grah"
      }
    },
    {
      "type": "node",
      "id": 10758274579,
      "lat": 27.8115796,
      "lon": 89.7308147,
      "timestamp": "2023-03-24T07:17:41Z",
      "version": 1,
      "changeset": 134051704,
      "user": "Namgay Wangchuk",
      "uid": 18757705,
      "tags": {
        "amenity": "bar",
        "name": "Lebgang Snooker and Bar"
      }
    },
    {
      "type": "node",
      "id": 10905641258,
      "lat": 24.9551889,
      "lon": 84.0089779,
      "timestamp": "2023-05-17T17:02:44Z",
      "version": 1,
      "changeset": 136221659,
      "user": "Deepak krr",
      "uid": 19205247,
      "tags": {
        "amenity": "bar"
      }
    },
    {
      "type": "node",
      "id": 10908382445,
      "lat": 24.9554432,
      "lon": 84.019213,
      "timestamp": "2023-05-18T13:52:50Z",
      "version": 1,
      "changeset": 136256724,
      "user": "Deepak krr",
      "uid": 19205247,
      "tags": {
        "amenity": "bar"
      }
    },
    {
      "type": "node",
      "id": 10961183608,
      "lat": 25.4500106,
      "lon": 81.7829731,
      "timestamp": "2023-06-07T08:41:29Z",
      "version": 1,
      "changeset": 137045915,
      "user": "Ayushkumar(cheeku)",
      "uid": 19285587,
      "tags": {
        "amenity": "bar"
      }
    },
    {
      "type": "node",
      "id": 10961183622,
      "lat": 25.4501374,
      "lon": 81.7841237,
      "timestamp": "2023-06-07T08:41:29Z",
      "version": 1,
      "changeset": 137045915,
      "user": "Ayushkumar(cheeku)",
      "uid": 19285587,
      "tags": {
        "amenity": "bar"
      }
    },
    {
      "type": "node",
      "id": 10961183632,
      "lat": 25.4501771,
      "lon": 81.7833058,
      "timestamp": "2023-06-07T08:41:29Z",
      "version": 1,
      "changeset": 137045915,
      "user": "Ayushkumar(cheeku)",
      "uid": 19285587,
      "tags": {
        "amenity": "bar"
      }
    },
    {
      "type": "node",
      "id": 10961183634,
      "lat": 25.4504691,
      "lon": 81.7838431,
      "timestamp": "2023-06-07T08:41:29Z",
      "version": 1,
      "changeset": 137045915,
      "user": "Ayushkumar(cheeku)",
      "uid": 19285587,
      "tags": {
        "amenity": "bar"
      }
    },
    {
      "type": "node",
      "id": 10961183635,
      "lat": 25.4501942,
      "lon": 81.7831611,
      "timestamp": "2023-06-07T08:41:29Z",
      "version": 1,
      "changeset": 137045915,
      "user": "Ayushkumar(cheeku)",
      "uid": 19285587,
      "tags": {
        "amenity": "bar"
      }
    },
    {
      "type": "node",
      "id": 10961183641,
      "lat": 25.4497965,
      "lon": 81.7844156,
      "timestamp": "2023-06-07T08:41:29Z",
      "version": 1,
      "changeset": 137045915,
      "user": "Ayushkumar(cheeku)",
      "uid": 19285587,
      "tags": {
        "amenity": "bar"
      }
    },
    {
      "type": "node",
      "id": 11193907266,
      "lat": 27.7161034,
      "lon": 85.3124828,
      "timestamp": "2023-09-15T15:14:13Z",
      "version": 1,
      "changeset": 141307843,
      "user": "osmuser63783",
      "uid": 14047157,
      "tags": {
        "amenity": "bar",
        "brewery": "yes",
        "check_date": "2023-09-13",
        "contact:facebook": "https://www.facebook.com/beerdhara",
        "fixme": "location approximate",
        "name": "Beer Dhara"
      }
    },
    {
      "type": "node",
      "id": 11371023377,
      "lat": 27.7208906,
      "lon": 85.3200083,
      "timestamp": "2023-11-23T12:08:16Z",
      "version": 1,
      "changeset": 144366745,
      "user": "sagarawrz07",
      "uid": 4831756,
      "tags": {
        "amenity": "bar",
        "name": "Tier Bar"
      }
    },
    {
      "type": "node",
      "id": 11454990570,
      "lat": 27.6738196,
      "lon": 85.3215062,
      "timestamp": "2023-12-26T06:12:28Z",
      "version": 1,
      "changeset": 145520040,
      "user": "Psychobaba",
      "uid": 9453214,
      "tags": {
        "addr:street": "pulchowk to mangalbazar road",
        "amenity": "bar",
        "name:en": "Kumari party palace"
      }
    },
    {
      "type": "node",
      "id": 11455002469,
      "lat": 27.6933572,
      "lon": 85.3437289,
      "timestamp": "2023-12-26T06:12:30Z",
      "version": 1,
      "changeset": 145520040,
      "user": "Psychobaba",
      "uid": 9453214,
      "tags": {
        "amenity": "bar",
        "name:en": "Aananda party palace"
      }
    },
    {
      "type": "node",
      "id": 11586040918,
      "lat": 26.8627939,
      "lon": 89.3815134,
      "timestamp": "2024-02-05T04:52:50Z",
      "version": 1,
      "changeset": 147077869,
      "user": "Sonam Tshewang",
      "uid": 670875,
      "tags": {
        "amenity": "bar",
        "name": "Daerol Deki Restaurant and Bar"
      }
    },
    {
      "type": "node",
      "id": 11619350869,
      "lat": 20.3519625,
      "lon": 85.8255643,
      "timestamp": "2024-02-13T18:19:46Z",
      "version": 1,
      "changeset": 147420890,
      "user": "achim91",
      "uid": 169259,
      "tags": {
        "amenity": "bar",
        "name": "Kegs & Barrels Brewing Co"
      }
    },
    {
      "type": "node",
      "id": 11675135008,
      "lat": 25.2616635,
      "lon": 82.9814225,
      "timestamp": "2024-03-06T19:09:06Z",
      "version": 2,
      "changeset": 148311172,
      "user": "Ritwik Patnaik",
      "uid": 21119324,
      "tags": {
        "amenity": "bar"
      }
    },
    {
      "type": "node",
      "id": 11691490325,
      "lat": 26.1071621,
      "lon": 85.3903381,
      "timestamp": "2024-03-04T18:02:03Z",
      "version": 1,
      "changeset": 148219265,
      "user": "HARSH RAJ IIT BHU",
      "uid": 21119345,
      "tags": {
        "amenity": "bar"
      }
    },
    {
      "type": "node",
      "id": 11691507619,
      "lat": 26.1161312,
      "lon": 85.3791585,
      "timestamp": "2024-03-04T18:14:50Z",
      "version": 1,
      "changeset": 148219892,
      "user": "HARSH RAJ IIT BHU",
      "uid": 21119345,
      "tags": {
        "amenity": "bar",
        "name": "onn"
      }
    },
    {
      "type": "node",
      "id": 11691560793,
      "lat": 26.1106234,
      "lon": 85.3858408,
      "timestamp": "2024-03-04T18:32:49Z",
      "version": 1,
      "changeset": 148220638,
      "user": "HARSH RAJ IIT BHU",
      "uid": 21119345,
      "tags": {
        "amenity": "bar"
      }
    },
    {
      "type": "node",
      "id": 11698159197,
      "lat": 26.7996364,
      "lon": 82.7344211,
      "timestamp": "2024-03-06T17:25:59Z",
      "version": 1,
      "changeset": 148306681,
      "user": "Shivendra srivastav",
      "uid": 21119343,
      "tags": {
        "amenity": "bar",
        "name": "Kings Beer Bar"
      }
    },
    {
      "type": "node",
      "id": 11698598247,
      "lat": 25.2614529,
      "lon": 82.9906851,
      "timestamp": "2024-03-06T19:29:13Z",
      "version": 1,
      "changeset": 148311865,
      "user": "Ashish Anand IIT BHU",
      "uid": 21119377,
      "tags": {
        "amenity": "bar",
        "name": "CHEM DEPT BAR"
      }
    },
    {
      "type": "node",
      "id": 11703487480,
      "lat": 27.6968635,
      "lon": 85.3317586,
      "timestamp": "2024-03-08T08:19:12Z",
      "version": 2,
      "changeset": 148372032,
      "user": "Harkeop",
      "uid": 21181527,
      "tags": {
        "amenity": "bar",
        "name:en": "Bhumafia Chamling ko Ghar"
      }
    },
    {
      "type": "node",
      "id": 11727900532,
      "lat": 26.098204,
      "lon": 87.962916,
      "timestamp": "2024-03-13T16:35:40Z",
      "version": 1,
      "changeset": 148602847,
      "user": "yash kumar saha",
      "uid": 21200468,
      "tags": {
        "amenity": "bar"
      }
    },
    {
      "type": "node",
      "id": 11727903030,
      "lat": 26.1036807,
      "lon": 87.9575506,
      "timestamp": "2024-03-13T16:04:09Z",
      "version": 1,
      "changeset": 148601335,
      "user": "yash kumar saha",
      "uid": 21200468,
      "tags": {
        "amenity": "bar"
      }
    },
    {
      "type": "node",
      "id": 11727903032,
      "lat": 26.1035187,
      "lon": 87.9577703,
      "timestamp": "2024-03-13T16:04:09Z",
      "version": 1,
      "changeset": 148601335,
      "user": "yash kumar saha",
      "uid": 21200468,
      "tags": {
        "amenity": "bar"
      }
    },
    {
      "type": "node",
      "id": 11733948383,
      "lat": 27.8941006,
      "lon": 86.8198439,
      "timestamp": "2024-03-15T12:23:57Z",
      "version": 1,
      "changeset": 148685813,
      "user": "BaboucheVerte",
      "uid": 6296343,
      "tags": {
        "amenity": "pub",
        "name": "Pheriche Snooker house",
        "sport": "snooker"
      }
    },
    {
      "type": "node",
      "id": 11738199848,
      "lat": 27.8222447,
      "lon": 86.7172861,
      "timestamp": "2024-03-17T04:56:00Z",
      "version": 1,
      "changeset": 148757613,
      "user": "BaboucheVerte",
      "uid": 6296343,
      "tags": {
        "amenity": "pub",
        "name": "Khumjung snooker house",
        "sport": "snooker"
      }
    },
    {
      "type": "node",
      "id": 11812281752,
      "lat": 28.2198579,
      "lon": 83.958966,
      "timestamp": "2024-04-12T17:33:47Z",
      "version": 1,
      "changeset": 149921884,
      "user": "Matti Schneider",
      "uid": 520233,
      "tags": {
        "amenity": "bar",
        "name": "Movie Garden"
      }
    },
    {
      "type": "node",
      "id": 11921554390,
      "lat": 25.4510259,
      "lon": 81.8318108,
      "timestamp": "2024-05-21T06:35:40Z",
      "version": 1,
      "changeset": 151611447,
      "user": "bacteriostat",
      "uid": 13806135,
      "tags": {
        "amenity": "bar"
      }
    },
    {
      "type": "node",
      "id": 11921720869,
      "lat": 27.4777011,
      "lon": 89.6383399,
      "timestamp": "2024-05-21T08:29:32Z",
      "version": 1,
      "changeset": 151615857,
      "user": "Kezang Dorji Urban Planner",
      "uid": 4427436,
      "tags": {
        "amenity": "bar",
        "name:en": "Ara Cocktails"
      }
    },
    {
      "type": "node",
      "id": 11922048971,
      "lat": 27.4720397,
      "lon": 89.6386735,
      "timestamp": "2024-05-21T11:21:58Z",
      "version": 1,
      "changeset": 151623274,
      "user": "Yeedenld",
      "uid": 21549781,
      "tags": {
        "amenity": "pub",
        "name": "K-MSS PUBB"
      }
    },
    {
      "type": "node",
      "id": 11922564272,
      "lat": 27.4707984,
      "lon": 89.6382202,
      "timestamp": "2024-05-21T15:19:48Z",
      "version": 1,
      "changeset": 151634214,
      "user": "Yeedenld",
      "uid": 21549781,
      "tags": {
        "amenity": "bar",
        "name": "Urban City Karaoke"
      }
    },
    {
      "type": "node",
      "id": 11924092869,
      "lat": 27.4717054,
      "lon": 89.6398034,
      "timestamp": "2024-05-22T02:48:12Z",
      "version": 1,
      "changeset": 151653746,
      "user": "Ariti Rai",
      "uid": 21549784,
      "tags": {
        "addr:housenumber": "1",
        "addr:street": "Norzin Zur Lam 35 Khaa SE",
        "amenity": "bar",
        "name": "Old factory"
      }
    },
    {
      "type": "node",
      "id": 11925912569,
      "lat": 27.4722971,
      "lon": 89.6388839,
      "timestamp": "2024-05-22T14:26:56Z",
      "version": 1,
      "changeset": 151679488,
      "user": "Tpema",
      "uid": 21549869,
      "tags": {
        "amenity": "bar",
        "name": "Hubs Bar"
      }
    },
    {
      "type": "node",
      "id": 11930633970,
      "lat": 27.4713894,
      "lon": 89.6377645,
      "timestamp": "2024-05-24T13:13:33Z",
      "version": 1,
      "changeset": 151769425,
      "user": "Jigdrel",
      "uid": 21549783,
      "tags": {
        "amenity": "bar",
        "name": "Naughty pigs"
      }
    },
    {
      "type": "node",
      "id": 11930964469,
      "lat": 27.4719607,
      "lon": 89.6387357,
      "timestamp": "2024-05-24T15:24:00Z",
      "version": 1,
      "changeset": 151776088,
      "user": "Tpema",
      "uid": 21549869,
      "tags": {
        "amenity": "pub",
        "name": "K-Miss Pubb"
      }
    },
    {
      "type": "node",
      "id": 11930986469,
      "lat": 27.4721137,
      "lon": 89.6382436,
      "timestamp": "2024-05-26T02:12:01Z",
      "version": 2,
      "changeset": 151833290,
      "user": "Sheyden",
      "uid": 21549756,
      "tags": {
        "amenity": "bar",
        "contact:instagram": "kbody_shop",
        "name": "k body shop",
        "phone": "17367846",
        "shop": "cosmetics"
      }
    },
    {
      "type": "node",
      "id": 11932212869,
      "lat": 27.4705015,
      "lon": 89.6401671,
      "timestamp": "2024-05-25T04:36:27Z",
      "version": 1,
      "changeset": 151794053,
      "user": "Tpema",
      "uid": 21549869,
      "tags": {
        "amenity": "bar",
        "name": "Shambala (Lounge & Bar)"
      }
    },
    {
      "type": "node",
      "id": 11932780573,
      "lat": 27.4688055,
      "lon": 89.6404241,
      "timestamp": "2024-05-25T10:51:30Z",
      "version": 1,
      "changeset": 151805217,
      "user": "TschendaR",
      "uid": 21549775,
      "tags": {
        "addr:postcode": "11001",
        "amenity": "bar",
        "name": "Hitokara Lounge & Bar",
        "opening_hours": "Mo-Su 11:00-00:00"
      }
    },
    {
      "type": "node",
      "id": 11932830569,
      "lat": 27.4285391,
      "lon": 89.4138879,
      "timestamp": "2024-05-25T11:20:47Z",
      "version": 1,
      "changeset": 151806228,
      "user": "Tandin Zam",
      "uid": 21549764,
      "tags": {
        "amenity": "pub",
        "name": "Oppa’s Pub and Bar"
      }
    },
    {
      "type": "node",
      "id": 11933012271,
      "lat": 27.386041,
      "lon": 89.4474064,
      "timestamp": "2024-05-25T12:49:25Z",
      "version": 1,
      "changeset": 151809988,
      "user": "Tandin Zam",
      "uid": 21549764,
      "tags": {
        "amenity": "bar",
        "name": "Lhawang Bar"
      }
    },
    {
      "type": "node",
      "id": 11933146270,
      "lat": 27.471229,
      "lon": 89.6373535,
      "timestamp": "2024-05-25T14:24:49Z",
      "version": 1,
      "changeset": 151814260,
      "user": "Ngawang D",
      "uid": 21549814,
      "tags": {
        "amenity": "bar",
        "name": "The Basement"
      }
    },
    {
      "type": "node",
      "id": 11933305869,
      "lat": 27.4323343,
      "lon": 89.6506816,
      "timestamp": "2024-05-25T15:46:55Z",
      "version": 1,
      "changeset": 151817459,
      "user": "Tpema",
      "uid": 21549869,
      "tags": {
        "amenity": "bar",
        "name": "RED CARD ( SPORTS BAR)"
      }
    },
    {
      "type": "node",
      "id": 11934112369,
      "lat": 27.4721804,
      "lon": 89.6382229,
      "timestamp": "2024-05-26T02:10:33Z",
      "version": 1,
      "changeset": 151833275,
      "user": "Sheyden",
      "uid": 21549756,
      "tags": {
        "amenity": "bar",
        "contact:instagram": "the_black_sheep_restro_bar",
        "phone": "17 36 78 46"
      }
    },
    {
      "type": "node",
      "id": 11934120069,
      "lat": 27.4617867,
      "lon": 89.6444701,
      "timestamp": "2024-05-26T02:26:24Z",
      "version": 1,
      "changeset": 151833434,
      "user": "Sheyden",
      "uid": 21549756,
      "tags": {
        "addr:street": "Zamtok Lam SE",
        "amenity": "bar",
        "contact:instagram": "urbandumra",
        "name": "Urban Dumra"
      }
    },
    {
      "type": "node",
      "id": 11934386569,
      "lat": 27.468211,
      "lon": 89.6402118,
      "timestamp": "2024-05-26T06:52:36Z",
      "version": 1,
      "changeset": 151837779,
      "user": "Tpema",
      "uid": 21549869,
      "tags": {
        "amenity": "bar",
        "name": "House of Beverages Bhutan HOBS Bar"
      }
    },
    {
      "type": "node",
      "id": 11934479169,
      "lat": 27.4756816,
      "lon": 89.6366396,
      "timestamp": "2024-05-26T07:50:45Z",
      "version": 1,
      "changeset": 151839411,
      "user": "Tpema",
      "uid": 21549869,
      "tags": {
        "amenity": "bar",
        "name": "Real illusion",
        "phone": "77113300"
      }
    },
    {
      "type": "node",
      "id": 11934578069,
      "lat": 27.4751088,
      "lon": 89.6362533,
      "timestamp": "2024-05-26T08:59:54Z",
      "version": 1,
      "changeset": 151841477,
      "user": "Tpema",
      "uid": 21549869,
      "tags": {
        "amenity": "pub",
        "name": "The Spot Karaoke"
      }
    },
    {
      "type": "node",
      "id": 11934594269,
      "lat": 27.4711682,
      "lon": 89.6370643,
      "timestamp": "2024-05-26T09:14:33Z",
      "version": 1,
      "changeset": 151841969,
      "user": "Tpema",
      "uid": 21549869,
      "tags": {
        "amenity": "pub",
        "name": "Sing Sing Karaoke"
      }
    },
    {
      "type": "node",
      "id": 11934597969,
      "lat": 27.47128,
      "lon": 89.6373185,
      "timestamp": "2024-05-26T09:18:30Z",
      "version": 1,
      "changeset": 151842084,
      "user": "Tpema",
      "uid": 21549869,
      "tags": {
        "amenity": "bar",
        "name": "The Basement"
      }
    },
    {
      "type": "node",
      "id": 11934681973,
      "lat": 27.5141958,
      "lon": 89.8680704,
      "timestamp": "2024-05-26T10:24:45Z",
      "version": 1,
      "changeset": 151844470,
      "user": "TschendaR",
      "uid": 21549775,
      "tags": {
        "addr:street": "Misina - Punakha Highway",
        "amenity": "bar",
        "name": "Kanchi Snooker",
        "opening_hours": "Mo-Su 09:00-00:00"
      }
    },
    {
      "type": "node",
      "id": 11934682470,
      "lat": 27.5138684,
      "lon": 89.8677345,
      "timestamp": "2024-05-26T10:25:01Z",
      "version": 1,
      "changeset": 151844470,
      "user": "TschendaR",
      "uid": 21549775,
      "tags": {
        "addr:street": "Misina - Punakha Highway",
        "amenity": "bar",
        "name": "TJ Snooker",
        "opening_hours": "Mo-Su 09:00-18:00"
      }
    },
    {
      "type": "node",
      "id": 11934682869,
      "lat": 27.5143232,
      "lon": 89.8680724,
      "timestamp": "2024-05-26T10:24:48Z",
      "version": 1,
      "changeset": 151844470,
      "user": "TschendaR",
      "uid": 21549775,
      "tags": {
        "addr:street": "Misina - Punakha Highway",
        "amenity": "bar",
        "name": "Silent Killer Restaurant",
        "opening_hours": "Mo-Su 09:00-00:00"
      }
    },
    {
      "type": "node",
      "id": 11934683071,
      "lat": 27.5142723,
      "lon": 89.8679721,
      "timestamp": "2024-05-26T10:25:22Z",
      "version": 1,
      "changeset": 151844470,
      "user": "TschendaR",
      "uid": 21549775,
      "tags": {
        "addr:street": "Misina - Punakha Highway",
        "amenity": "bar",
        "name": "Chithuen Karaoke",
        "opening_hours": "24/7"
      }
    },
    {
      "type": "node",
      "id": 11934931369,
      "lat": 27.4581257,
      "lon": 89.6468424,
      "timestamp": "2024-05-26T13:06:10Z",
      "version": 1,
      "changeset": 151850810,
      "user": "Tpema",
      "uid": 21549869,
      "tags": {
        "amenity": "bar",
        "name": "Red Room Restaurant",
        "phone": "77381766"
      }
    },
    {
      "type": "node",
      "id": 11934995474,
      "lat": 27.4689065,
      "lon": 89.6404131,
      "timestamp": "2024-05-26T14:06:12Z",
      "version": 1,
      "changeset": 151854167,
      "user": "Tpema",
      "uid": 21549869,
      "tags": {
        "amenity": "pub",
        "name": "Hitokara Lounge & Bar"
      }
    },
    {
      "type": "node",
      "id": 11934997170,
      "lat": 27.4712773,
      "lon": 89.6372958,
      "timestamp": "2024-05-26T13:58:35Z",
      "version": 1,
      "changeset": 151853877,
      "user": "Jigdrel",
      "uid": 21549783,
      "tags": {
        "amenity": "bar",
        "name": "The Basement"
      }
    },
    {
      "type": "node",
      "id": 11935019270,
      "lat": 27.4618009,
      "lon": 89.6444998,
      "timestamp": "2024-06-02T08:39:50Z",
      "version": 2,
      "changeset": 152149603,
      "user": "b-jazz-bot",
      "uid": 9451067,
      "tags": {
        "amenity": "bar",
        "name": "Urban Dumra",
        "phone": "77282539",
        "website": "https://urbandumra.com/"
      }
    },
    {
      "type": "node",
      "id": 11936665269,
      "lat": 27.4526917,
      "lon": 89.6588763,
      "timestamp": "2024-05-27T08:52:59Z",
      "version": 1,
      "changeset": 151887000,
      "user": "Tpema",
      "uid": 21549869,
      "tags": {
        "amenity": "bar",
        "name": "The Garuda Bar"
      }
    },
    {
      "type": "node",
      "id": 11937141069,
      "lat": 27.4290299,
      "lon": 89.4138328,
      "timestamp": "2024-05-27T13:08:33Z",
      "version": 1,
      "changeset": 151898847,
      "user": "Tandin Zam",
      "uid": 21549764,
      "tags": {
        "amenity": "bar",
        "name": "Park 76"
      }
    },
    {
      "type": "node",
      "id": 11940082312,
      "lat": 27.3296162,
      "lon": 88.6125825,
      "timestamp": "2024-05-28T16:32:50Z",
      "version": 1,
      "changeset": 151953728,
      "user": "Dilcharan",
      "uid": 20671681,
      "tags": {
        "amenity": "bar",
        "name": "New Bar & Restaurant"
      }
    },
    {
      "type": "node",
      "id": 11944703221,
      "lat": 27.3273805,
      "lon": 88.6126971,
      "timestamp": "2025-10-01T15:01:12Z",
      "version": 3,
      "changeset": 172710950,
      "user": "François Bronchart",
      "uid": 8642829,
      "tags": {
        "amenity": "bar",
        "name": "Maach & Macha"
      }
    },
    {
      "type": "node",
      "id": 12003203670,
      "lat": 27.4713223,
      "lon": 89.6399428,
      "timestamp": "2024-06-23T13:44:02Z",
      "version": 1,
      "changeset": 153068650,
      "user": "Kezang Dorji Urban Planner",
      "uid": 4427436,
      "tags": {
        "amenity": "bar",
        "name": "Mojo Park"
      }
    },
    {
      "type": "node",
      "id": 12039492516,
      "lat": 28.7639407,
      "lon": 83.7178595,
      "timestamp": "2024-07-07T10:05:34Z",
      "version": 1,
      "changeset": 153654572,
      "user": "jean-ray2",
      "uid": 11285694,
      "tags": {
        "amenity": "bar"
      }
    },
    {
      "type": "node",
      "id": 12465388541,
      "lat": 22.5449354,
      "lon": 88.3479409,
      "timestamp": "2024-12-31T14:10:25Z",
      "version": 1,
      "changeset": 160834370,
      "user": "4b3eff",
      "uid": 14349548,
      "tags": {
        "amenity": "pub",
        "name": "Hashtag",
        "website": "https://hashtagpub.in"
      }
    },
    {
      "type": "node",
      "id": 12595904010,
      "lat": 24.8131578,
      "lon": 85.0244769,
      "timestamp": "2025-02-17T14:26:21Z",
      "version": 1,
      "changeset": 162615453,
      "user": "rajkr3924",
      "uid": 22457315,
      "tags": {
        "amenity": "bar",
        "name": "Cold bar"
      }
    },
    {
      "type": "node",
      "id": 12596131814,
      "lat": 25.6410551,
      "lon": 85.1022084,
      "timestamp": "2025-02-17T16:41:15Z",
      "version": 1,
      "changeset": 162621844,
      "user": "Ketan KUMAR",
      "uid": 22457340,
      "tags": {
        "amenity": "bar",
        "name": "Desi Sharab Ki Dukaan"
      }
    },
    {
      "type": "node",
      "id": 12596322105,
      "lat": 24.5430235,
      "lon": 81.2729711,
      "timestamp": "2025-02-17T18:32:18Z",
      "version": 1,
      "changeset": 162628494,
      "user": "SahilSingh_007",
      "uid": 22457302,
      "tags": {
        "amenity": "bar",
        "name": "Imperial Blue Bar"
      }
    },
    {
      "type": "node",
      "id": 12596478380,
      "lat": 25.6172854,
      "lon": 85.0587385,
      "timestamp": "2025-02-17T20:27:53Z",
      "version": 1,
      "changeset": 162633892,
      "user": "pranjal_iitbhu",
      "uid": 22457272,
      "tags": {
        "amenity": "bar"
      }
    },
    {
      "type": "node",
      "id": 12596487782,
      "lat": 25.6256052,
      "lon": 85.0531706,
      "timestamp": "2025-02-17T20:16:53Z",
      "version": 1,
      "changeset": 162633484,
      "user": "pranjal_iitbhu",
      "uid": 22457272,
      "tags": {
        "amenity": "bar",
        "name": "hotel dream in"
      }
    },
    {
      "type": "node",
      "id": 12839948987,
      "lat": 28.2543462,
      "lon": 84.3710731,
      "timestamp": "2025-05-15T12:50:58Z",
      "version": 1,
      "changeset": 166303405,
      "user": "BaboucheVerte",
      "uid": 6296343,
      "tags": {
        "amenity": "pub",
        "name": "Bamboo Kitchen & Bar"
      }
    },
    {
      "type": "node",
      "id": 12876569727,
      "lat": 28.2100844,
      "lon": 83.9560651,
      "timestamp": "2025-05-31T06:46:12Z",
      "version": 1,
      "changeset": 166998662,
      "user": "BaboucheVerte",
      "uid": 6296343,
      "tags": {
        "amenity": "pub",
        "name": "Flamingo"
      }
    },
    {
      "type": "node",
      "id": 13026662870,
      "lat": 26.5271119,
      "lon": 88.7192646,
      "timestamp": "2025-10-07T15:28:29Z",
      "version": 3,
      "changeset": 172965002,
      "user": "NLBRT",
      "uid": 18152274,
      "tags": {
        "addr:floor": "4",
        "air_conditioning": "no",
        "amenity": "bar",
        "brewery": "various",
        "check_date": "2025-10-07",
        "level": "4",
        "min_age": "21",
        "name": "The Roof Top",
        "name:bn": "দ্য রুফ টপ",
        "outdoor_seating": "yes",
        "payment:cash": "yes",
        "payment:credit_cards": "yes",
        "payment:debit_cards": "yes",
        "wheelchair": "no"
      }
    },
    {
      "type": "node",
      "id": 13028181175,
      "lat": 26.7164375,
      "lon": 88.4219523,
      "timestamp": "2025-07-27T17:51:28Z",
      "version": 2,
      "changeset": 169572593,
      "user": "NLBRT",
      "uid": 18152274,
      "tags": {
        "addr:floor": "3",
        "amenity": "bar",
        "check_date": "2025-07-27",
        "internet_access": "wlan",
        "internet_access:fee": "customers",
        "min_age": "21",
        "name": "Friday",
        "wheelchair": "no"
      }
    },
    {
      "type": "node",
      "id": 13108512476,
      "lat": 26.8738275,
      "lon": 80.9571828,
      "timestamp": "2025-08-30T10:42:21Z",
      "version": 1,
      "changeset": 171220796,
      "user": "niyabits",
      "uid": 22748606,
      "tags": {
        "amenity": "bar",
        "level": "2",
        "name": "Pink Panther Bar"
      }
    },
    {
      "type": "node",
      "id": 13147710734,
      "lat": 23.3249309,
      "lon": 85.3096358,
      "timestamp": "2025-09-16T16:19:34Z",
      "version": 1,
      "changeset": 172024409,
      "user": "Prakash Baski",
      "uid": 12078020,
      "tags": {
        "amenity": "bar",
        "name": "TEN 11"
      }
    },
    {
      "type": "node",
      "id": 13239145985,
      "lat": 22.9275417,
      "lon": 88.2669258,
      "timestamp": "2025-10-17T14:35:16Z",
      "version": 1,
      "changeset": 173414229,
      "user": "NLBRT",
      "uid": 18152274,
      "tags": {
        "amenity": "bar"
      }
    },
    {
      "type": "way",
      "id": 178915318,
      "timestamp": "2015-09-04T12:33:18Z",
      "version": 5,
      "changeset": 33793023,
      "user": "Emcoe",
      "uid": 2175648,
      "center": {
        "lat": 27.6771014,
        "lon": 85.3099251
      },
      "nodes": [
        1892722608,
        1892722606,
        1892722614,
        1892722618,
        3654538211,
        3654538212,
        1892722608
      ],
      "tags": {
        "amenity": "bar",
        "building": "yes",
        "name": "The Blue Room Restro Lounge"
      }
    },
    {
      "type": "way",
      "id": 190954726,
      "timestamp": "2012-11-15T18:36:38Z",
      "version": 1,
      "changeset": 13885948,
      "user": "Ryan Sommerville",
      "uid": 866103,
      "center": {
        "lat": 27.7251914,
        "lon": 85.3313629
      },
      "nodes": [
        2015437524,
        2015437517,
        2015437506,
        2015437518,
        2015437524
      ],
      "tags": {
        "amenity": "pub",
        "name": "White Horse Wine Coffee Bar"
      }
    },
    {
      "type": "way",
      "id": 192307569,
      "timestamp": "2012-11-23T19:17:15Z",
      "version": 1,
      "changeset": 14003316,
      "user": "BipinSapkota",
      "uid": 1077614,
      "center": {
        "lat": 27.6909276,
        "lon": 85.3407324
      },
      "nodes": [
        2028653838,
        2028653835,
        2028653830,
        2028653828,
        2028653832,
        2028653841,
        2028653854,
        2028653850,
        2028653838
      ],
      "tags": {
        "amenity": "biergarten",
        "internet_access": "no",
        "name": "a-la-carte",
        "smoking": "yes",
        "website": "www.alacarte.com"
      }
    },
    {
      "type": "way",
      "id": 203572752,
      "timestamp": "2023-05-26T14:28:59Z",
      "version": 6,
      "changeset": 136590409,
      "user": "woolfesss",
      "uid": 16738479,
      "center": {
        "lat": 27.7182306,
        "lon": 85.3175258
      },
      "nodes": [
        2135830214,
        5338311569,
        2135830193,
        2135830197,
        5338311561,
        5338311562,
        5338311565,
        5338311568,
        2135830214
      ],
      "tags": {
        "amenity": "pub",
        "building": "yes",
        "indoor_seating": "yes",
        "name": "Irish Pub",
        "outdoor_seating": "yes"
      }
    },
    {
      "type": "way",
      "id": 204881928,
      "timestamp": "2023-10-25T03:42:29Z",
      "version": 6,
      "changeset": 143091988,
      "user": "Necessarycoot72",
      "uid": 10882995,
      "center": {
        "lat": 27.7190748,
        "lon": 85.3204062
      },
      "nodes": [
        2148629476,
        2148629472,
        2148629471,
        2148629469,
        2148629470,
        2148629474,
        2148629473,
        2148629475,
        2148629476
      ],
      "tags": {
        "amenity": "bar",
        "building": "yes",
        "name": "Attic Bar",
        "website": "http://www.attic.com.np/"
      }
    },
    {
      "type": "way",
      "id": 275429338,
      "timestamp": "2025-08-28T10:03:54Z",
      "version": 9,
      "changeset": 171124837,
      "user": "François Bronchart",
      "uid": 8642829,
      "center": {
        "lat": 28.8164492,
        "lon": 83.8649937
      },
      "nodes": [
        10831510184,
        2800555976,
        2800555970,
        2800555971,
        2800555958,
        2800555961,
        10831510184
      ],
      "tags": {
        "air_conditioning": "no",
        "amenity": "pub",
        "building": "yes",
        "check_date": "2025-08-28",
        "indoor_seating": "yes",
        "name": "Reggae Freedom Cafe",
        "outdoor_seating": "no",
        "smoking": "outside",
        "wheelchair": "limited"
      }
    },
    {
      "type": "way",
      "id": 309007217,
      "timestamp": "2014-10-22T05:42:45Z",
      "version": 1,
      "changeset": 26248532,
      "user": "kdgis",
      "uid": 2273475,
      "center": {
        "lat": 26.6221164,
        "lon": 87.9886202
      },
      "nodes": [
        3143215627,
        3143215628,
        3143216329,
        3143216330,
        3143215627
      ],
      "tags": {
        "amenity": "bar",
        "building": "yes",
        "name": "kuldeep bar"
      }
    },
    {
      "type": "way",
      "id": 319371363,
      "timestamp": "2018-11-08T15:47:17Z",
      "version": 2,
      "changeset": 64296822,
      "user": "Insensitive_Clod",
      "uid": 8395734,
      "center": {
        "lat": 27.7614036,
        "lon": 86.7156535
      },
      "nodes": [
        3257841013,
        3257841014,
        3257841015,
        3257841016,
        3257841013
      ],
      "tags": {
        "amenity": "bar",
        "amenity_1": "restaurant",
        "building": "yes",
        "name": "New Restaurant & Bar Banker Solokumbu"
      }
    },
    {
      "type": "way",
      "id": 358886893,
      "timestamp": "2017-08-17T17:26:19Z",
      "version": 2,
      "changeset": 51211614,
      "user": "Pradeep Jha",
      "uid": 6396128,
      "center": {
        "lat": 22.5682289,
        "lon": 88.4344684
      },
      "nodes": [
        3637084064,
        3637084084,
        3637084075,
        3637084056,
        3637084064
      ],
      "tags": {
        "amenity": "bar",
        "building": "yes",
        "name": "Opium"
      }
    },
    {
      "type": "way",
      "id": 423531153,
      "timestamp": "2017-02-17T09:13:25Z",
      "version": 2,
      "changeset": 46158960,
      "user": "Daman Neupane",
      "uid": 3480991,
      "center": {
        "lat": 28.2145626,
        "lon": 83.9587145
      },
      "nodes": [
        4231237355,
        4690172248,
        4231237356,
        4231237354,
        4231237353,
        4231237355
      ],
      "tags": {
        "amenity": "pub",
        "building": "yes",
        "name": "Happy Belly"
      }
    },
    {
      "type": "way",
      "id": 434783106,
      "timestamp": "2022-11-08T17:14:07Z",
      "version": 4,
      "changeset": 128650376,
      "user": "seichter",
      "uid": 66497,
      "center": {
        "lat": 27.4775603,
        "lon": 89.6372291
      },
      "nodes": [
        4327084120,
        4327084085,
        4327084092,
        4327084126,
        4327084128,
        4327084150,
        4327084144,
        4327084123,
        4327084120
      ],
      "tags": {
        "addr:city": "Thimphu",
        "addr:housenumber": "142",
        "addr:place": "Chhubachhu",
        "addr:postcode": "11001",
        "addr:street": "Thagzo Lam SE",
        "amenity": "pub",
        "building": "yes",
        "name": "142 Thagzo Lam SE, Norzin, Thimphu",
        "source": "www.thimphucity.bt;fieldwork"
      }
    },
    {
      "type": "way",
      "id": 441111031,
      "timestamp": "2023-04-05T14:14:53Z",
      "version": 3,
      "changeset": 134541114,
      "user": "mikko_tamura",
      "uid": 2258022,
      "center": {
        "lat": 27.9070322,
        "lon": 89.731746
      },
      "nodes": [
        5241874313,
        4388716206,
        9029168725,
        9029168726,
        4388716207,
        4388716208,
        5241874313
      ],
      "tags": {
        "amenity": "bar",
        "building": "commercial",
        "name": "Tinley Shop Cum Bar",
        "shop": "convenience"
      }
    },
    {
      "type": "way",
      "id": 441111033,
      "timestamp": "2023-04-05T14:14:53Z",
      "version": 2,
      "changeset": 134541114,
      "user": "mikko_tamura",
      "uid": 2258022,
      "center": {
        "lat": 27.9067565,
        "lon": 89.7317007
      },
      "nodes": [
        5240250459,
        4388716214,
        4388716215,
        4388716216,
        5240250459
      ],
      "tags": {
        "amenity": "bar",
        "building": "commercial",
        "name": "Dena General Shop Cum Bar"
      }
    },
    {
      "type": "way",
      "id": 441111035,
      "timestamp": "2023-04-05T14:14:53Z",
      "version": 2,
      "changeset": 134541114,
      "user": "mikko_tamura",
      "uid": 2258022,
      "center": {
        "lat": 27.9071138,
        "lon": 89.7312843
      },
      "nodes": [
        5241874317,
        4388716237,
        4388716238,
        4388716239,
        5241874317
      ],
      "tags": {
        "amenity": "bar",
        "building": "commercial",
        "name": "Penjor Shop Cum Bar",
        "shop": "convenience"
      }
    },
    {
      "type": "way",
      "id": 441111036,
      "timestamp": "2023-04-05T14:14:53Z",
      "version": 2,
      "changeset": 134541114,
      "user": "mikko_tamura",
      "uid": 2258022,
      "center": {
        "lat": 27.9072074,
        "lon": 89.7313031
      },
      "nodes": [
        5241874316,
        4388716241,
        4388716242,
        4388716243,
        5241874316
      ],
      "tags": {
        "amenity": "bar",
        "building": "commercial",
        "name": "Eangdi Shop Cum Bar",
        "shop": "convenience"
      }
    },
    {
      "type": "way",
      "id": 515904657,
      "timestamp": "2017-08-17T05:36:37Z",
      "version": 2,
      "changeset": 51193235,
      "user": "gyanendra nepali",
      "uid": 6447854,
      "center": {
        "lat": 28.2115223,
        "lon": 83.9565756
      },
      "nodes": [
        5037260341,
        5037260340,
        5037260339,
        5037260338,
        5037260335,
        5037260341
      ],
      "tags": {
        "addr:city": "pokhara lekhnath municipality",
        "addr:district": "kaski",
        "addr:street": "Lakeside Marg",
        "amenity": "pub",
        "name": "Rolling Stone Rock Bar",
        "opening_hours": "14:00-24:00",
        "operator": "private"
      }
    },
    {
      "type": "way",
      "id": 544878443,
      "timestamp": "2017-12-05T20:43:25Z",
      "version": 1,
      "changeset": 54381187,
      "user": "FERINA365",
      "uid": 2496484,
      "center": {
        "lat": 23.7979466,
        "lon": 86.4278185
      },
      "nodes": [
        5266691579,
        5266691580,
        5266691581,
        5266691582,
        5266691579
      ],
      "tags": {
        "amenity": "bar",
        "building": "yes",
        "name": "Cubes",
        "name:en": "Cubes",
        "name:hi": "कबेस"
      }
    },
    {
      "type": "way",
      "id": 554650644,
      "timestamp": "2018-01-21T13:33:30Z",
      "version": 1,
      "changeset": 55627999,
      "user": "ghh",
      "uid": 61625,
      "center": {
        "lat": 28.2015935,
        "lon": 83.940399
      },
      "nodes": [
        5352602519,
        5352602518,
        5352602517,
        5352602516,
        5352602519
      ],
      "tags": {
        "amenity": "bar",
        "internet_access": "no",
        "internet_access:fee": "no",
        "name": "Sunset watching kiosk",
        "opening_hours": "sunrise-sunset",
        "outdoor_seating": "yes",
        "smoking": "outside",
        "wheelchair": "yes"
      }
    },
    {
      "type": "way",
      "id": 639502570,
      "timestamp": "2018-11-01T08:47:22Z",
      "version": 2,
      "changeset": 64070474,
      "user": "geow",
      "uid": 223093,
      "center": {
        "lat": 29.0407858,
        "lon": 82.9041113
      },
      "nodes": [
        6025907020,
        6025907017,
        6025907018,
        6025907019,
        6025907020
      ],
      "tags": {
        "amenity": "pub",
        "building": "hut",
        "description": "basic public house, where you may find food, beverages, snacks etc."
      }
    },
    {
      "type": "way",
      "id": 756105823,
      "timestamp": "2019-12-17T00:50:41Z",
      "version": 1,
      "changeset": 78496360,
      "user": "rserezo_lyft",
      "uid": 10313603,
      "center": {
        "lat": 25.8823043,
        "lon": 89.7370604
      },
      "nodes": [
        7062088109,
        7062088110,
        7062088111,
        7062088112,
        7062088109
      ],
      "tags": {
        "amenity": "bar",
        "building": "yes"
      }
    },
    {
      "type": "way",
      "id": 781863695,
      "timestamp": "2020-03-16T18:16:12Z",
      "version": 1,
      "changeset": 82269898,
      "user": "rserezo_lyft",
      "uid": 10313603,
      "center": {
        "lat": 25.9020207,
        "lon": 89.7286455
      },
      "nodes": [
        7299887196,
        7299887197,
        7299887198,
        7299887199,
        7299887196
      ],
      "tags": {
        "amenity": "bar",
        "building": "yes"
      }
    },
    {
      "type": "way",
      "id": 792193477,
      "timestamp": "2020-04-15T14:58:06Z",
      "version": 1,
      "changeset": 83599340,
      "user": "Jitendra Kumar Patel",
      "uid": 9154400,
      "center": {
        "lat": 25.3736599,
        "lon": 81.2316686
      },
      "nodes": [
        7406088990,
        7406088991,
        7406088992,
        7406088993,
        7406088990
      ],
      "tags": {
        "amenity": "bar",
        "building": "yes"
      }
    },
    {
      "type": "way",
      "id": 812710695,
      "timestamp": "2020-06-04T03:58:00Z",
      "version": 1,
      "changeset": 86161338,
      "user": "Scott Lai",
      "uid": 11211188,
      "center": {
        "lat": 22.2581937,
        "lon": 88.9634759
      },
      "nodes": [
        7590908982,
        7590908983,
        7590908984,
        7590908985,
        7590908982
      ],
      "tags": {
        "amenity": "pub",
        "building": "yes"
      }
    },
    {
      "type": "way",
      "id": 902970563,
      "timestamp": "2022-05-30T09:29:50Z",
      "version": 2,
      "changeset": 121704183,
      "user": "Prakash Baski",
      "uid": 12078020,
      "center": {
        "lat": 23.3705383,
        "lon": 85.3395641
      },
      "nodes": [
        8386669654,
        8386669655,
        8386669656,
        8386669657,
        8386669658,
        8386669659,
        8386669654
      ],
      "tags": {
        "addr:city": "Ranchi",
        "addr:housenumber": "5th Floor H Square",
        "addr:postcode": "834001",
        "addr:street": "Circular Road",
        "amenity": "bar",
        "building": "yes",
        "name": "Mocha Cafe & Bar",
        "name:sat": "ᱢᱚᱪᱟ ᱠᱮᱯᱷᱮ ᱟᱨ ᱵᱟᱨ",
        "opening_hours": "Mo-Su 12:00-23:00"
      }
    },
    {
      "type": "way",
      "id": 902973431,
      "timestamp": "2022-05-30T09:29:50Z",
      "version": 2,
      "changeset": 121704183,
      "user": "Prakash Baski",
      "uid": 12078020,
      "center": {
        "lat": 23.3704429,
        "lon": 85.3388256
      },
      "nodes": [
        8386709679,
        8386709680,
        8386709681,
        8386709682,
        8386709683,
        8386709684,
        8386709679
      ],
      "tags": {
        "addr:city": "Ranchi",
        "addr:housenumber": "Top Floor, Pranami Height",
        "addr:postcode": "834001",
        "addr:street": "Circular Road",
        "amenity": "pub",
        "building": "yes",
        "name": "Dhunki",
        "name:sat": "ᱫᱷᱩᱱᱠᱤ",
        "opening_hours": "Mo-Su 11:30-23:30"
      }
    },
    {
      "type": "way",
      "id": 911241167,
      "timestamp": "2021-02-26T13:43:38Z",
      "version": 1,
      "changeset": 100054787,
      "user": "Roxana Garcia",
      "uid": 12596651,
      "center": {
        "lat": 25.4670651,
        "lon": 80.3428541
      },
      "nodes": [
        8461259707,
        8461259708,
        8461259709,
        8461259710,
        8461259707
      ],
      "tags": {
        "amenity": "bar",
        "building": "yes"
      }
    },
    {
      "type": "way",
      "id": 918695944,
      "timestamp": "2021-03-18T13:08:03Z",
      "version": 1,
      "changeset": 101262450,
      "user": "Beyzaemin05",
      "uid": 11616569,
      "center": {
        "lat": 25.5497551,
        "lon": 80.3810282
      },
      "nodes": [
        8532151755,
        8532151756,
        8532151757,
        8532151758,
        8532151759,
        8532151760,
        8532151761,
        8532151762,
        8532151763,
        8532151755
      ],
      "tags": {
        "amenity": "bar",
        "building": "yes"
      }
    },
    {
      "type": "way",
      "id": 956077549,
      "timestamp": "2021-06-19T15:21:31Z",
      "version": 1,
      "changeset": 106636519,
      "user": "IITBHU_Navvay_Dhingra",
      "uid": 13560639,
      "center": {
        "lat": 25.3291224,
        "lon": 82.9859361
      },
      "nodes": [
        8848572280,
        8848572281,
        8848572282,
        8848572283,
        8848572280
      ],
      "tags": {
        "amenity": "bar",
        "building": "yes",
        "name": "PNU Club"
      }
    },
    {
      "type": "way",
      "id": 976163055,
      "timestamp": "2021-08-25T03:08:05Z",
      "version": 1,
      "changeset": 110200109,
      "user": "Starboy Infinity",
      "uid": 7130319,
      "center": {
        "lat": 22.9431023,
        "lon": 88.6380262
      },
      "nodes": [
        9033606262,
        9033606263,
        9033606264,
        9033606265,
        9033606262
      ],
      "tags": {
        "amenity": "bar",
        "building": "yes"
      }
    },
    {
      "type": "way",
      "id": 1200662521,
      "timestamp": "2023-08-20T18:53:42Z",
      "version": 1,
      "changeset": 140147448,
      "user": "Anupama V",
      "uid": 20044685,
      "center": {
        "lat": 21.2339554,
        "lon": 81.6801168
      },
      "nodes": [
        11132584138,
        11132584139,
        11132584140,
        11132584141,
        11132584142,
        11132584138
      ],
      "tags": {
        "amenity": "bar",
        "building": "yes",
        "name": "Xtreme sports bar"
      }
    },
    {
      "type": "way",
      "id": 1335037826,
      "timestamp": "2024-11-18T11:48:59Z",
      "version": 1,
      "changeset": 159279927,
      "user": "Debalina Ghosh",
      "uid": 21766463,
      "center": {
        "lat": 20.2962737,
        "lon": 85.8251314
      },
      "nodes": [
        7709970622,
        12350999418,
        12350999419,
        7709970625,
        7709970622
      ],
      "tags": {
        "amenity": "pub",
        "indoor": "room",
        "level": "1",
        "name": "District High",
        "room": "shop"
      }
    },
    {
      "type": "way",
      "id": 1433033531,
      "timestamp": "2025-10-17T14:35:16Z",
      "version": 2,
      "changeset": 173414229,
      "user": "NLBRT",
      "uid": 18152274,
      "center": {
        "lat": 22.9275179,
        "lon": 88.2666155
      },
      "nodes": [
        13239145995,
        13239145994,
        13171173969,
        13171173966,
        13171173968,
        13171173967,
        13239145995
      ],
      "tags": {
        "amenity": "bar",
        "building": "yes"
      }
    },
    {
      "type": "way",
      "id": 1433033532,
      "timestamp": "2025-10-17T14:35:16Z",
      "version": 2,
      "changeset": 173414229,
      "user": "NLBRT",
      "uid": 18152274,
      "center": {
        "lat": 22.9275139,
        "lon": 88.2667165
      },
      "nodes": [
        13239145993,
        13239145992,
        13239145991,
        13239145990,
        13171173971,
        13171173970,
        13239145993
      ],
      "tags": {
        "amenity": "bar",
        "building": "yes"
      }
    },
    {
      "type": "way",
      "id": 1433033533,
      "timestamp": "2025-10-17T14:35:16Z",
      "version": 2,
      "changeset": 173414229,
      "user": "NLBRT",
      "uid": 18152274,
      "center": {
        "lat": 22.9275137,
        "lon": 88.2668182
      },
      "nodes": [
        13171173973,
        13171173972,
        13239145989,
        13239145988,
        13171173973
      ],
      "tags": {
        "amenity": "bar",
        "building": "yes"
      }
    }
  ]
}