{
  "version": 0.6,
  "generator": "Overpass API 0.7.62.8 e802775f",
  "osm3s": {
    "timestamp_osm_base": "2025-10-23T20:39:16Z",
    "copyright": "The data included in this document is from www.openstreetmap.org. The data is made available under ODbL."
  },
  "elements": [
    {
      "type": "node",
      "id": 453247468,
      "lat": 51.1488553,
      "lon": 71.4782604,
      "timestamp": "2018-07-22T08:42:41Z",
      "version": 3,
      "changeset": 60946515,
      "user": "dansit",
      "uid": 1459583,
      "tags": {
        "amenity": "pub",
        "name": "Седьмая Луза",
        "sport": "billiards"
      }
    },
    {
      "type": "node",
      "id": 523078254,
      "lat": 50.7451747,
      "lon": 78.5529433,
      "timestamp": "2014-11-30T16:41:07Z",
      "version": 13,
      "changeset": 27135635,
      "user": "Ansider",
      "uid": 640879,
      "tags": {
        "amenity": "bar",
        "name": "Аэлита",
        "wifi": "no"
      }
    },
    {
      "type": "node",
      "id": 523088581,
      "lat": 50.7551609,
      "lon": 78.5468077,
      "timestamp": "2014-11-30T15:14:22Z",
      "version": 13,
      "changeset": 27133738,
      "user": "Ansider",
      "uid": 640879,
      "tags": {
        "amenity": "bar",
        "name": "Мереке"
      }
    },
    {
      "type": "node",
      "id": 523088702,
      "lat": 50.7484497,
      "lon": 78.5531643,
      "timestamp": "2016-08-25T17:02:54Z",
      "version": 13,
      "changeset": 41693766,
      "user": "Fuse100A",
      "uid": 1496713,
      "tags": {
        "amenity": "bar",
        "name": "Встреча"
      }
    },
    {
      "type": "node",
      "id": 636250025,
      "lat": 52.2937879,
      "lon": 76.9394769,
      "timestamp": "2010-02-12T02:49:38Z",
      "version": 1,
      "changeset": 3853424,
      "user": "Dmitry Olyenyov",
      "uid": 31991,
      "tags": {
        "amenity": "biergarten"
      }
    },
    {
      "type": "node",
      "id": 791129402,
      "lat": 55.0428531,
      "lon": 73.3303101,
      "timestamp": "2023-08-12T21:40:38Z",
      "version": 3,
      "changeset": 139803386,
      "user": "I_G0rek",
      "uid": 20068671,
      "tags": {
        "addr:city": "Омск",
        "addr:housenumber": "6/2",
        "addr:postcode": "644090",
        "addr:street": "улица Малиновского",
        "amenity": "bar",
        "dispensing": "no",
        "name": "Beer-ландия",
        "opening_hours": "Mo-Su 10:00-22:00"
      }
    },
    {
      "type": "node",
      "id": 893070514,
      "lat": 53.9892445,
      "lon": 79.2732068,
      "timestamp": "2014-07-01T06:48:29Z",
      "version": 3,
      "changeset": 23405137,
      "user": "xscvxc",
      "uid": 605402,
      "tags": {
        "amenity": "bar",
        "name": "Телега"
      }
    },
    {
      "type": "node",
      "id": 999092172,
      "lat": 56.8943534,
      "lon": 74.3796213,
      "timestamp": "2023-05-06T11:35:16Z",
      "version": 4,
      "changeset": 135773360,
      "user": "Dmitry Y",
      "uid": 35678,
      "tags": {
        "amenity": "bar",
        "name": "Vmeste Вместе",
        "opening_hours": "Mo-Su 09:00-18:00"
      }
    },
    {
      "type": "node",
      "id": 1099028261,
      "lat": 54.5877638,
      "lon": 73.6365726,
      "timestamp": "2011-01-12T02:33:40Z",
      "version": 1,
      "changeset": 6943670,
      "user": "Mishanya",
      "uid": 393979,
      "tags": {
        "amenity": "pub"
      }
    },
    {
      "type": "node",
      "id": 1142801032,
      "lat": 50.0627955,
      "lon": 72.9809625,
      "timestamp": "2012-10-06T04:52:30Z",
      "version": 2,
      "changeset": 13380645,
      "user": "мыся",
      "uid": 832796,
      "tags": {
        "amenity": "pub",
        "name": "Пивной бар Joker"
      }
    },
    {
      "type": "node",
      "id": 1190556643,
      "lat": 55.0429255,
      "lon": 73.3217283,
      "timestamp": "2011-03-07T06:41:44Z",
      "version": 1,
      "changeset": 7481123,
      "user": "Ignatenko",
      "uid": 418386,
      "tags": {
        "amenity": "pub",
        "name": "Живое пиво"
      }
    },
    {
      "type": "node",
      "id": 1198117093,
      "lat": 51.1451375,
      "lon": 71.4133781,
      "timestamp": "2016-06-14T12:20:06Z",
      "version": 4,
      "changeset": 40016156,
      "user": "rashaurl",
      "uid": 1023906,
      "tags": {
        "amenity": "bar",
        "name": "Mega"
      }
    },
    {
      "type": "node",
      "id": 1296113736,
      "lat": 54.9745873,
      "lon": 73.4005118,
      "timestamp": "2011-05-22T13:12:28Z",
      "version": 1,
      "changeset": 8216096,
      "user": "Shroom",
      "uid": 458545,
      "tags": {
        "amenity": "pub",
        "name": "Гамбринус"
      }
    },
    {
      "type": "node",
      "id": 1296231521,
      "lat": 54.9828293,
      "lon": 73.3961004,
      "timestamp": "2013-10-02T09:19:33Z",
      "version": 2,
      "changeset": 18139886,
      "user": "whalerich",
      "uid": 183878,
      "tags": {
        "amenity": "bar",
        "name": "Рок-клуб"
      }
    },
    {
      "type": "node",
      "id": 1331897839,
      "lat": 57.5151134,
      "lon": 72.4042133,
      "timestamp": "2016-06-07T04:35:15Z",
      "version": 7,
      "changeset": 39852925,
      "user": "desk77",
      "uid": 3417100,
      "tags": {
        "amenity": "bar",
        "name": "Ивушка"
      }
    },
    {
      "type": "node",
      "id": 1376668070,
      "lat": 50.0625372,
      "lon": 72.9684809,
      "timestamp": "2011-07-28T12:01:33Z",
      "version": 1,
      "changeset": 8853926,
      "user": "Grizli",
      "uid": 232480,
      "tags": {
        "amenity": "bar",
        "name": "Бар \"Афган\""
      }
    },
    {
      "type": "node",
      "id": 1376689600,
      "lat": 50.0591098,
      "lon": 72.9596839,
      "timestamp": "2011-07-28T12:44:12Z",
      "version": 1,
      "changeset": 8854289,
      "user": "Grizli",
      "uid": 232480,
      "tags": {
        "amenity": "bar",
        "name": "Бар \"Шайда\""
      }
    },
    {
      "type": "node",
      "id": 1412445220,
      "lat": 51.8320042,
      "lon": 79.7133706,
      "timestamp": "2016-01-28T19:07:16Z",
      "version": 5,
      "changeset": 36862802,
      "user": "osmer120311",
      "uid": 624271,
      "tags": {
        "amenity": "bar",
        "name": "Астория"
      }
    },
    {
      "type": "node",
      "id": 1502786795,
      "lat": 55.9556328,
      "lon": 72.027772,
      "timestamp": "2011-11-14T12:03:20Z",
      "version": 1,
      "changeset": 9823907,
      "user": "Sawoy",
      "uid": 552543,
      "tags": {
        "amenity": "bar"
      }
    },
    {
      "type": "node",
      "id": 1721420334,
      "lat": 50.7498063,
      "lon": 78.5502968,
      "timestamp": "2014-11-30T14:23:45Z",
      "version": 3,
      "changeset": 27132602,
      "user": "Ansider",
      "uid": 640879,
      "tags": {
        "amenity": "bar",
        "name": "Каскад"
      }
    },
    {
      "type": "node",
      "id": 1885213799,
      "lat": 50.0510078,
      "lon": 72.9553336,
      "timestamp": "2019-10-09T16:22:04Z",
      "version": 3,
      "changeset": 75473571,
      "user": "dansit",
      "uid": 1459583,
      "tags": {
        "amenity": "pub",
        "name": "Байтерек"
      }
    },
    {
      "type": "node",
      "id": 1886839950,
      "lat": 50.0952184,
      "lon": 72.9046695,
      "timestamp": "2012-08-28T15:17:45Z",
      "version": 1,
      "changeset": 12893752,
      "user": "мыся",
      "uid": 832796,
      "tags": {
        "amenity": "bar"
      }
    },
    {
      "type": "node",
      "id": 1889468099,
      "lat": 50.0597246,
      "lon": 72.9984475,
      "timestamp": "2015-12-08T11:51:52Z",
      "version": 3,
      "changeset": 35824380,
      "user": "Darik255",
      "uid": 3340133,
      "tags": {
        "addr:city": "Темиртау",
        "addr:housenumber": "13/1",
        "addr:street": "проспект Республики",
        "amenity": "bar"
      }
    },
    {
      "type": "node",
      "id": 1891747771,
      "lat": 50.0652553,
      "lon": 72.9823415,
      "timestamp": "2025-01-08T15:55:07Z",
      "version": 4,
      "changeset": 161138893,
      "user": "FelizeyFPV",
      "uid": 22360672,
      "tags": {
        "amenity": "bar",
        "name": "Шансон"
      }
    },
    {
      "type": "node",
      "id": 1910312487,
      "lat": 50.0627374,
      "lon": 72.992789,
      "timestamp": "2014-09-07T17:40:06Z",
      "version": 2,
      "changeset": 25291653,
      "user": "mastermr",
      "uid": 1988649,
      "tags": {
        "amenity": "pub",
        "name": "Шанс"
      }
    },
    {
      "type": "node",
      "id": 2301733278,
      "lat": 51.8210857,
      "lon": 79.7185345,
      "timestamp": "2015-01-02T04:17:34Z",
      "version": 3,
      "changeset": 27854647,
      "user": "Федосов Сергей",
      "uid": 508290,
      "tags": {
        "amenity": "pub",
        "building": "yes",
        "name": "Большая кружка.",
        "shop": "alcohol"
      }
    },
    {
      "type": "node",
      "id": 2326934675,
      "lat": 50.7550758,
      "lon": 78.5442497,
      "timestamp": "2014-11-19T15:53:25Z",
      "version": 2,
      "changeset": 26888850,
      "user": "Fuse100A",
      "uid": 1496713,
      "tags": {
        "amenity": "bar",
        "name": "Бинур"
      }
    },
    {
      "type": "node",
      "id": 2342919518,
      "lat": 50.7564765,
      "lon": 78.5447013,
      "timestamp": "2013-06-13T04:03:30Z",
      "version": 1,
      "changeset": 16532272,
      "user": "Fuse100A",
      "uid": 1496713,
      "tags": {
        "amenity": "bar",
        "name": "Астана"
      }
    },
    {
      "type": "node",
      "id": 2439310869,
      "lat": 50.7264488,
      "lon": 78.6443913,
      "timestamp": "2013-08-30T16:22:05Z",
      "version": 1,
      "changeset": 17591960,
      "user": "BreedMax",
      "uid": 1496150,
      "tags": {
        "amenity": "bar",
        "name": "Ранчо"
      }
    },
    {
      "type": "node",
      "id": 2504579534,
      "lat": 52.3519571,
      "lon": 71.8818018,
      "timestamp": "2015-02-07T19:27:42Z",
      "version": 8,
      "changeset": 28689234,
      "user": "Alexkravkaa28",
      "uid": 1725868,
      "tags": {
        "amenity": "bar",
        "name": "Дуплет",
        "opening_hours": "Mo-Su 10:00-23:00"
      }
    },
    {
      "type": "node",
      "id": 2591380736,
      "lat": 50.0650302,
      "lon": 72.966307,
      "timestamp": "2014-09-07T17:58:38Z",
      "version": 2,
      "changeset": 25291653,
      "user": "mastermr",
      "uid": 1988649,
      "tags": {
        "amenity": "bar",
        "name": "Бар \"Avalon\""
      }
    },
    {
      "type": "node",
      "id": 2639079672,
      "lat": 51.1925443,
      "lon": 71.411777,
      "timestamp": "2014-01-26T22:28:54Z",
      "version": 1,
      "changeset": 20219567,
      "user": "literan",
      "uid": 830106,
      "tags": {
        "amenity": "bar"
      }
    },
    {
      "type": "node",
      "id": 2712715048,
      "lat": 52.3630448,
      "lon": 71.897577,
      "timestamp": "2021-08-22T21:43:53Z",
      "version": 4,
      "changeset": 110080156,
      "user": "Alexkravkaa28",
      "uid": 1725868,
      "tags": {
        "amenity": "bar",
        "name": "Chigis",
        "old_name": "Золотой шар",
        "opening_hours": "Mo-Su 13:00-03:00"
      }
    },
    {
      "type": "node",
      "id": 2726984559,
      "lat": 51.1616955,
      "lon": 71.4555082,
      "timestamp": "2023-10-04T06:39:15Z",
      "version": 5,
      "changeset": 142128598,
      "user": "b-jazz-bot",
      "uid": 9451067,
      "tags": {
        "amenity": "bar",
        "name": "Спорт-бар \"Трибуна\", БК FairPlay.",
        "opening_hours": "09:00-06:00",
        "smoking": "outside",
        "website": "https://www.fairplay.kz/"
      }
    },
    {
      "type": "node",
      "id": 2825987611,
      "lat": 51.1247253,
      "lon": 71.4217715,
      "timestamp": "2023-10-04T06:38:42Z",
      "version": 4,
      "changeset": 142128575,
      "user": "b-jazz-bot",
      "uid": 9451067,
      "tags": {
        "amenity": "bar",
        "name": "Спорт-бар \"Итальянская серия А\", БК FairPlay",
        "opening_hours": "09:00-06:00",
        "smoking": "outside",
        "website": "https://www.fairplay.kz/"
      }
    },
    {
      "type": "node",
      "id": 2826021774,
      "lat": 51.1659105,
      "lon": 71.4380311,
      "timestamp": "2023-10-04T06:41:38Z",
      "version": 4,
      "changeset": 142128714,
      "user": "b-jazz-bot",
      "uid": 9451067,
      "tags": {
        "amenity": "bar",
        "name": "Спорт-бар \"Бундес лига\" , БК FairPlay.",
        "opening_hours": "09:00-06:00",
        "smoking": "outside",
        "website": "https://www.fairplay.kz/"
      }
    },
    {
      "type": "node",
      "id": 2826051343,
      "lat": 51.1797843,
      "lon": 71.4094334,
      "timestamp": "2023-10-04T06:41:03Z",
      "version": 4,
      "changeset": 142128690,
      "user": "b-jazz-bot",
      "uid": 9451067,
      "tags": {
        "amenity": "bar",
        "name": "Спорт-бар \"Российская Премьер лига\", БК FairPlay.",
        "opening_hours": "09:00-06:00",
        "smoking": "outside",
        "website": "https://www.fairplay.kz/"
      }
    },
    {
      "type": "node",
      "id": 2826099699,
      "lat": 51.1679748,
      "lon": 71.3999324,
      "timestamp": "2023-10-04T06:40:01Z",
      "version": 7,
      "changeset": 142128640,
      "user": "b-jazz-bot",
      "uid": 9451067,
      "tags": {
        "addr:city": "Нур-Султан",
        "addr:housenumber": "8",
        "addr:postcode": "010000",
        "addr:street": "улица Кенжебека Кумисбекова",
        "amenity": "bar",
        "name": "Спорт-бар \"Мундиаль\", БК FairPlay",
        "opening_hours": "09:00-06:00",
        "smoking": "outside",
        "website": "https://www.fairplay.kz/",
        "wheelchair": "yes"
      }
    },
    {
      "type": "node",
      "id": 2826107695,
      "lat": 51.1374611,
      "lon": 71.4706209,
      "timestamp": "2023-10-04T06:40:11Z",
      "version": 6,
      "changeset": 142128650,
      "user": "b-jazz-bot",
      "uid": 9451067,
      "tags": {
        "amenity": "bar",
        "name": "Спорт-бар \"Барыс\" , БК FairPlay.",
        "opening_hours": "09:00-06:00",
        "smoking": "outside",
        "website": "https://www.fairplay.kz/"
      }
    },
    {
      "type": "node",
      "id": 2826108958,
      "lat": 51.1713413,
      "lon": 71.3845403,
      "timestamp": "2023-10-04T06:38:35Z",
      "version": 4,
      "changeset": 142128568,
      "user": "b-jazz-bot",
      "uid": 9451067,
      "tags": {
        "amenity": "bar",
        "name": "Спорт-бар \"Финал\", БК FairPlay.",
        "opening_hours": "09:00-06:00",
        "smoking": "outside",
        "website": "https://www.fairplay.kz/"
      }
    },
    {
      "type": "node",
      "id": 2826115595,
      "lat": 51.1591652,
      "lon": 71.4300382,
      "timestamp": "2023-10-04T06:41:45Z",
      "version": 5,
      "changeset": 142128722,
      "user": "b-jazz-bot",
      "uid": 9451067,
      "tags": {
        "amenity": "bar",
        "name": "РИО, БК FaiaPlay.",
        "opening_hours": "09:00-06:00",
        "smoking": "outside",
        "website": "https://www.fairplay.kz/"
      }
    },
    {
      "type": "node",
      "id": 2826117627,
      "lat": 51.139266,
      "lon": 71.4776811,
      "timestamp": "2023-10-04T06:41:42Z",
      "version": 7,
      "changeset": 142128718,
      "user": "b-jazz-bot",
      "uid": 9451067,
      "tags": {
        "amenity": "bar",
        "name": "Chalet pub",
        "opening_hours": "Mo-Su 12:00-02:00",
        "smoking": "outside",
        "website": "https://www.fairplay.kz/"
      }
    },
    {
      "type": "node",
      "id": 2826119301,
      "lat": 51.1936766,
      "lon": 71.4103727,
      "timestamp": "2023-10-04T06:40:49Z",
      "version": 4,
      "changeset": 142128677,
      "user": "b-jazz-bot",
      "uid": 9451067,
      "tags": {
        "amenity": "bar",
        "name": "БК FairPlay",
        "opening_hours": "09:00-06:00",
        "smoking": "outside",
        "website": "https://www.fairplay.kz/"
      }
    },
    {
      "type": "node",
      "id": 2826122423,
      "lat": 51.1555411,
      "lon": 71.5007964,
      "timestamp": "2023-10-04T06:40:42Z",
      "version": 4,
      "changeset": 142128670,
      "user": "b-jazz-bot",
      "uid": 9451067,
      "tags": {
        "amenity": "bar",
        "name": "\"Арена\", БК FairPlay.",
        "opening_hours": "09:00-06:00",
        "smoking": "outside",
        "website": "https://www.fairplay.kz/"
      }
    },
    {
      "type": "node",
      "id": 2826123535,
      "lat": 51.1462128,
      "lon": 71.4674528,
      "timestamp": "2023-10-04T06:38:18Z",
      "version": 6,
      "changeset": 142128551,
      "user": "b-jazz-bot",
      "uid": 9451067,
      "tags": {
        "amenity": "bar",
        "name": "БК FairPlay",
        "opening_hours": "09:00-06:00",
        "smoking": "outside",
        "website": "https://www.fairplay.kz/"
      }
    },
    {
      "type": "node",
      "id": 2826132947,
      "lat": 51.1522051,
      "lon": 71.5011089,
      "timestamp": "2023-10-04T06:41:48Z",
      "version": 3,
      "changeset": 142128724,
      "user": "b-jazz-bot",
      "uid": 9451067,
      "tags": {
        "addr:city": "Астана",
        "addr:housenumber": "6",
        "addr:postcode": "010000",
        "addr:street": "улица Габита Мусрепова",
        "amenity": "bar",
        "name": "Бар \"Томпсон\", БК FairPlay.",
        "opening_hours": "09:00-06:00",
        "smoking": "outside",
        "website": "https://www.fairplay.kz/"
      }
    },
    {
      "type": "node",
      "id": 2826141568,
      "lat": 51.1625958,
      "lon": 71.4201276,
      "timestamp": "2023-10-04T06:41:06Z",
      "version": 4,
      "changeset": 142128692,
      "user": "b-jazz-bot",
      "uid": 9451067,
      "tags": {
        "amenity": "bar",
        "name": "\"Роут Рейс\", БК FairPlay",
        "opening_hours": "09:00-06:00",
        "smoking": "outside",
        "website": "https://www.fairplay.kz/"
      }
    },
    {
      "type": "node",
      "id": 2826144333,
      "lat": 51.1654821,
      "lon": 71.405472,
      "timestamp": "2023-10-04T06:39:55Z",
      "version": 5,
      "changeset": 142128635,
      "user": "b-jazz-bot",
      "uid": 9451067,
      "tags": {
        "addr:city": "Нур-Султан",
        "addr:housenumber": "8",
        "addr:postcode": "010000",
        "addr:street": "проспект Абая",
        "amenity": "bar",
        "name": "Спорт-бар \"Голкипер\", БК FairPlay.",
        "opening_hours": "09:00-06:00",
        "smoking": "separated",
        "website": "https://www.fairplay.kz/"
      }
    },
    {
      "type": "node",
      "id": 2826148981,
      "lat": 51.1858498,
      "lon": 71.4066565,
      "timestamp": "2023-10-04T06:40:36Z",
      "version": 4,
      "changeset": 142128664,
      "user": "b-jazz-bot",
      "uid": 9451067,
      "tags": {
        "amenity": "bar",
        "name": "БК FairPlay",
        "opening_hours": "09:00-06:00",
        "smoking": "outside",
        "website": "https://www.fairplay.kz/"
      }
    },
    {
      "type": "node",
      "id": 2826156184,
      "lat": 51.1619168,
      "lon": 71.4635576,
      "timestamp": "2023-10-04T06:38:54Z",
      "version": 6,
      "changeset": 142128583,
      "user": "b-jazz-bot",
      "uid": 9451067,
      "tags": {
        "amenity": "bar",
        "name": "Кафе \"Сагжан\", БК FairPlay",
        "opening_hours": "09:00-06:00",
        "smoking": "outside",
        "website": "https://www.fairplay.kz/"
      }
    },
    {
      "type": "node",
      "id": 2826160853,
      "lat": 51.1399269,
      "lon": 71.4654682,
      "timestamp": "2023-10-04T06:39:28Z",
      "version": 5,
      "changeset": 142128610,
      "user": "b-jazz-bot",
      "uid": 9451067,
      "tags": {
        "amenity": "bar",
        "name": "БК FairPlay",
        "opening_hours": "09:00-06:00",
        "smoking": "outside",
        "website": "https://www.fairplay.kz/"
      }
    },
    {
      "type": "node",
      "id": 2826164570,
      "lat": 51.140427,
      "lon": 71.4832186,
      "timestamp": "2023-10-04T06:41:31Z",
      "version": 4,
      "changeset": 142128710,
      "user": "b-jazz-bot",
      "uid": 9451067,
      "tags": {
        "addr:city": "Астана",
        "addr:housenumber": "16",
        "addr:postcode": "010000",
        "addr:street": "проспект Бауыржана Момышулы",
        "amenity": "bar",
        "name": "\"Альфишави\", БК FairPlay",
        "opening_hours": "09:00-06:00",
        "smoking": "separated",
        "website": "https://www.fairplay.kz/"
      }
    },
    {
      "type": "node",
      "id": 2826175082,
      "lat": 51.1535522,
      "lon": 71.4621041,
      "timestamp": "2023-10-04T06:40:04Z",
      "version": 5,
      "changeset": 142128643,
      "user": "b-jazz-bot",
      "uid": 9451067,
      "tags": {
        "addr:city": "Нур-Султан",
        "addr:housenumber": "4",
        "addr:postcode": "010000",
        "addr:street": "улица Кажымукана Мунайтпасова",
        "amenity": "bar",
        "name": "БК FairPlay",
        "opening_hours": "09:00-08:30",
        "smoking": "separated",
        "website": "https://www.fairplay.kz/"
      }
    },
    {
      "type": "node",
      "id": 2826184438,
      "lat": 51.1296521,
      "lon": 71.4339722,
      "timestamp": "2023-10-04T06:39:22Z",
      "version": 5,
      "changeset": 142128605,
      "user": "b-jazz-bot",
      "uid": 9451067,
      "tags": {
        "amenity": "bar",
        "name": "Спорт-бар \"Лигалайф\", БК Fairplay.",
        "opening_hours": "09:00-06:00",
        "smoking": "outside",
        "website": "https://www.fairplay.kz/"
      }
    },
    {
      "type": "node",
      "id": 2843294885,
      "lat": 55.0072619,
      "lon": 73.3448963,
      "timestamp": "2025-08-23T10:11:56Z",
      "version": 6,
      "changeset": 170871993,
      "user": "danilshvalov",
      "uid": 16430474,
      "tags": {
        "addr:housenumber": "1162",
        "addr:street": "улица Красный Путь",
        "amenity": "pub",
        "contact:phone": "+7 913 610-08-76",
        "contact:vk": "sibkoromsk",
        "contact:website": "https://shefgorod.com/sibirskaya-korona",
        "entrance": "yes",
        "indoor_seating": "yes",
        "level": "0",
        "name": "Сибирская корона",
        "opening_hours": "Mo-Fr 11:00-24:00; Sa 12:00-24:00; Su 13:00-24:00",
        "outdoor_seating": "yes",
        "takeaway": "yes",
        "toilets": "yes"
      }
    },
    {
      "type": "node",
      "id": 2924514846,
      "lat": 54.9956748,
      "lon": 73.2642796,
      "timestamp": "2014-06-20T10:01:26Z",
      "version": 1,
      "changeset": 23040730,
      "user": "whalerich",
      "uid": 183878,
      "tags": {
        "amenity": "bar",
        "name": "Куба"
      }
    },
    {
      "type": "node",
      "id": 2972724515,
      "lat": 52.9189358,
      "lon": 78.5658228,
      "timestamp": "2014-07-21T09:16:47Z",
      "version": 1,
      "changeset": 24268978,
      "user": "dndred",
      "uid": 614998,
      "tags": {
        "amenity": "bar"
      }
    },
    {
      "type": "node",
      "id": 3140419401,
      "lat": 54.1665303,
      "lon": 72.5768641,
      "timestamp": "2014-10-20T18:41:01Z",
      "version": 1,
      "changeset": 26219873,
      "user": "sasha55",
      "uid": 1831813,
      "tags": {
        "amenity": "bar"
      }
    },
    {
      "type": "node",
      "id": 3220350737,
      "lat": 54.9477763,
      "lon": 73.4163023,
      "timestamp": "2014-12-05T15:35:51Z",
      "version": 1,
      "changeset": 27265544,
      "user": "sokrat84",
      "uid": 2499511,
      "tags": {
        "amenity": "bar",
        "name": "Чудо-бани"
      }
    },
    {
      "type": "node",
      "id": 3401808121,
      "lat": 52.3546945,
      "lon": 71.8897019,
      "timestamp": "2019-12-03T09:29:36Z",
      "version": 2,
      "changeset": 77864254,
      "user": "IgorPolyakov",
      "uid": 10180016,
      "tags": {
        "amenity": "bar",
        "name": "Тулпар"
      }
    },
    {
      "type": "node",
      "id": 3421255007,
      "lat": 51.1358507,
      "lon": 71.3684559,
      "timestamp": "2017-06-14T12:20:38Z",
      "version": 2,
      "changeset": 49528415,
      "user": "dansit",
      "uid": 1459583,
      "tags": {
        "amenity": "bar",
        "name": "Кабачок"
      }
    },
    {
      "type": "node",
      "id": 3647548349,
      "lat": 54.9795447,
      "lon": 73.3811498,
      "timestamp": "2024-05-26T10:25:01Z",
      "version": 3,
      "changeset": 151844489,
      "user": "box_911",
      "uid": 351509,
      "tags": {
        "amenity": "bar",
        "level": "-1",
        "name": "Огурцы",
        "outdoor_seating": "no",
        "wheelchair": "no"
      }
    },
    {
      "type": "node",
      "id": 3647548353,
      "lat": 54.9791474,
      "lon": 73.3812216,
      "timestamp": "2024-05-26T10:25:01Z",
      "version": 3,
      "changeset": 151844489,
      "user": "box_911",
      "uid": 351509,
      "tags": {
        "amenity": "pub",
        "level": "-1",
        "name": "Сибирская корона",
        "outdoor_seating": "no",
        "wheelchair": "no"
      }
    },
    {
      "type": "node",
      "id": 3780072974,
      "lat": 51.1602053,
      "lon": 71.460111,
      "timestamp": "2018-09-02T12:29:11Z",
      "version": 3,
      "changeset": 62218280,
      "user": "dansit",
      "uid": 1459583,
      "tags": {
        "amenity": "bar",
        "name": "Пивной barsuk"
      }
    },
    {
      "type": "node",
      "id": 3878467662,
      "lat": 55.0287196,
      "lon": 73.2663881,
      "timestamp": "2024-12-21T14:48:39Z",
      "version": 8,
      "changeset": 160472317,
      "user": "box_911",
      "uid": 351509,
      "tags": {
        "amenity": "pub",
        "level": "-1",
        "name": "ELG",
        "opening_hours": "24/7",
        "wheelchair": "no"
      }
    },
    {
      "type": "node",
      "id": 3878467692,
      "lat": 55.0294068,
      "lon": 73.2806892,
      "timestamp": "2018-08-04T12:09:34Z",
      "version": 5,
      "changeset": 61352383,
      "user": "box_911",
      "uid": 351509,
      "tags": {
        "amenity": "pub",
        "name": "Сибирская Корона",
        "opening_hours": "Mo-Fr 11:00-23:00; Sa,Su 12:00-23:00; PH off"
      }
    },
    {
      "type": "node",
      "id": 3886581679,
      "lat": 54.9710015,
      "lon": 73.3879177,
      "timestamp": "2021-08-23T07:10:37Z",
      "version": 5,
      "changeset": 110094691,
      "user": "whalerich",
      "uid": 183878,
      "tags": {
        "amenity": "bar",
        "name": "Фан Beer",
        "opening_hours": "Mo-Su 10:00-24:00"
      }
    },
    {
      "type": "node",
      "id": 3886581691,
      "lat": 54.9706702,
      "lon": 73.3835414,
      "timestamp": "2021-05-18T07:24:40Z",
      "version": 6,
      "changeset": 104869141,
      "user": "whalerich",
      "uid": 183878,
      "tags": {
        "amenity": "pub",
        "name": "Жигули",
        "opening_hours": "Su-Th 11:00-23:00; Fr,Sa 11:00-24:00"
      }
    },
    {
      "type": "node",
      "id": 3920325464,
      "lat": 54.9872821,
      "lon": 73.3755537,
      "timestamp": "2024-12-07T21:18:56Z",
      "version": 8,
      "changeset": 160040078,
      "user": "box_911",
      "uid": 351509,
      "tags": {
        "amenity": "bar",
        "contact:website": "https://bardruzia.ru",
        "internet_access": "wlan",
        "name": "Друзья",
        "opening_hours": "Su-Th 12:00-03:00; Fr-Sa 12:00-06:00",
        "outdoor_seating": "terrace"
      }
    },
    {
      "type": "node",
      "id": 3934035732,
      "lat": 55.0286586,
      "lon": 73.2839771,
      "timestamp": "2024-06-07T14:46:19Z",
      "version": 9,
      "changeset": 152379992,
      "user": "Barmem",
      "uid": 21632546,
      "tags": {
        "amenity": "pub",
        "level": "1",
        "name": "Birliman Grill",
        "opening_hours": "Mo-Th, Su 12:00-01:00; Fr, Sa 12:00-03:00"
      }
    },
    {
      "type": "node",
      "id": 3934035741,
      "lat": 55.0297634,
      "lon": 73.2786731,
      "timestamp": "2023-09-16T13:45:56Z",
      "version": 4,
      "changeset": 141343616,
      "user": "box_911",
      "uid": 351509,
      "tags": {
        "amenity": "bar",
        "name": "Трамвайчик"
      }
    },
    {
      "type": "node",
      "id": 4016223782,
      "lat": 56.3708412,
      "lon": 75.2361182,
      "timestamp": "2016-02-20T10:39:03Z",
      "version": 1,
      "changeset": 37325845,
      "user": "whalerich",
      "uid": 183878,
      "tags": {
        "amenity": "bar"
      }
    },
    {
      "type": "node",
      "id": 4019440158,
      "lat": 54.9880646,
      "lon": 73.3765021,
      "timestamp": "2023-03-04T11:52:51Z",
      "version": 4,
      "changeset": 133286649,
      "user": "taylor55",
      "uid": 18609549,
      "tags": {
        "amenity": "bar",
        "cuisine": "italian",
        "name": "Taylor: Lounge & Bar",
        "opening_hours": "Mo-Th 12:00-01:00, Fr 12:00-03:00, Sa 12:00-03:00, Su 12:00-01:00",
        "start_date": "2020-11-13",
        "website": "https://taylor-lounge.ru"
      }
    },
    {
      "type": "node",
      "id": 4019440159,
      "lat": 54.9877872,
      "lon": 73.3765881,
      "timestamp": "2018-03-29T08:32:30Z",
      "version": 3,
      "changeset": 57625332,
      "user": "whalerich",
      "uid": 183878,
      "tags": {
        "amenity": "pub",
        "name": "Oldman",
        "opening_hours": "Su-Th 12:00-02:00, Fr,Sa 12:00-04:00"
      }
    },
    {
      "type": "node",
      "id": 4062060694,
      "lat": 52.9224451,
      "lon": 78.5644604,
      "timestamp": "2016-03-15T18:13:32Z",
      "version": 1,
      "changeset": 37850983,
      "user": "YrslwW",
      "uid": 2985424,
      "tags": {
        "amenity": "bar",
        "name": "Рейс"
      }
    },
    {
      "type": "node",
      "id": 4103936690,
      "lat": 50.0642604,
      "lon": 72.9740435,
      "timestamp": "2016-04-07T01:29:04Z",
      "version": 1,
      "changeset": 38367063,
      "user": "Владимир90",
      "uid": 3781666,
      "tags": {
        "amenity": "bar",
        "name": "Кафе-бар"
      }
    },
    {
      "type": "node",
      "id": 4115910889,
      "lat": 50.0605802,
      "lon": 72.9957276,
      "timestamp": "2016-04-12T07:42:58Z",
      "version": 1,
      "changeset": 38492938,
      "user": "Владимир90",
      "uid": 3781666,
      "tags": {
        "amenity": "bar",
        "name": "Трактир"
      }
    },
    {
      "type": "node",
      "id": 4157968606,
      "lat": 51.1617013,
      "lon": 71.4019691,
      "timestamp": "2016-04-30T18:27:44Z",
      "version": 1,
      "changeset": 39004080,
      "user": "rashaurl",
      "uid": 1023906,
      "tags": {
        "amenity": "pub",
        "name": "Дорогая, я перезвоню!"
      }
    },
    {
      "type": "node",
      "id": 4162501117,
      "lat": 54.9861715,
      "lon": 73.374759,
      "timestamp": "2024-02-06T17:46:39Z",
      "version": 7,
      "changeset": 147145074,
      "user": "box_911",
      "uid": 351509,
      "tags": {
        "amenity": "pub",
        "name": "Brut Beer",
        "opening_hours": "Mo-Th,Su 12:00-24:00; Fr,Sa 12:00-01:00"
      }
    },
    {
      "type": "node",
      "id": 4174380485,
      "lat": 54.9848308,
      "lon": 73.3743464,
      "timestamp": "2016-08-15T10:07:49Z",
      "version": 2,
      "changeset": 41464319,
      "user": "whalerich",
      "uid": 183878,
      "tags": {
        "amenity": "bar",
        "name": "Beer Kingdom"
      }
    },
    {
      "type": "node",
      "id": 4174380488,
      "lat": 54.9849203,
      "lon": 73.3742857,
      "timestamp": "2019-05-19T08:00:07Z",
      "version": 3,
      "changeset": 70403490,
      "user": "box_911",
      "uid": 351509,
      "tags": {
        "amenity": "bar",
        "name": "НППО"
      }
    },
    {
      "type": "node",
      "id": 4199896989,
      "lat": 51.1280843,
      "lon": 71.4365396,
      "timestamp": "2018-07-22T11:30:47Z",
      "version": 2,
      "changeset": 60949826,
      "user": "dansit",
      "uid": 1459583,
      "tags": {
        "amenity": "bar",
        "name": "Avtor",
        "opening_hours": "24/7"
      }
    },
    {
      "type": "node",
      "id": 4200146496,
      "lat": 55.0303655,
      "lon": 73.2713266,
      "timestamp": "2019-01-02T12:30:51Z",
      "version": 2,
      "changeset": 65956827,
      "user": "box_911",
      "uid": 351509,
      "tags": {
        "amenity": "pub",
        "level": "-1",
        "name": "DoBEERman"
      }
    },
    {
      "type": "node",
      "id": 4212031001,
      "lat": 54.9843815,
      "lon": 73.3909759,
      "timestamp": "2024-05-26T10:25:01Z",
      "version": 5,
      "changeset": 151844489,
      "user": "box_911",
      "uid": 351509,
      "tags": {
        "amenity": "bar",
        "contact:email": "vbartokio@gmail.com",
        "contact:phone": "+7 381 2498458",
        "contact:website": "https://караокеомск.рф",
        "name": "Токио",
        "opening_hours": "Mo-Su 18:00-06:00"
      }
    },
    {
      "type": "node",
      "id": 4212689490,
      "lat": 54.9764223,
      "lon": 73.3784552,
      "timestamp": "2016-05-28T17:39:20Z",
      "version": 1,
      "changeset": 39628735,
      "user": "box_911",
      "uid": 351509,
      "tags": {
        "amenity": "bar",
        "name": "Кабак \"Распутин\""
      }
    },
    {
      "type": "node",
      "id": 4290625693,
      "lat": 51.1636117,
      "lon": 71.4160101,
      "timestamp": "2018-07-09T15:15:00Z",
      "version": 2,
      "changeset": 60544347,
      "user": "dansit",
      "uid": 1459583,
      "tags": {
        "amenity": "bar",
        "name": "Line Brew"
      }
    },
    {
      "type": "node",
      "id": 4326543689,
      "lat": 51.1496942,
      "lon": 71.4266349,
      "timestamp": "2017-05-01T06:05:47Z",
      "version": 3,
      "changeset": 48297714,
      "user": "Shofer05",
      "uid": 2069921,
      "tags": {
        "amenity": "pub",
        "name": "Чечил бар"
      }
    },
    {
      "type": "node",
      "id": 4327033290,
      "lat": 51.134668,
      "lon": 71.3637057,
      "timestamp": "2016-07-29T16:08:16Z",
      "version": 1,
      "changeset": 41112983,
      "user": "Aldekenov",
      "uid": 4338235,
      "tags": {
        "amenity": "pub",
        "name": "Stolz"
      }
    },
    {
      "type": "node",
      "id": 4350098307,
      "lat": 54.9680853,
      "lon": 73.3819773,
      "timestamp": "2025-06-03T06:41:03Z",
      "version": 4,
      "changeset": 167119298,
      "user": "┳┳╄╅┵┾┾┾",
      "uid": 13860679,
      "tags": {
        "amenity": "pub",
        "name": "Пушка",
        "outdoor_seating": "terrace"
      }
    },
    {
      "type": "node",
      "id": 4350855695,
      "lat": 54.9843637,
      "lon": 73.3744598,
      "timestamp": "2016-08-15T10:07:48Z",
      "version": 1,
      "changeset": 41464319,
      "user": "whalerich",
      "uid": 183878,
      "tags": {
        "amenity": "bar",
        "name": "The SPOT"
      }
    },
    {
      "type": "node",
      "id": 4351452234,
      "lat": 54.9851636,
      "lon": 73.3745114,
      "timestamp": "2023-10-27T17:55:44Z",
      "version": 11,
      "changeset": 143223071,
      "user": "box_911",
      "uid": 351509,
      "tags": {
        "amenity": "bar",
        "level": "-1",
        "name": "Aroma room",
        "opening_hours": "18:00-07:00",
        "wheelchair": "no"
      }
    },
    {
      "type": "node",
      "id": 4351452238,
      "lat": 54.9850625,
      "lon": 73.3762052,
      "timestamp": "2023-10-08T15:44:55Z",
      "version": 5,
      "changeset": 142310603,
      "user": "box_911",
      "uid": 351509,
      "tags": {
        "amenity": "bar",
        "name": "Свое место",
        "opening_hours": "21:00-05:00"
      }
    },
    {
      "type": "node",
      "id": 4357821534,
      "lat": 54.9855639,
      "lon": 73.375331,
      "timestamp": "2023-10-06T18:08:48Z",
      "version": 4,
      "changeset": 142243718,
      "user": "box_911",
      "uid": 351509,
      "tags": {
        "amenity": "bar",
        "name": "Ленинград"
      }
    },
    {
      "type": "node",
      "id": 4504708571,
      "lat": 54.9863347,
      "lon": 73.3750171,
      "timestamp": "2023-10-06T18:08:48Z",
      "version": 3,
      "changeset": 142243718,
      "user": "box_911",
      "uid": 351509,
      "tags": {
        "amenity": "bar",
        "level": "-1",
        "name": "Абсенто Море"
      }
    },
    {
      "type": "node",
      "id": 4526674291,
      "lat": 51.6205081,
      "lon": 73.0948601,
      "timestamp": "2023-08-22T03:53:37Z",
      "version": 9,
      "changeset": 140207723,
      "user": "NorthCrab",
      "uid": 15215305,
      "tags": {
        "amenity": "bar",
        "name:ru": "Штольц"
      }
    },
    {
      "type": "node",
      "id": 4542991289,
      "lat": 51.6200586,
      "lon": 73.0937356,
      "timestamp": "2023-08-22T03:53:37Z",
      "version": 9,
      "changeset": 140207723,
      "user": "NorthCrab",
      "uid": 15215305,
      "tags": {
        "amenity": "bar",
        "name:ru": "Айсберг"
      }
    },
    {
      "type": "node",
      "id": 4580990789,
      "lat": 51.7314122,
      "lon": 75.3262778,
      "timestamp": "2023-08-22T03:53:37Z",
      "version": 9,
      "changeset": 140207723,
      "user": "NorthCrab",
      "uid": 15215305,
      "tags": {
        "amenity": "pub",
        "internet_access": "wlan",
        "name": "Beer pub",
        "name:en": "Beer pub",
        "name:kk": "Beer pub",
        "name:ru": "Beer pub",
        "opening_hours": "Mo-Su 12:00-02:00"
      }
    },
    {
      "type": "node",
      "id": 4892345887,
      "lat": 51.1546529,
      "lon": 71.4512694,
      "timestamp": "2017-06-02T15:46:42Z",
      "version": 1,
      "changeset": 49200318,
      "user": "dansit",
      "uid": 1459583,
      "tags": {
        "amenity": "pub",
        "name": "Драфт"
      }
    },
    {
      "type": "node",
      "id": 4928350073,
      "lat": 51.1852856,
      "lon": 71.4163658,
      "timestamp": "2017-06-21T09:04:40Z",
      "version": 1,
      "changeset": 49714623,
      "user": "dansit",
      "uid": 1459583,
      "tags": {
        "amenity": "bar",
        "name": "Клава давай"
      }
    },
    {
      "type": "node",
      "id": 4933998114,
      "lat": 51.160608,
      "lon": 71.4429599,
      "timestamp": "2017-06-24T11:49:22Z",
      "version": 1,
      "changeset": 49792036,
      "user": "dansit",
      "uid": 1459583,
      "tags": {
        "amenity": "pub",
        "name": "Блондер бир"
      }
    },
    {
      "type": "node",
      "id": 4938765560,
      "lat": 51.1585692,
      "lon": 71.4390224,
      "timestamp": "2017-06-27T16:23:06Z",
      "version": 1,
      "changeset": 49866732,
      "user": "dansit",
      "uid": 1459583,
      "tags": {
        "amenity": "bar",
        "name": "Кега Музик бар"
      }
    },
    {
      "type": "node",
      "id": 4938765565,
      "lat": 51.1575388,
      "lon": 71.4355476,
      "timestamp": "2023-08-22T03:53:37Z",
      "version": 9,
      "changeset": 140207723,
      "user": "NorthCrab",
      "uid": 15215305,
      "tags": {
        "amenity": "bar",
        "name": "Чарли Чаплин",
        "name:en": "Charlie Chaplin Mixology Bar",
        "name:ru": "Чарли Чаплин",
        "opening_hours": "Mo-Su 12:00-05:00",
        "website": "https://www.instagram.com/charliechaplin_astana/"
      }
    },
    {
      "type": "node",
      "id": 4955087262,
      "lat": 51.1491084,
      "lon": 71.459198,
      "timestamp": "2017-07-06T15:30:24Z",
      "version": 2,
      "changeset": 50087981,
      "user": "dansit",
      "uid": 1459583,
      "tags": {
        "amenity": "bar",
        "name": "Караоке бар Сан ремо"
      }
    },
    {
      "type": "node",
      "id": 4967354689,
      "lat": 52.2873696,
      "lon": 76.9872227,
      "timestamp": "2017-07-13T05:35:04Z",
      "version": 1,
      "changeset": 50246465,
      "user": "Little Caesar",
      "uid": 5095210,
      "tags": {
        "amenity": "bar"
      }
    },
    {
      "type": "node",
      "id": 5028257134,
      "lat": 54.9879663,
      "lon": 73.3765797,
      "timestamp": "2017-08-11T10:36:04Z",
      "version": 1,
      "changeset": 51028931,
      "user": "whalerich",
      "uid": 183878,
      "tags": {
        "amenity": "bar",
        "name": "Облака"
      }
    },
    {
      "type": "node",
      "id": 5206773123,
      "lat": 51.1978783,
      "lon": 71.3928658,
      "timestamp": "2018-07-09T15:15:00Z",
      "version": 2,
      "changeset": 60544347,
      "user": "dansit",
      "uid": 1459583,
      "tags": {
        "amenity": "bar",
        "name": "Қара көз, пивной бар",
        "opening_hours": "Mo-Su 12:00-03:00"
      }
    },
    {
      "type": "node",
      "id": 5206829121,
      "lat": 51.1953301,
      "lon": 71.3961956,
      "timestamp": "2023-08-22T03:53:37Z",
      "version": 11,
      "changeset": 140207723,
      "user": "NorthCrab",
      "uid": 15215305,
      "tags": {
        "amenity": "bar",
        "name": "Приют бодливой козы",
        "name:ru": "Приют бодливой козы",
        "opening_hours": "Fr-Sa 20:00-05:00",
        "phone": "+7 7172 38 38 29",
        "website": "http://Instagram.com/pbkbar"
      }
    },
    {
      "type": "node",
      "id": 5355932022,
      "lat": 55.2172853,
      "lon": 75.9574715,
      "timestamp": "2018-01-23T05:32:08Z",
      "version": 1,
      "changeset": 55673583,
      "user": "Денис1983",
      "uid": 7514992,
      "tags": {
        "addr:housenumber": "36",
        "addr:street": "улица Некрасова",
        "amenity": "bar",
        "name": "ПивГород"
      }
    },
    {
      "type": "node",
      "id": 5364070665,
      "lat": 54.9559247,
      "lon": 73.382597,
      "timestamp": "2019-01-28T11:01:29Z",
      "version": 2,
      "changeset": 66701802,
      "user": "whalerich",
      "uid": 183878,
      "tags": {
        "amenity": "pub",
        "name": "Пинта Паб"
      }
    },
    {
      "type": "node",
      "id": 5532770111,
      "lat": 54.9231899,
      "lon": 73.4080964,
      "timestamp": "2018-04-06T08:04:44Z",
      "version": 1,
      "changeset": 57857474,
      "user": "whalerich",
      "uid": 183878,
      "tags": {
        "amenity": "bar",
        "name": "Аляска"
      }
    },
    {
      "type": "node",
      "id": 5568417569,
      "lat": 54.9503139,
      "lon": 73.379297,
      "timestamp": "2018-04-21T07:58:19Z",
      "version": 1,
      "changeset": 58284558,
      "user": "box_911",
      "uid": 351509,
      "tags": {
        "amenity": "pub",
        "level": "-1",
        "name": "Кнайпа"
      }
    },
    {
      "type": "node",
      "id": 5602774951,
      "lat": 52.9397228,
      "lon": 70.2034948,
      "timestamp": "2018-05-07T18:21:25Z",
      "version": 1,
      "changeset": 58766732,
      "user": "Maperouse",
      "uid": 7531675,
      "tags": {
        "addr:city": "Щучинск",
        "addr:country": "KZ",
        "addr:housenumber": "23",
        "addr:street": "улица Коммунистическая",
        "amenity": "pub",
        "name": "ГУРМАН"
      }
    },
    {
      "type": "node",
      "id": 5788787053,
      "lat": 50.8199046,
      "lon": 75.6004504,
      "timestamp": "2018-07-27T05:06:11Z",
      "version": 1,
      "changeset": 61107336,
      "user": "Еркебулан Ерка",
      "uid": 8431890,
      "tags": {
        "amenity": "bar"
      }
    },
    {
      "type": "node",
      "id": 5839384088,
      "lat": 51.1290593,
      "lon": 71.4406601,
      "timestamp": "2023-08-22T03:53:37Z",
      "version": 9,
      "changeset": 140207723,
      "user": "NorthCrab",
      "uid": 15215305,
      "tags": {
        "amenity": "biergarten",
        "name:ru": "Айдана"
      }
    },
    {
      "type": "node",
      "id": 5864764591,
      "lat": 51.1592491,
      "lon": 71.4529312,
      "timestamp": "2018-08-29T05:10:23Z",
      "version": 1,
      "changeset": 62091456,
      "user": "dansit",
      "uid": 1459583,
      "tags": {
        "amenity": "bar",
        "name": "Бад панда"
      }
    },
    {
      "type": "node",
      "id": 5868199986,
      "lat": 51.1564873,
      "lon": 71.4587274,
      "timestamp": "2018-08-30T11:45:11Z",
      "version": 1,
      "changeset": 62136728,
      "user": "dansit",
      "uid": 1459583,
      "tags": {
        "amenity": "bar",
        "name": "Торта вобла",
        "opening_hours": "Mo-Su 12:00-00:00"
      }
    },
    {
      "type": "node",
      "id": 5878596085,
      "lat": 51.1049668,
      "lon": 71.4285831,
      "timestamp": "2018-09-03T13:07:12Z",
      "version": 1,
      "changeset": 62247445,
      "user": "dansit",
      "uid": 1459583,
      "tags": {
        "amenity": "bar",
        "name": "Ugly bill"
      }
    },
    {
      "type": "node",
      "id": 5887368986,
      "lat": 51.1465651,
      "lon": 71.4661747,
      "timestamp": "2018-09-06T10:00:58Z",
      "version": 1,
      "changeset": 62337403,
      "user": "dansit",
      "uid": 1459583,
      "tags": {
        "amenity": "bar",
        "name": "Парагон",
        "name:en": "Paragon"
      }
    },
    {
      "type": "node",
      "id": 5887404785,
      "lat": 51.1462627,
      "lon": 71.4666243,
      "timestamp": "2018-09-06T10:09:22Z",
      "version": 1,
      "changeset": 62337641,
      "user": "dansit",
      "uid": 1459583,
      "tags": {
        "amenity": "bar",
        "name": "Свобода"
      }
    },
    {
      "type": "node",
      "id": 5890195285,
      "lat": 51.1643697,
      "lon": 71.4205634,
      "timestamp": "2018-09-07T07:58:39Z",
      "version": 1,
      "changeset": 62366346,
      "user": "dansit",
      "uid": 1459583,
      "tags": {
        "amenity": "bar",
        "name": "Про вино",
        "opening_hours": "Mo-Su 10:00-02:00"
      }
    },
    {
      "type": "node",
      "id": 5890511000,
      "lat": 51.1653307,
      "lon": 71.440116,
      "timestamp": "2024-11-13T11:43:45Z",
      "version": 2,
      "changeset": 159087178,
      "user": "map2goPro",
      "uid": 20077207,
      "tags": {
        "amenity": "bar",
        "name": "Billiards",
        "sport": "billiards"
      }
    },
    {
      "type": "node",
      "id": 5890750686,
      "lat": 51.1674433,
      "lon": 71.4425602,
      "timestamp": "2018-09-07T13:22:49Z",
      "version": 1,
      "changeset": 62375815,
      "user": "dansit",
      "uid": 1459583,
      "tags": {
        "amenity": "bar",
        "name": "Мужик off"
      }
    },
    {
      "type": "node",
      "id": 5901706785,
      "lat": 51.1504076,
      "lon": 71.4277375,
      "timestamp": "2018-09-12T13:50:03Z",
      "version": 2,
      "changeset": 62521601,
      "user": "dansit",
      "uid": 1459583,
      "tags": {
        "amenity": "bar",
        "name": "Riverside",
        "opening_hours": "Su-We 17:00-03:00; Th 17:00-04:00; Fr-Sa 17:00-05:00"
      }
    },
    {
      "type": "node",
      "id": 5901728087,
      "lat": 51.1493309,
      "lon": 71.4261325,
      "timestamp": "2018-09-12T13:50:03Z",
      "version": 2,
      "changeset": 62521601,
      "user": "dansit",
      "uid": 1459583,
      "tags": {
        "amenity": "bar",
        "name": "Наши люди",
        "opening_hours": "Mo-Su 19:00-08:00"
      }
    },
    {
      "type": "node",
      "id": 5913449387,
      "lat": 51.1430509,
      "lon": 71.4737628,
      "timestamp": "2018-09-18T12:03:06Z",
      "version": 2,
      "changeset": 62694611,
      "user": "dansit",
      "uid": 1459583,
      "tags": {
        "amenity": "bar",
        "name": "La ruche",
        "opening_hours": "Mo-Su 12:00-02:00"
      }
    },
    {
      "type": "node",
      "id": 5913449799,
      "lat": 51.1430498,
      "lon": 71.4752564,
      "timestamp": "2018-09-18T09:40:50Z",
      "version": 1,
      "changeset": 62690839,
      "user": "dansit",
      "uid": 1459583,
      "tags": {
        "amenity": "bar",
        "name": "Шишка"
      }
    },
    {
      "type": "node",
      "id": 5913515786,
      "lat": 51.1466379,
      "lon": 71.4715393,
      "timestamp": "2018-09-18T10:17:11Z",
      "version": 1,
      "changeset": 62691877,
      "user": "dansit",
      "uid": 1459583,
      "tags": {
        "amenity": "bar",
        "name": "Канистра",
        "opening_hours": "Mo-Su 11:00-02:00"
      }
    },
    {
      "type": "node",
      "id": 5913715466,
      "lat": 51.1433462,
      "lon": 71.4703935,
      "timestamp": "2018-09-18T13:17:50Z",
      "version": 1,
      "changeset": 62696912,
      "user": "dansit",
      "uid": 1459583,
      "tags": {
        "amenity": "bar",
        "name": "В Дрова",
        "opening_hours": "11:00-4:00"
      }
    },
    {
      "type": "node",
      "id": 5918094722,
      "lat": 51.1329933,
      "lon": 71.4601162,
      "timestamp": "2018-09-20T11:10:58Z",
      "version": 1,
      "changeset": 62759095,
      "user": "dansit",
      "uid": 1459583,
      "tags": {
        "amenity": "bar",
        "name": "Pilosso"
      }
    },
    {
      "type": "node",
      "id": 5918121585,
      "lat": 51.1306625,
      "lon": 71.4592867,
      "timestamp": "2018-09-20T11:24:33Z",
      "version": 1,
      "changeset": 62759488,
      "user": "dansit",
      "uid": 1459583,
      "tags": {
        "amenity": "bar",
        "name": "Bull dog"
      }
    },
    {
      "type": "node",
      "id": 5918174792,
      "lat": 51.1285869,
      "lon": 71.4583311,
      "timestamp": "2018-09-20T14:31:23Z",
      "version": 2,
      "changeset": 62765499,
      "user": "dansit",
      "uid": 1459583,
      "tags": {
        "amenity": "bar",
        "name": "Gentles"
      }
    },
    {
      "type": "node",
      "id": 5932535275,
      "lat": 55.3260039,
      "lon": 73.0951665,
      "timestamp": "2018-09-26T19:57:51Z",
      "version": 1,
      "changeset": 62957482,
      "user": "GallantZ",
      "uid": 8857697,
      "tags": {
        "amenity": "bar",
        "name": "Beer House"
      }
    },
    {
      "type": "node",
      "id": 5966458586,
      "lat": 51.1689747,
      "lon": 71.4291276,
      "timestamp": "2018-10-08T13:21:29Z",
      "version": 1,
      "changeset": 63311445,
      "user": "dansit",
      "uid": 1459583,
      "tags": {
        "amenity": "pub",
        "name": "Dublin"
      }
    },
    {
      "type": "node",
      "id": 5966458590,
      "lat": 51.1697404,
      "lon": 71.4354354,
      "timestamp": "2018-10-08T13:21:43Z",
      "version": 1,
      "changeset": 63311445,
      "user": "dansit",
      "uid": 1459583,
      "tags": {
        "amenity": "bar",
        "name": "База"
      }
    },
    {
      "type": "node",
      "id": 5966463385,
      "lat": 51.167612,
      "lon": 71.4271482,
      "timestamp": "2018-10-08T13:21:19Z",
      "version": 1,
      "changeset": 63311445,
      "user": "dansit",
      "uid": 1459583,
      "tags": {
        "amenity": "bar",
        "name": "Sunrise N S"
      }
    },
    {
      "type": "node",
      "id": 6137608163,
      "lat": 54.9850524,
      "lon": 73.3759522,
      "timestamp": "2023-10-08T15:44:55Z",
      "version": 5,
      "changeset": 142310603,
      "user": "box_911",
      "uid": 351509,
      "tags": {
        "amenity": "bar",
        "level": "1",
        "name": "Одно вино",
        "opening_hours": "Mo-Th 15:00-24:00; Fr-Su 15:00-01:00"
      }
    },
    {
      "type": "node",
      "id": 6176049985,
      "lat": 51.1617164,
      "lon": 71.4554651,
      "timestamp": "2023-08-22T03:53:37Z",
      "version": 10,
      "changeset": 140207723,
      "user": "NorthCrab",
      "uid": 15215305,
      "tags": {
        "amenity": "bar",
        "cuisine": "chinese",
        "internet_access": "wlan",
        "name": "\"Матильда\"",
        "name:en": "Matilda",
        "name:ru": "Матильда",
        "opening_hours": "Mo-Su 14:00-01:00",
        "phone": "+77789804554",
        "website": "https://instagram.com/matilda_bar_mag_piva"
      }
    },
    {
      "type": "node",
      "id": 6188455623,
      "lat": 54.9835698,
      "lon": 73.3762043,
      "timestamp": "2023-10-08T13:41:56Z",
      "version": 5,
      "changeset": 142305662,
      "user": "box_911",
      "uid": 351509,
      "tags": {
        "amenity": "pub",
        "cuisine": "gastropub",
        "level": "-1",
        "name": "Железный мост",
        "opening_hours": "Mo-Th,Su 12:00-24:00; Fr, Sa 12:00-04:00",
        "outdoor_seating": "no",
        "wheelchair": "no"
      }
    },
    {
      "type": "node",
      "id": 6404747238,
      "lat": 51.125008,
      "lon": 71.4319065,
      "timestamp": "2019-04-14T17:24:28Z",
      "version": 1,
      "changeset": 69209066,
      "user": "Ksusha Lapotnikova",
      "uid": 9620242,
      "tags": {
        "amenity": "bar",
        "name": "Ozen"
      }
    },
    {
      "type": "node",
      "id": 6439075774,
      "lat": 51.1578817,
      "lon": 71.4420606,
      "timestamp": "2019-04-30T15:56:04Z",
      "version": 1,
      "changeset": 69740164,
      "user": "Leshiy2k",
      "uid": 407105,
      "tags": {
        "amenity": "bar",
        "name": "Пивной магазин \"Центр Пива\""
      }
    },
    {
      "type": "node",
      "id": 6443541085,
      "lat": 51.130221,
      "lon": 71.4149918,
      "timestamp": "2019-05-02T17:24:16Z",
      "version": 1,
      "changeset": 69813648,
      "user": "Ksusha Lapotnikova",
      "uid": 9620242,
      "tags": {
        "amenity": "bar",
        "name": "vzлётный"
      }
    },
    {
      "type": "node",
      "id": 6483460449,
      "lat": 54.9847325,
      "lon": 73.3744952,
      "timestamp": "2024-07-29T08:29:53Z",
      "version": 5,
      "changeset": 154551198,
      "user": "kate_rocketdata",
      "uid": 12100948,
      "tags": {
        "amenity": "bar",
        "contact:phone": "+7 381 2984038;+7 983 5684038",
        "contact:website": "https://ebar.clients.site",
        "level": "-1",
        "name": "E'bar",
        "opening_hours": "Fr-Sa 18:00-08:00; Mo-Th,Su 18:00-06:00"
      }
    },
    {
      "type": "node",
      "id": 6609280385,
      "lat": 51.1290445,
      "lon": 71.4331711,
      "timestamp": "2019-07-12T10:07:34Z",
      "version": 1,
      "changeset": 72171637,
      "user": "Emma Tyers",
      "uid": 7402095,
      "tags": {
        "amenity": "bar",
        "name:en": "Sheff Bar and Kitchen"
      }
    },
    {
      "type": "node",
      "id": 6698615689,
      "lat": 51.1476868,
      "lon": 71.4156581,
      "timestamp": "2023-08-22T03:53:37Z",
      "version": 10,
      "changeset": 140207723,
      "user": "NorthCrab",
      "uid": 15215305,
      "tags": {
        "addr:city": "Astana",
        "addr:housenumber": "2",
        "addr:postcode": "010000",
        "addr:street": "Коргалжинское шоссе",
        "amenity": "bar",
        "cuisine": "asian",
        "internet_access": "wlan",
        "min_age": "18",
        "name": "Restobar D51",
        "name:en": "Restobar D51",
        "name:ru": "Restobar D51",
        "opening_hours": "Mo-Su 16:00-04:00",
        "phone": "+77775552060"
      }
    },
    {
      "type": "node",
      "id": 7119845885,
      "lat": 51.1426136,
      "lon": 71.4955848,
      "timestamp": "2020-01-09T15:57:40Z",
      "version": 1,
      "changeset": 79384187,
      "user": "Sherlock Smoke",
      "uid": 10638161,
      "tags": {
        "amenity": "bar",
        "email": "sherlock.smoke.house@gmail.com",
        "name": "Шерлок смоук хаус",
        "name:en": "Sherlock Smoke House",
        "opening_hours": "Mo-Su 15:00-02:00",
        "phone": "+77756349360",
        "website": "https://instagram.com/sherlock_smoke_house"
      }
    },
    {
      "type": "node",
      "id": 7621607085,
      "lat": 51.7357217,
      "lon": 75.3321484,
      "timestamp": "2023-08-22T03:53:37Z",
      "version": 10,
      "changeset": 140207723,
      "user": "NorthCrab",
      "uid": 15215305,
      "tags": {
        "amenity": "bar",
        "name": "HardBar",
        "name:en": "HardBar",
        "name:ru": "ХардБар"
      }
    },
    {
      "type": "node",
      "id": 7660850301,
      "lat": 51.7261588,
      "lon": 75.3238884,
      "timestamp": "2023-08-22T03:53:37Z",
      "version": 11,
      "changeset": 140207723,
      "user": "NorthCrab",
      "uid": 15215305,
      "tags": {
        "amenity": "pub",
        "name": "Волна",
        "name:ru": "Волна"
      }
    },
    {
      "type": "node",
      "id": 7907644085,
      "lat": 51.7242409,
      "lon": 75.3305686,
      "timestamp": "2023-08-22T03:53:37Z",
      "version": 10,
      "changeset": 140207723,
      "user": "NorthCrab",
      "uid": 15215305,
      "tags": {
        "amenity": "bar",
        "name": "Гризли",
        "name:en": "Grizzly",
        "name:ru": "Гризли"
      }
    },
    {
      "type": "node",
      "id": 8237697402,
      "lat": 51.114141,
      "lon": 71.422055,
      "timestamp": "2024-05-06T09:47:45Z",
      "version": 11,
      "changeset": 150956193,
      "user": "Evgeniya_rocketdata",
      "uid": 17513069,
      "tags": {
        "amenity": "bar",
        "contact:instagram": "https://www.instagram.com/pinta_astana/",
        "contact:phone": "+7 777 100 4616",
        "contact:website": "http://pinta.kz/",
        "name": "Пинта",
        "opening_hours": "Fr-Sa 12:00-03:00; Mo-Th,Su 12:00-02:00",
        "operator": "ТОО \"Проект Пинта Астана\""
      }
    },
    {
      "type": "node",
      "id": 8237697403,
      "lat": 51.130495,
      "lon": 71.413257,
      "timestamp": "2024-05-06T09:47:45Z",
      "version": 11,
      "changeset": 150956193,
      "user": "Evgeniya_rocketdata",
      "uid": 17513069,
      "tags": {
        "amenity": "bar",
        "contact:instagram": "https://www.instagram.com/pinta_astana/",
        "contact:phone": "+7 707 307 5303",
        "contact:website": "http://pinta.kz/",
        "name": "Пинта",
        "opening_hours": "Fr-Sa 12:00-03:00; Mo-Th,Su 12:00-02:00",
        "operator": "ИП Степанчук"
      }
    },
    {
      "type": "node",
      "id": 8237697404,
      "lat": 51.089228,
      "lon": 71.407533,
      "timestamp": "2022-09-19T12:57:39Z",
      "version": 8,
      "changeset": 126371949,
      "user": "Anna_rocketdata",
      "uid": 16805770,
      "tags": {
        "amenity": "bar",
        "contact:instagram": "https://www.instagram.com/pinta_astana/",
        "contact:phone": "+7 778 196 2747",
        "contact:website": "http://pinta.kz/",
        "name": "Пинта",
        "opening_hours": "Fr-Sa 10:00-02:00;Mo-Th,Su 10:00-24:00",
        "operator": "ТОО \"Проект Пинта Астана\""
      }
    },
    {
      "type": "node",
      "id": 8237697406,
      "lat": 51.1645961,
      "lon": 71.4256167,
      "timestamp": "2024-06-12T11:08:08Z",
      "version": 11,
      "changeset": 152582068,
      "user": "Evgeniya_rocketdata",
      "uid": 17513069,
      "tags": {
        "amenity": "bar",
        "contact:instagram": "https://www.instagram.com/pinta_astana/",
        "contact:phone": "+7 701 550 5144",
        "contact:website": "http://pinta.kz/",
        "name": "Пинта",
        "opening_hours": "Mo-Th,Su 12:00-02:00; Fr-Sa 12:00-03:00",
        "operator": "ИП Ушенина"
      }
    },
    {
      "type": "node",
      "id": 8237697407,
      "lat": 51.145355,
      "lon": 71.413771,
      "timestamp": "2022-09-19T12:57:39Z",
      "version": 9,
      "changeset": 126371949,
      "user": "Anna_rocketdata",
      "uid": 16805770,
      "tags": {
        "amenity": "bar",
        "contact:instagram": "https://www.instagram.com/pinta_astana/",
        "contact:phone": "+7 702 360 5144",
        "contact:website": "http://pinta.kz/",
        "name": "Пинта",
        "opening_hours": "Fr-Sa 10:00-02:00;Mo-Th,Su 10:00-24:00",
        "operator": "ТОО \"Проект Пинта Астана\""
      }
    },
    {
      "type": "node",
      "id": 8297003159,
      "lat": 51.7371913,
      "lon": 75.3206509,
      "timestamp": "2025-01-15T03:54:36Z",
      "version": 8,
      "changeset": 161365814,
      "user": "Muad_Dib",
      "uid": 9301236,
      "tags": {
        "amenity": "bar",
        "name": "Апельсин",
        "name:ru": "Апельсин"
      }
    },
    {
      "type": "node",
      "id": 8346039218,
      "lat": 51.1066481,
      "lon": 71.3982946,
      "timestamp": "2024-01-31T08:34:25Z",
      "version": 8,
      "changeset": 146893416,
      "user": "┳┳╄╅┵┾┾┾",
      "uid": 13860679,
      "tags": {
        "amenity": "bar",
        "cuisine": "international;regional",
        "internet_access": "wlan",
        "name:en": "CENTRAL",
        "name:ru": "Централ",
        "opening_hours": "Mo-Su 11:00-00:00"
      }
    },
    {
      "type": "node",
      "id": 8463384017,
      "lat": 54.9953695,
      "lon": 73.2726967,
      "timestamp": "2021-02-27T11:12:26Z",
      "version": 1,
      "changeset": 100092607,
      "user": "Влaдимиp",
      "uid": 12753027,
      "tags": {
        "amenity": "bar",
        "email": "loft_hookah_lounge_bar@mail.ru",
        "name:en": "LOFT",
        "opening_hours": "Su-Th 17:00-01:00; Fr-Sa 18:00-04:00",
        "phone": "89620552525",
        "website": "https://instagram.com/loft_lounge_omsk"
      }
    },
    {
      "type": "node",
      "id": 8524912945,
      "lat": 54.9954185,
      "lon": 73.2727585,
      "timestamp": "2021-03-19T10:54:44Z",
      "version": 2,
      "changeset": 101322227,
      "user": "iWowik",
      "uid": 481934,
      "tags": {
        "addr:city": "Омск",
        "addr:housenumber": "10В",
        "addr:postcode": "644081",
        "addr:street": "улица Лукашевича",
        "amenity": "bar",
        "min_age": "18",
        "name": "LOFT_Lounge_Omsk",
        "opening_hours": "Mo-Th 17:00-01:00, Fr-Sa 18:00-04:00, Su 17:00-01:00",
        "website": "https://www.facebook.com/LoungeLOFT"
      }
    },
    {
      "type": "node",
      "id": 8595205064,
      "lat": 51.12467,
      "lon": 71.43459,
      "timestamp": "2024-05-06T09:47:45Z",
      "version": 10,
      "changeset": 150956193,
      "user": "Evgeniya_rocketdata",
      "uid": 17513069,
      "tags": {
        "amenity": "bar",
        "contact:instagram": "https://www.instagram.com/pinta_astana/",
        "contact:phone": "+7 778 445 9895",
        "contact:website": "http://pinta.kz/",
        "name": "Пинта",
        "opening_hours": "Fr-Sa 12:00-03:00; Mo-Th,Su 12:00-02:00",
        "operator": "ЦОЙ"
      }
    },
    {
      "type": "node",
      "id": 8635421959,
      "lat": 54.985258,
      "lon": 73.371376,
      "timestamp": "2021-04-16T13:38:36Z",
      "version": 1,
      "changeset": 103063739,
      "user": "kate_rocketdata",
      "uid": 12100948,
      "tags": {
        "amenity": "bar",
        "contact:email": "phoenixlounge55@gmail.com",
        "contact:facebook": "https://facebook.com/Phoenix-Cyberlounge-101805405287635",
        "contact:instagram": "https://instagram.com/phoenix_cyberlounge",
        "contact:phone": "+7 913 1466789",
        "contact:vk": "https://vk.com/phoenixlounge55",
        "name": "Cyberlounge",
        "opening_hours": "Fr-Sa 14:00-04:00;Mo-Th,Su 14:00-02:00",
        "operator": "Cyberlounge"
      }
    },
    {
      "type": "node",
      "id": 8734534894,
      "lat": 54.9846174,
      "lon": 73.3733438,
      "timestamp": "2023-11-21T20:38:22Z",
      "version": 2,
      "changeset": 144302143,
      "user": "box_911",
      "uid": 351509,
      "tags": {
        "air_conditioning": "yes",
        "amenity": "bar",
        "internet_access": "yes",
        "internet_access:fee": "no",
        "level": "1",
        "name": "Pine bar",
        "opening_hours": "Mo-Th 18:00-01:00; Fr-Sa 18:00-04:00; Su 18:00-01:00",
        "outdoor_seating": "no",
        "smoking": "no",
        "toilets": "yes",
        "toilets:access": "customers",
        "wheelchair": "no"
      }
    },
    {
      "type": "node",
      "id": 8752493702,
      "lat": 55.025454,
      "lon": 73.3155,
      "timestamp": "2021-05-21T09:43:48Z",
      "version": 1,
      "changeset": 105079776,
      "user": "kate_rocketdata",
      "uid": 12100948,
      "tags": {
        "amenity": "bar",
        "contact:phone": "+7 999 4550187",
        "name": "Кроличья Нора",
        "opening_hours": "Fr-Sa 15:00-02:00;Mo-Th 15:00-00:00;Su 15:00-01:00"
      }
    },
    {
      "type": "node",
      "id": 8839190954,
      "lat": 54.97476,
      "lon": 73.379481,
      "timestamp": "2021-06-16T15:10:16Z",
      "version": 1,
      "changeset": 106476782,
      "user": "kate_rocketdata",
      "uid": 12100948,
      "tags": {
        "amenity": "bar",
        "contact:phone": "+7 933 4439349",
        "name": "Easyhook",
        "opening_hours": "Fr-Sa 14:00-06:00;Mo-Th,Su 14:00-03:00"
      }
    },
    {
      "type": "node",
      "id": 9287406809,
      "lat": 54.9899899,
      "lon": 73.301556,
      "timestamp": "2022-11-10T07:20:58Z",
      "version": 3,
      "changeset": 128717880,
      "user": "whalerich",
      "uid": 183878,
      "tags": {
        "amenity": "bar",
        "check_date:opening_hours": "2022-11-09",
        "name": "Haze",
        "opening_hours:signed": "no",
        "smoke:hookan": "yes",
        "smoking": "dedicated"
      }
    },
    {
      "type": "node",
      "id": 10014702352,
      "lat": 54.9852415,
      "lon": 73.3156095,
      "timestamp": "2022-09-11T03:15:13Z",
      "version": 1,
      "changeset": 126034826,
      "user": "whalerich",
      "uid": 183878,
      "tags": {
        "amenity": "bar",
        "check_date": "2022-09-11",
        "name": "Бар 24"
      }
    },
    {
      "type": "node",
      "id": 10170592263,
      "lat": 51.1224522,
      "lon": 71.4286878,
      "timestamp": "2022-11-09T05:10:46Z",
      "version": 1,
      "changeset": 128667309,
      "user": "Mateusz Pawlowski",
      "uid": 296347,
      "tags": {
        "air_conditioning": "yes",
        "amenity": "bar",
        "level": "2",
        "min_age": "25",
        "name": "Bla Bla Bar",
        "payment:contactless": "yes",
        "payment:credit_cards": "yes",
        "payment:debit_cards": "yes",
        "payment:electronic_purses": "yes",
        "payment:mastercard": "yes",
        "payment:visa": "yes"
      }
    },
    {
      "type": "node",
      "id": 10709213220,
      "lat": 54.9851692,
      "lon": 73.3714602,
      "timestamp": "2025-01-03T15:30:46Z",
      "version": 2,
      "changeset": 160954263,
      "user": "box_911",
      "uid": 351509,
      "tags": {
        "air_conditioning": "yes",
        "amenity": "bar",
        "internet_access": "wlan",
        "internet_access:ssid": "Молоко&Дым Гости",
        "level": "2",
        "min_age": "18",
        "name": "Молоко & Дым",
        "opening_hours": "24/7",
        "outdoor_seating": "no",
        "payment:cash": "yes",
        "payment:credit_cards": "yes",
        "payment:maestro": "yes",
        "payment:mastercard": "yes",
        "payment:visa": "yes",
        "payment:visa_electron": "yes",
        "phone": "478-376",
        "start_date": "2018-08-15",
        "website": "https://molokodm.ru"
      }
    },
    {
      "type": "node",
      "id": 10798920167,
      "lat": 51.111794,
      "lon": 71.4395858,
      "timestamp": "2024-02-26T12:32:16Z",
      "version": 3,
      "changeset": 147930000,
      "user": "Evgeniya_rocketdata",
      "uid": 17513069,
      "tags": {
        "amenity": "bar",
        "contact:phone": "+7 701 027 9797",
        "contact:website": "https://goodproject.kz/",
        "name": "Lilou",
        "opening_hours": "Mo-Th,Su 12:00-01:00; Fr-Sa 12:00-02:00"
      }
    },
    {
      "type": "node",
      "id": 10798945978,
      "lat": 51.1279789,
      "lon": 71.4614491,
      "timestamp": "2023-12-04T09:59:55Z",
      "version": 3,
      "changeset": 144748154,
      "user": "Evgeniya_rocketdata",
      "uid": 17513069,
      "tags": {
        "amenity": "bar",
        "contact:email": "malena.bar.gp@gmail.com",
        "contact:instagram": "https://instagram.com/bar_malena",
        "contact:phone": "+7 777 715 9977",
        "contact:website": "https://goodproject.kz/",
        "name": "Malena",
        "opening_hours": "Mo-We 15:00-01:00, Th 15:00-02:00, Fr-Sa 17:00-02:00, Su 17:00-01:00"
      }
    },
    {
      "type": "node",
      "id": 10821405370,
      "lat": 52.3476543,
      "lon": 71.8815056,
      "timestamp": "2023-04-18T08:48:24Z",
      "version": 2,
      "changeset": 135048180,
      "user": "weed514",
      "uid": 3272290,
      "tags": {
        "amenity": "bar",
        "name": "Крафт",
        "name:en": "Kraft"
      }
    },
    {
      "type": "node",
      "id": 11051454560,
      "lat": 51.1188668,
      "lon": 71.4603888,
      "timestamp": "2023-07-17T17:19:34Z",
      "version": 1,
      "changeset": 138631678,
      "user": "Marat0206",
      "uid": 19895466,
      "tags": {
        "addr:city": "Нур-Султан",
        "addr:housenumber": "3",
        "addr:postcode": "010000",
        "addr:street": "улица Шамши Калдаяков",
        "amenity": "bar",
        "min_age": "18",
        "mobile": "+77075514541",
        "name": "Мята Lounge Highvill Ishim",
        "opening_hours": "Mo-Su 16:00-04:00",
        "website": "https://myatahi.kz"
      }
    },
    {
      "type": "node",
      "id": 11083699462,
      "lat": 51.1713704,
      "lon": 71.4288441,
      "timestamp": "2025-10-23T04:20:28Z",
      "version": 2,
      "changeset": 173654399,
      "user": "dansit",
      "uid": 1459583,
      "tags": {
        "amenity": "bar",
        "name": "Jimmy Karaoké-bar"
      }
    },
    {
      "type": "node",
      "id": 11097228305,
      "lat": 55.2967736,
      "lon": 73.0768518,
      "timestamp": "2023-08-07T14:47:46Z",
      "version": 1,
      "changeset": 139569191,
      "user": "Alexey Graf",
      "uid": 10356394,
      "tags": {
        "amenity": "bar"
      }
    },
    {
      "type": "node",
      "id": 11131442513,
      "lat": 51.1318873,
      "lon": 71.3895513,
      "timestamp": "2023-08-20T12:32:38Z",
      "version": 1,
      "changeset": 140130673,
      "user": "IldarKZ",
      "uid": 462957,
      "tags": {
        "amenity": "bar",
        "check_date": "2023-08-15",
        "name": "Revival"
      }
    },
    {
      "type": "node",
      "id": 11227582237,
      "lat": 51.1584052,
      "lon": 71.4331725,
      "timestamp": "2023-09-29T16:06:38Z",
      "version": 1,
      "changeset": 141920540,
      "user": "Anatoliy1956",
      "uid": 19863732,
      "tags": {
        "amenity": "bar"
      }
    },
    {
      "type": "node",
      "id": 11248207517,
      "lat": 54.9813907,
      "lon": 73.3766887,
      "timestamp": "2023-10-08T13:41:56Z",
      "version": 1,
      "changeset": 142305662,
      "user": "box_911",
      "uid": 351509,
      "tags": {
        "amenity": "bar",
        "level": "-1",
        "name": "Opera",
        "wheelchair": "no"
      }
    },
    {
      "type": "node",
      "id": 11345949792,
      "lat": 51.094113,
      "lon": 71.4402293,
      "timestamp": "2023-11-13T09:21:43Z",
      "version": 1,
      "changeset": 143961608,
      "user": "Evgeniya_rocketdata",
      "uid": 17513069,
      "tags": {
        "amenity": "bar",
        "contact:email": "golpas@golpas.com",
        "contact:instagram": "https://instagram.com/golpas_sportbars",
        "contact:phone": "+7 701 070 5479",
        "contact:website": "https://golpas.cafe",
        "name": "Golpas",
        "opening_hours": "Mo-Su 12:00-01:00"
      }
    },
    {
      "type": "node",
      "id": 11345949793,
      "lat": 51.1402986,
      "lon": 71.3807568,
      "timestamp": "2023-11-13T09:21:43Z",
      "version": 1,
      "changeset": 143961608,
      "user": "Evgeniya_rocketdata",
      "uid": 17513069,
      "tags": {
        "amenity": "bar",
        "contact:email": "golpas@golpas.com",
        "contact:instagram": "https://instagram.com/golpas_sportbars",
        "contact:phone": "+7 702 623 8324",
        "contact:website": "https://golpas.cafe",
        "name": "Golpas",
        "opening_hours": "Mo-Su 12:00-01:00"
      }
    },
    {
      "type": "node",
      "id": 11345949794,
      "lat": 51.133284,
      "lon": 71.4602923,
      "timestamp": "2024-06-26T08:05:41Z",
      "version": 2,
      "changeset": 153189507,
      "user": "Evgeniya_rocketdata",
      "uid": 17513069,
      "tags": {
        "amenity": "bar",
        "contact:email": "golpas@golpas.com",
        "contact:instagram": "https://instagram.com/golpas_sportbars",
        "contact:phone": "+7 778 330 6859",
        "contact:website": "https://golpas.cafe",
        "name": "Golpas",
        "opening_hours": "Mo-Su 13:00-02:00"
      }
    },
    {
      "type": "node",
      "id": 11345949795,
      "lat": 51.1117603,
      "lon": 71.4120689,
      "timestamp": "2024-12-04T13:40:53Z",
      "version": 3,
      "changeset": 159919559,
      "user": "Evgeniya_rocketdata",
      "uid": 17513069,
      "tags": {
        "amenity": "bar",
        "contact:email": "golpas@golpas.com",
        "contact:instagram": "https://instagram.com/golpas_sportbars",
        "contact:phone": "+7 705 711 5016;+7 7172 25 23 88;+7 775 477 2220",
        "contact:website": "https://golpas.cafe",
        "name": "Golpas",
        "opening_hours": "Mo-Su 12:00-01:00"
      }
    },
    {
      "type": "node",
      "id": 11345949796,
      "lat": 51.0911515,
      "lon": 71.4276338,
      "timestamp": "2023-11-13T09:21:43Z",
      "version": 1,
      "changeset": 143961608,
      "user": "Evgeniya_rocketdata",
      "uid": 17513069,
      "tags": {
        "amenity": "bar",
        "contact:email": "golpas@golpas.com",
        "contact:instagram": "https://instagram.com/golpas_sportbars",
        "contact:phone": "+7 7172 52 21 39;+7 778 677 8221",
        "contact:website": "https://golpas.cafe",
        "name": "Golpas",
        "opening_hours": "Mo-Su 12:00-01:00"
      }
    },
    {
      "type": "node",
      "id": 11345949797,
      "lat": 51.1192867,
      "lon": 71.4747601,
      "timestamp": "2023-11-13T09:21:43Z",
      "version": 1,
      "changeset": 143961608,
      "user": "Evgeniya_rocketdata",
      "uid": 17513069,
      "tags": {
        "amenity": "bar",
        "contact:email": "golpas@golpas.com",
        "contact:instagram": "https://instagram.com/golpas_sportbars",
        "contact:phone": "+7 707 304 0247;+7 7172 25 84 45",
        "contact:website": "https://golpas.cafe",
        "name": "Golpas",
        "opening_hours": "Mo-Su 12:00-01:00"
      }
    },
    {
      "type": "node",
      "id": 11345949798,
      "lat": 51.0974517,
      "lon": 71.4077211,
      "timestamp": "2024-01-22T10:28:36Z",
      "version": 2,
      "changeset": 146546831,
      "user": "Evgeniya_rocketdata",
      "uid": 17513069,
      "tags": {
        "amenity": "bar",
        "contact:email": "golpas@golpas.com",
        "contact:instagram": "https://instagram.com/golpas_sportbars",
        "contact:phone": "+7 702 928 0901;+7 7172 25 85 38",
        "contact:website": "https://golpas.cafe",
        "name": "Golpas",
        "opening_hours": "Mo-Su 12:00-01:00"
      }
    },
    {
      "type": "node",
      "id": 11345949799,
      "lat": 51.1052128,
      "lon": 71.4293611,
      "timestamp": "2023-11-13T09:21:43Z",
      "version": 1,
      "changeset": 143961608,
      "user": "Evgeniya_rocketdata",
      "uid": 17513069,
      "tags": {
        "amenity": "bar",
        "contact:email": "golpas@golpas.com",
        "contact:instagram": "https://instagram.com/golpas_sportbars",
        "contact:phone": "+7 707 304 0292;+7 7172 25 18 19",
        "contact:website": "https://golpas.cafe",
        "name": "Golpas",
        "opening_hours": "Mo-Su 12:00-01:00"
      }
    },
    {
      "type": "node",
      "id": 11345949801,
      "lat": 51.1168724,
      "lon": 71.4380032,
      "timestamp": "2023-11-13T09:21:43Z",
      "version": 1,
      "changeset": 143961608,
      "user": "Evgeniya_rocketdata",
      "uid": 17513069,
      "tags": {
        "amenity": "bar",
        "contact:email": "golpas@golpas.com",
        "contact:instagram": "https://instagram.com/golpas_sportbars",
        "contact:phone": "+7 707 304 0019;+7 7172 51 57 93",
        "contact:website": "https://golpas.cafe",
        "name": "Golpas",
        "opening_hours": "Mo-Su 12:00-01:00"
      }
    },
    {
      "type": "node",
      "id": 11345949802,
      "lat": 51.1301482,
      "lon": 71.4364422,
      "timestamp": "2023-11-13T09:21:43Z",
      "version": 1,
      "changeset": 143961608,
      "user": "Evgeniya_rocketdata",
      "uid": 17513069,
      "tags": {
        "amenity": "bar",
        "contact:email": "golpas@golpas.com",
        "contact:instagram": "https://instagram.com/golpas_sportbars",
        "contact:phone": "+7 707 304 0605;+7 7172 51 61 85",
        "contact:website": "https://golpas.cafe",
        "name": "Golpas",
        "opening_hours": "Mo-Su 12:00-01:00"
      }
    },
    {
      "type": "node",
      "id": 11345949803,
      "lat": 51.1676135,
      "lon": 71.4418226,
      "timestamp": "2024-04-18T13:16:06Z",
      "version": 2,
      "changeset": 150174966,
      "user": "Evgeniya_rocketdata",
      "uid": 17513069,
      "tags": {
        "amenity": "bar",
        "contact:email": "golpas@golpas.com",
        "contact:instagram": "https://instagram.com/golpas_sportbars",
        "contact:phone": "+7 7172 32 99 12;+7 778 244 3862",
        "contact:website": "https://golpas.cafe",
        "name": "Golpas",
        "opening_hours": "Mo-Su 12:00-01:00"
      }
    },
    {
      "type": "node",
      "id": 11345949804,
      "lat": 51.1180509,
      "lon": 71.4542575,
      "timestamp": "2023-11-13T09:21:43Z",
      "version": 1,
      "changeset": 143961608,
      "user": "Evgeniya_rocketdata",
      "uid": 17513069,
      "tags": {
        "amenity": "bar",
        "contact:email": "golpas@golpas.com",
        "contact:instagram": "https://instagram.com/golpas_sportbars",
        "contact:phone": "+7 7172 75 54 08;+7 778 052 2446",
        "contact:website": "https://golpas.cafe",
        "name": "Golpas",
        "opening_hours": "Mo-Su 12:00-01:00"
      }
    },
    {
      "type": "node",
      "id": 11618281366,
      "lat": 54.9125317,
      "lon": 71.2672862,
      "timestamp": "2024-02-14T08:10:31Z",
      "version": 2,
      "changeset": 147439129,
      "user": "Анастасия Рягузова",
      "uid": 20506424,
      "tags": {
        "amenity": "biergarten",
        "name": "Магазин Пивоман"
      }
    },
    {
      "type": "node",
      "id": 11898123069,
      "lat": 51.112961,
      "lon": 71.4269864,
      "timestamp": "2024-05-12T07:20:41Z",
      "version": 1,
      "changeset": 151212053,
      "user": "SEVEN",
      "uid": 127989,
      "tags": {
        "amenity": "bar",
        "name:en": "KARAOKE BAR"
      }
    },
    {
      "type": "node",
      "id": 11898885270,
      "lat": 51.1163602,
      "lon": 71.4282893,
      "timestamp": "2025-04-18T03:47:54Z",
      "version": 2,
      "changeset": 165094713,
      "user": "SEVEN",
      "uid": 127989,
      "tags": {
        "amenity": "bar",
        "name": "REPUBLICA"
      }
    },
    {
      "type": "node",
      "id": 11903442969,
      "lat": 51.1150769,
      "lon": 71.4280401,
      "timestamp": "2024-05-14T09:13:39Z",
      "version": 1,
      "changeset": 151302296,
      "user": "SEVEN",
      "uid": 127989,
      "tags": {
        "amenity": "bar",
        "name:ru": "Молекула"
      }
    },
    {
      "type": "node",
      "id": 11920102269,
      "lat": 51.1247205,
      "lon": 71.4339755,
      "timestamp": "2024-05-20T16:02:36Z",
      "version": 1,
      "changeset": 151588092,
      "user": "SEVEN",
      "uid": 127989,
      "tags": {
        "amenity": "bar",
        "name": "Celentano retro bar"
      }
    },
    {
      "type": "node",
      "id": 11950128620,
      "lat": 51.1726126,
      "lon": 71.4188549,
      "timestamp": "2024-06-01T14:02:30Z",
      "version": 1,
      "changeset": 152122876,
      "user": "toby3d",
      "uid": 12486704,
      "tags": {
        "addr:housenumber": "25",
        "addr:street": "Бейбитшилик",
        "amenity": "bar",
        "contact:email": "draft.mira@mail.ru",
        "name": "Craft",
        "opening_hours": "Mo-Su 12:00-04:00",
        "phone": "+77172910590"
      }
    },
    {
      "type": "node",
      "id": 11983622183,
      "lat": 54.99743,
      "lon": 73.34562,
      "timestamp": "2025-08-23T07:13:52Z",
      "version": 3,
      "changeset": 170863176,
      "user": "danilshvalov",
      "uid": 16430474,
      "tags": {
        "amenity": "bar",
        "name": "Берёза",
        "name:en": "Beerëza",
        "name:ru": "Берёза",
        "opening_hours": "11:30-24:00",
        "outdoor_seating": "yes",
        "phone": "+7 3812 343460"
      }
    },
    {
      "type": "node",
      "id": 12051422075,
      "lat": 55.0320708,
      "lon": 73.3201248,
      "timestamp": "2024-07-13T15:21:36Z",
      "version": 1,
      "changeset": 153898290,
      "user": "box_911",
      "uid": 351509,
      "tags": {
        "amenity": "biergarten",
        "indoor_seating": "no",
        "smoking": "no",
        "toilets": "no",
        "wheelchair": "yes"
      }
    },
    {
      "type": "node",
      "id": 12051422116,
      "lat": 55.0319763,
      "lon": 73.3200656,
      "timestamp": "2024-07-13T15:21:36Z",
      "version": 1,
      "changeset": 153898290,
      "user": "box_911",
      "uid": 351509,
      "tags": {
        "amenity": "biergarten",
        "indoor_seating": "no",
        "smoking": "no",
        "toilets": "no",
        "wheelchair": "yes"
      }
    },
    {
      "type": "node",
      "id": 12096662585,
      "lat": 54.9877041,
      "lon": 73.3769721,
      "timestamp": "2024-09-30T08:25:01Z",
      "version": 2,
      "changeset": 157284862,
      "user": "kate_rocketdata",
      "uid": 12100948,
      "tags": {
        "amenity": "bar",
        "contact:email": "bar.blackdoors@mail.ru",
        "contact:phone": "+7 904 3241101",
        "contact:website": "https://blackdoors.info",
        "name": "BlackDoors",
        "opening_hours": "Mo-Su 18:00-06:00"
      }
    },
    {
      "type": "node",
      "id": 12096662589,
      "lat": 54.9842075,
      "lon": 73.3746171,
      "timestamp": "2025-02-10T08:42:41Z",
      "version": 2,
      "changeset": 162340618,
      "user": "kate_rocketdata",
      "uid": 12100948,
      "tags": {
        "amenity": "bar",
        "contact:email": "gostyrestobar@mail.ru",
        "contact:phone": "+7 381 2478080;+7 381 2483535;+7 902 6772770",
        "name": "Gosty",
        "opening_hours": "Fr-Sa 18:00-06:00; Tu-Th,Su 18:00-01:00"
      }
    },
    {
      "type": "node",
      "id": 12620064059,
      "lat": 54.9878488,
      "lon": 73.3765992,
      "timestamp": "2025-02-26T06:59:22Z",
      "version": 1,
      "changeset": 162958836,
      "user": "kate_rocketdata",
      "uid": 12100948,
      "tags": {
        "amenity": "bar",
        "contact:email": "molodostprostit2024@mail.ru",
        "contact:phone": "+7 933 1866630",
        "name": "Молодость простит",
        "opening_hours": "Fr-Sa 18:00-06:00; Mo-Th,Su 18:00-03:00"
      }
    },
    {
      "type": "node",
      "id": 12686474701,
      "lat": 51.1285435,
      "lon": 71.4061475,
      "timestamp": "2025-04-01T16:03:22Z",
      "version": 2,
      "changeset": 164382329,
      "user": "b-jazz-bot",
      "uid": 9451067,
      "tags": {
        "addr:housenumber": "30a",
        "addr:postcode": "010000",
        "addr:street": "проспект Туран",
        "amenity": "bar",
        "contact:instagram": "brewery.rest",
        "cuisine": "steak_house",
        "internet_access": "wlan",
        "name": "Brewery",
        "opening_hours": "Su-Th 12:00-02:00; Fr-Sa 12:00-03:00",
        "website": "https://brewery.kz/"
      }
    },
    {
      "type": "node",
      "id": 12710936901,
      "lat": 52.0455252,
      "lon": 76.9288416,
      "timestamp": "2025-03-30T00:26:33Z",
      "version": 1,
      "changeset": 164269870,
      "user": "LieToMeBBC",
      "uid": 22689642,
      "tags": {
        "addr:housenumber": "57/1",
        "addr:street": "Камзина",
        "amenity": "pub",
        "name": "Amour"
      }
    },
    {
      "type": "node",
      "id": 12786677401,
      "lat": 51.138818,
      "lon": 71.3844665,
      "timestamp": "2025-04-25T18:07:00Z",
      "version": 1,
      "changeset": 165436857,
      "user": "SEVEN",
      "uid": 127989,
      "tags": {
        "addr:housenumber": "11/1",
        "addr:street": "Анет Баба",
        "amenity": "bar",
        "name": "Ноль"
      }
    },
    {
      "type": "node",
      "id": 12844744125,
      "lat": 54.9850673,
      "lon": 73.3746126,
      "timestamp": "2025-05-17T18:56:51Z",
      "version": 1,
      "changeset": 166405206,
      "user": "box_911",
      "uid": 351509,
      "tags": {
        "amenity": "bar",
        "name": "Питер"
      }
    },
    {
      "type": "node",
      "id": 12917089240,
      "lat": 51.1624514,
      "lon": 71.4187926,
      "timestamp": "2025-06-15T09:55:09Z",
      "version": 2,
      "changeset": 167643555,
      "user": "Timur_14",
      "uid": 16155323,
      "tags": {
        "amenity": "pub",
        "name": "Harat's",
        "theme": "irish"
      }
    },
    {
      "type": "node",
      "id": 12917105629,
      "lat": 51.1424407,
      "lon": 71.409946,
      "timestamp": "2025-06-15T09:56:10Z",
      "version": 1,
      "changeset": 167643555,
      "user": "Timur_14",
      "uid": 16155323,
      "tags": {
        "amenity": "bar",
        "name": "Угли"
      }
    },
    {
      "type": "node",
      "id": 12917111636,
      "lat": 51.1695404,
      "lon": 71.410817,
      "timestamp": "2025-07-11T09:52:07Z",
      "version": 3,
      "changeset": 168786681,
      "user": "Timur_14",
      "uid": 16155323,
      "tags": {
        "amenity": "pub",
        "indoor_seating": "yes",
        "name": "Разлив",
        "outdoor_seating": "no",
        "theme": "irish"
      }
    },
    {
      "type": "node",
      "id": 12973408574,
      "lat": 51.1636965,
      "lon": 71.4124843,
      "timestamp": "2025-07-03T10:36:53Z",
      "version": 4,
      "changeset": 168438115,
      "user": "Timur_14",
      "uid": 16155323,
      "tags": {
        "amenity": "bar",
        "check_date:opening_hours": "2025-07-02",
        "indoor_seating": "yes",
        "name": "Lopata",
        "opening_hours:signed": "no",
        "outdoor_seating": "no",
        "wheelchair": "no"
      }
    },
    {
      "type": "node",
      "id": 12993919157,
      "lat": 51.1654944,
      "lon": 71.4060952,
      "timestamp": "2025-07-11T09:51:43Z",
      "version": 2,
      "changeset": 168786681,
      "user": "Timur_14",
      "uid": 16155323,
      "tags": {
        "amenity": "bar",
        "indoor_seating": "yes",
        "name": "Фундук",
        "outdoor_seating": "yes"
      }
    },
    {
      "type": "node",
      "id": 12993947510,
      "lat": 51.1624249,
      "lon": 71.4071823,
      "timestamp": "2025-07-11T09:51:35Z",
      "version": 3,
      "changeset": 168786681,
      "user": "Timur_14",
      "uid": 16155323,
      "tags": {
        "amenity": "bar",
        "indoor_seating": "yes",
        "name": "adept",
        "outdoor_seating": "no"
      }
    },
    {
      "type": "node",
      "id": 13094137744,
      "lat": 54.9576283,
      "lon": 73.3163779,
      "timestamp": "2025-08-24T10:00:44Z",
      "version": 1,
      "changeset": 170915393,
      "user": "danilshvalov",
      "uid": 16430474,
      "tags": {
        "amenity": "bar",
        "contact:phone": "+7 (962) 840-01-32",
        "indoor_seating": "yes",
        "level": "2",
        "name": "Хамовники",
        "opening_hours": "24/7"
      }
    },
    {
      "type": "node",
      "id": 13109131801,
      "lat": 51.1289119,
      "lon": 71.408326,
      "timestamp": "2025-08-30T19:02:19Z",
      "version": 1,
      "changeset": 171242008,
      "user": "Zmitry",
      "uid": 22050343,
      "tags": {
        "addr:housenumber": "4",
        "addr:street": "улица Достык",
        "amenity": "bar",
        "contact:instagram": "taiyo.bar",
        "internet_access": "wlan",
        "name": "Taiyo",
        "phone": "+77761116633"
      }
    },
    {
      "type": "node",
      "id": 13120796109,
      "lat": 53.0821032,
      "lon": 70.3045489,
      "timestamp": "2025-09-05T08:51:42Z",
      "version": 1,
      "changeset": 171486159,
      "user": "TheGreatSteppe",
      "uid": 23213054,
      "tags": {
        "amenity": "bar",
        "name": "Caprice"
      }
    },
    {
      "type": "node",
      "id": 13167201934,
      "lat": 52.2568143,
      "lon": 76.9547912,
      "timestamp": "2025-09-24T08:30:13Z",
      "version": 2,
      "changeset": 172381023,
      "user": "POI Mapper",
      "uid": 15312507,
      "tags": {
        "amenity": "pub",
        "name": "Пив&Com",
        "opening_hours": "Mo-Su,PH 10:00-14:00,14:30-23:00"
      }
    },
    {
      "type": "node",
      "id": 13206818476,
      "lat": 52.2640268,
      "lon": 76.9476975,
      "timestamp": "2025-10-10T13:23:59Z",
      "version": 2,
      "changeset": 173095040,
      "user": "POI Mapper",
      "uid": 15312507,
      "tags": {
        "amenity": "bar",
        "name": "Botanica",
        "opening_hours": "Th,Su 18:00-04:00, Fr,Sa 18:00-06:00"
      }
    },
    {
      "type": "way",
      "id": 89662382,
      "timestamp": "2024-12-19T16:06:41Z",
      "version": 4,
      "changeset": 160401087,
      "user": "┳┳╄╅┵┾┾┾",
      "uid": 13860679,
      "center": {
        "lat": 54.9835954,
        "lon": 73.3730113
      },
      "nodes": [
        1039118022,
        1039118358,
        1039117698,
        1039118688,
        1039118058,
        1039119054,
        1039117867,
        1039118085,
        1039117081,
        1039118704,
        1039118254,
        1039117580,
        1039117340,
        1039118398,
        1039118867,
        1039117731,
        1039118022
      ],
      "tags": {
        "addr:housenumber": "1/1",
        "addr:street": "Партизанская улица",
        "amenity": "pub",
        "building": "yes",
        "name": "Сибирская корона"
      }
    },
    {
      "type": "way",
      "id": 135877007,
      "timestamp": "2012-01-09T11:53:13Z",
      "version": 2,
      "changeset": 10341046,
      "user": "alex_hitman",
      "uid": 542925,
      "center": {
        "lat": 53.7293368,
        "lon": 78.0349092
      },
      "nodes": [
        1491461369,
        1491461370,
        1491461372,
        1491461374,
        1491461382,
        1491461384,
        1491461387,
        1491461390,
        1491461391,
        1491461369
      ],
      "tags": {
        "amenity": "pub",
        "building": "yes",
        "building:levels": "2",
        "name": "Лас-Вегас",
        "source": "Bing"
      }
    },
    {
      "type": "way",
      "id": 218179387,
      "timestamp": "2024-11-17T16:39:03Z",
      "version": 5,
      "changeset": 159250377,
      "user": "box_911",
      "uid": 351509,
      "center": {
        "lat": 54.9851842,
        "lon": 73.3714103
      },
      "nodes": [
        2274528996,
        2274528990,
        2274528993,
        2274528995,
        2274528994,
        2274528997,
        2274528996
      ],
      "tags": {
        "addr:housenumber": "2",
        "addr:street": "улица Петра Некрасова",
        "amenity": "bar",
        "building": "yes",
        "building:levels": "4"
      }
    },
    {
      "type": "way",
      "id": 221116492,
      "timestamp": "2014-11-05T07:45:20Z",
      "version": 2,
      "changeset": 26565268,
      "user": "alex(2014)",
      "uid": 2436280,
      "center": {
        "lat": 51.8197389,
        "lon": 79.7139661
      },
      "nodes": [
        2301746031,
        2301745981,
        2301745870,
        2301745931,
        2301746031
      ],
      "tags": {
        "amenity": "pub",
        "building": "yes",
        "building:levels": "1",
        "name": "Бавария"
      }
    },
    {
      "type": "way",
      "id": 242346779,
      "timestamp": "2023-10-04T06:39:58Z",
      "version": 10,
      "changeset": 142128637,
      "user": "b-jazz-bot",
      "uid": 9451067,
      "center": {
        "lat": 51.156644,
        "lon": 71.4879488
      },
      "nodes": [
        2498358447,
        2498358461,
        2498358454,
        2498358439,
        2498358441,
        2498358445,
        2498358447
      ],
      "tags": {
        "addr:housenumber": "9А",
        "addr:street": "улица Манаса",
        "amenity": "bar",
        "building": "yes",
        "name": "Спорт-бар \"Испания Премьера Дивизиона\" , БК FairPlay.",
        "opening_hours": "09:00-06:00",
        "smoking": "outside",
        "website": "https://www.fairplay.kz/"
      }
    },
    {
      "type": "way",
      "id": 278179906,
      "timestamp": "2023-10-04T06:41:54Z",
      "version": 7,
      "changeset": 142128726,
      "user": "b-jazz-bot",
      "uid": 9451067,
      "center": {
        "lat": 51.1886781,
        "lon": 71.4105258
      },
      "nodes": [
        2825994551,
        2825994552,
        2825994553,
        2825994554,
        9961408154,
        9961408153,
        2825994551
      ],
      "tags": {
        "addr:city": "Нур-Султан",
        "addr:country": "KZ",
        "addr:housenumber": "5",
        "addr:postcode": "010000",
        "addr:street": "улица Ыбырай Алтынсарин",
        "amenity": "bar",
        "building": "yes",
        "name": "Спорт-бар \"Премьер лига\", БК FairPlay.",
        "opening_hours": "09:00-06:00",
        "smoking": "separated",
        "website": "https://www.fairplay.kz/"
      }
    },
    {
      "type": "way",
      "id": 284236202,
      "timestamp": "2014-05-25T12:58:19Z",
      "version": 1,
      "changeset": 22542704,
      "user": "Федосов Сергей",
      "uid": 508290,
      "center": {
        "lat": 51.824997,
        "lon": 79.7533451
      },
      "nodes": [
        2879859206,
        2879859205,
        2879859255,
        2879859256,
        2879859206
      ],
      "tags": {
        "amenity": "pub",
        "building": "yes",
        "building:levels": "1"
      }
    },
    {
      "type": "way",
      "id": 301275820,
      "timestamp": "2014-09-01T12:59:18Z",
      "version": 1,
      "changeset": 25159506,
      "user": "Alexkravkaa28",
      "uid": 1725868,
      "center": {
        "lat": 52.3560037,
        "lon": 71.9039228
      },
      "nodes": [
        2494632358,
        3053517022,
        3053517019,
        3053517020,
        3053517018,
        3053517021,
        3053517023,
        2494632358
      ],
      "tags": {
        "amenity": "pub",
        "name": "План Б"
      }
    },
    {
      "type": "way",
      "id": 311221425,
      "timestamp": "2015-10-07T18:59:57Z",
      "version": 5,
      "changeset": 34497474,
      "user": "parukhin",
      "uid": 519501,
      "center": {
        "lat": 51.8185327,
        "lon": 79.7212608
      },
      "nodes": [
        2306680210,
        2306680208,
        3168088839,
        2306680205,
        2306680206,
        2306680210
      ],
      "tags": {
        "amenity": "pub",
        "name": "Бочка"
      }
    },
    {
      "type": "way",
      "id": 407441058,
      "timestamp": "2023-08-22T03:53:37Z",
      "version": 5,
      "changeset": 140207723,
      "user": "NorthCrab",
      "uid": 15215305,
      "center": {
        "lat": 52.6232603,
        "lon": 70.4416412
      },
      "nodes": [
        4094888333,
        4094888334,
        4094888335,
        4094888336,
        4094888333
      ],
      "tags": {
        "amenity": "pub",
        "building": "yes",
        "name:ru": "Игровой клуб Play Station"
      }
    },
    {
      "type": "way",
      "id": 1060049052,
      "timestamp": "2025-09-05T08:50:48Z",
      "version": 3,
      "changeset": 171486122,
      "user": "TheGreatSteppe",
      "uid": 23213054,
      "center": {
        "lat": 53.0790394,
        "lon": 70.3047478
      },
      "nodes": [
        9739312594,
        9739312595,
        9739312596,
        9739312597,
        9739312598,
        9739312594
      ],
      "tags": {
        "addr:city": "Бурабай",
        "addr:housenumber": "44",
        "addr:street": "улица Кенесары",
        "amenity": "bar",
        "brand": "Grand Prix",
        "building": "apartments",
        "internet_access": "wlan",
        "internet_access:fee": "no",
        "name": "Forest Karaoke",
        "note": "карты osm до 2019 года. требуется обновление карт",
        "rooms": "11",
        "source": "gps;survey;local knowledge;osm notes;streetlevel imagery",
        "tourism": "hotel"
      }
    }
  ]
}