{
  "version": 0.6,
  "generator": "Overpass API 0.7.62.8 e802775f",
  "osm3s": {
    "timestamp_osm_base": "2025-10-23T20:12:45Z",
    "copyright": "The data included in this document is from www.openstreetmap.org. The data is made available under ODbL."
  },
  "elements": [
    {
      "type": "node",
      "id": 1205416408,
      "lat": 38.5537051,
      "lon": 68.815905,
      "timestamp": "2019-10-04T07:41:56Z",
      "version": 4,
      "changeset": 75265642,
      "user": "Night Runner",
      "uid": 1531565,
      "tags": {
        "addr:housenumber": "16",
        "addr:street": "–∫”Ø—á–∞–∏ –ê“≥–º–∞–¥–∏ –î–æ–Ω–∏—à",
        "amenity": "bar",
        "cuisine": "asian",
        "name": "“ö–∞“≥–≤–∞—Ö–æ–Ω–∞–∏ –î–∏–ª–æ—Ä–æ–º (–æ—à–∏ –†—É—Å—Ç–∞–º)",
        "name:en": "Cafe Dilorom (Rustam pilaf)"
      }
    },
    {
      "type": "node",
      "id": 1509526639,
      "lat": 39.6584384,
      "lon": 66.9449031,
      "timestamp": "2015-05-06T13:54:25Z",
      "version": 4,
      "changeset": 30843273,
      "user": "AlisherSam",
      "uid": 2801863,
      "tags": {
        "amenity": "bar",
        "cuisine": "bavarian",
        "name": "Zlata Praga Bar BQ"
      }
    },
    {
      "type": "node",
      "id": 1979151118,
      "lat": 38.5788863,
      "lon": 68.8016064,
      "timestamp": "2012-10-23T09:28:47Z",
      "version": 1,
      "changeset": 13603001,
      "user": "Valery00",
      "uid": 995583,
      "tags": {
        "amenity": "pub"
      }
    },
    {
      "type": "node",
      "id": 2152842770,
      "lat": 39.6529792,
      "lon": 66.936058,
      "timestamp": "2013-02-13T06:01:29Z",
      "version": 1,
      "changeset": 15014169,
      "user": "rovel",
      "uid": 567471,
      "tags": {
        "amenity": "bar",
        "name": "People"
      }
    },
    {
      "type": "node",
      "id": 2556626597,
      "lat": 38.5799023,
      "lon": 68.7872676,
      "timestamp": "2019-02-21T09:42:42Z",
      "version": 5,
      "changeset": 67422839,
      "user": "dusccomplete",
      "uid": 8969727,
      "tags": {
        "amenity": "bar",
        "name": "Aqua Bar"
      }
    },
    {
      "type": "node",
      "id": 2728409015,
      "lat": 39.6641766,
      "lon": 66.9302863,
      "timestamp": "2021-08-12T07:56:08Z",
      "version": 2,
      "changeset": 109555506,
      "user": "Abulqosim",
      "uid": 13763014,
      "tags": {
        "amenity": "bar",
        "name": "TajMahal"
      }
    },
    {
      "type": "node",
      "id": 3355374561,
      "lat": 38.583718,
      "lon": 68.7527832,
      "timestamp": "2018-04-19T05:48:12Z",
      "version": 5,
      "changeset": 58222355,
      "user": "Marych_",
      "uid": 349645,
      "tags": {
        "amenity": "pub",
        "cuisine": "burger",
        "internet_access": "wlan",
        "name": "Royal Pub"
      }
    },
    {
      "type": "node",
      "id": 4106219690,
      "lat": 39.0383429,
      "lon": 63.5821167,
      "timestamp": "2020-05-18T22:42:45Z",
      "version": 3,
      "changeset": 85405552,
      "user": "apm-wa",
      "uid": 1960718,
      "tags": {
        "addr:city": "Turkmenabat",
        "addr:street": "S.A. Ny√Ωazow k√∂√ßesi",
        "amenity": "pub",
        "name": "Myla√Ωym"
      }
    },
    {
      "type": "node",
      "id": 4142846995,
      "lat": 39.7902375,
      "lon": 64.4455212,
      "timestamp": "2016-08-30T09:07:48Z",
      "version": 2,
      "changeset": 41796565,
      "user": "Marych_",
      "uid": 349645,
      "tags": {
        "amenity": "bar",
        "opening_hours": "Tu-Su 10:00-22:00"
      }
    },
    {
      "type": "node",
      "id": 4219614590,
      "lat": 39.7692761,
      "lon": 64.4501241,
      "timestamp": "2016-06-01T16:24:10Z",
      "version": 1,
      "changeset": 39714256,
      "user": "ErkinAshurov",
      "uid": 4047388,
      "tags": {
        "addr:housenumber": "6/1",
        "addr:postcode": "200100",
        "addr:street": "Bahovaddin Naqshband ko'chasi",
        "amenity": "pub",
        "name": "DiMOff"
      }
    },
    {
      "type": "node",
      "id": 4330495724,
      "lat": 39.7522218,
      "lon": 64.4284616,
      "timestamp": "2022-01-13T11:49:00Z",
      "version": 3,
      "changeset": 116103394,
      "user": "Mirshod UZTAXI Buxoro",
      "uid": 12921998,
      "tags": {
        "amenity": "bar",
        "name": "London",
        "name:ru": "–õ–æ–Ω–¥–æ–Ω"
      }
    },
    {
      "type": "node",
      "id": 4356511263,
      "lat": 34.4825838,
      "lon": 69.157998,
      "timestamp": "2016-08-18T20:34:47Z",
      "version": 1,
      "changeset": 41543522,
      "user": "Jonhos045",
      "uid": 4440518,
      "tags": {
        "amenity": "bar"
      }
    },
    {
      "type": "node",
      "id": 4382829090,
      "lat": 39.7667282,
      "lon": 64.4362848,
      "timestamp": "2016-09-04T03:03:13Z",
      "version": 1,
      "changeset": 41899774,
      "user": "–°–∞—à–∞ –•–∞–π–¥–∞—Ä–æ–≤",
      "uid": 4336306,
      "tags": {
        "amenity": "bar",
        "name": "–ê–ª—å—è–Ω—Å",
        "name:ru": "–ê–ª—å—è–Ω—Å"
      }
    },
    {
      "type": "node",
      "id": 4488323589,
      "lat": 38.5729679,
      "lon": 68.7886976,
      "timestamp": "2019-08-23T13:56:27Z",
      "version": 3,
      "changeset": 73669103,
      "user": "Guido van Lent",
      "uid": 10246667,
      "tags": {
        "amenity": "bar",
        "name": "–®–∞—Ä–æ–±—Ö–æ–Ω–∞",
        "name:en": "Twenty Eight Monkeys Bar",
        "name:ru": "–ë–∞—Ä"
      }
    },
    {
      "type": "node",
      "id": 4540691395,
      "lat": 39.6739207,
      "lon": 66.9268815,
      "timestamp": "2016-12-06T08:23:21Z",
      "version": 1,
      "changeset": 44202684,
      "user": "–î–∂–∞–º–∞ –ö—É—Ä–±–∞–Ω–æ–≤",
      "uid": 4928278,
      "tags": {
        "amenity": "bar",
        "name": "–ö–∞–ª—å–≤–∞–¥–æ—Å",
        "name:en": "Calvados",
        "name:ru": "–ö–∞–ª—å–≤–∞–¥–æ—Å"
      }
    },
    {
      "type": "node",
      "id": 4562028290,
      "lat": 31.6217461,
      "lon": 65.7281549,
      "timestamp": "2016-12-19T16:40:56Z",
      "version": 1,
      "changeset": 44520081,
      "user": "Esa Rahman",
      "uid": 4991522,
      "tags": {
        "addr:housenumber": "14",
        "addr:street": "Shamsuddin Watt",
        "amenity": "pub",
        "name:en": "Haji Khan Mohammad house"
      }
    },
    {
      "type": "node",
      "id": 4716349389,
      "lat": 39.7499054,
      "lon": 64.4430765,
      "timestamp": "2018-02-24T09:49:18Z",
      "version": 2,
      "changeset": 56632024,
      "user": "Farukh42",
      "uid": 6629318,
      "tags": {
        "amenity": "bar",
        "name": "–®–∏—Ä–∏–Ω",
        "name:en": "Shirin Pepsi",
        "name:ru": "–®–∏—Ä–∏–Ω"
      }
    },
    {
      "type": "node",
      "id": 4734325822,
      "lat": 38.557915,
      "lon": 68.764055,
      "timestamp": "2021-01-06T06:44:17Z",
      "version": 2,
      "changeset": 97025219,
      "user": "Rehei_47",
      "uid": 12221816,
      "tags": {
        "amenity": "bar",
        "name": "–ö–∞—Ä–∞–æ–∫–µ –±–∞—Ä –ü—Ä–∞–π–¥",
        "name:ru": "–ö–∞—Ä–∞–æ–∫–µ –±–∞—Ä –ü—Ä–∞–π–¥"
      }
    },
    {
      "type": "node",
      "id": 4756709722,
      "lat": 38.5302847,
      "lon": 68.335306,
      "timestamp": "2017-03-26T18:50:58Z",
      "version": 1,
      "changeset": 47182662,
      "user": "Okhunbek Boinazarov",
      "uid": 5553602,
      "tags": {
        "amenity": "bar"
      }
    },
    {
      "type": "node",
      "id": 4839397323,
      "lat": 38.8436721,
      "lon": 65.7810777,
      "timestamp": "2017-05-07T05:25:02Z",
      "version": 1,
      "changeset": 48466054,
      "user": "Sayfulla Sataev",
      "uid": 5251634,
      "tags": {
        "amenity": "bar",
        "name:en": "beer house pivo"
      }
    },
    {
      "type": "node",
      "id": 4924629621,
      "lat": 38.5577441,
      "lon": 68.8006558,
      "timestamp": "2018-08-31T01:44:58Z",
      "version": 2,
      "changeset": 62157630,
      "user": "Realexs",
      "uid": 6855837,
      "tags": {
        "addr:street": "Rudaki street",
        "amenity": "pub",
        "name": "beer bar \"Sim-Sim\"",
        "name:en": "Shop+Pubu",
        "name:ru": "–ú–∞–≥–∞–∑–∏–Ω+–ü–∏–≤–±–∞—Ä",
        "opening_hours": "Mo-Su 08:00-22:00"
      }
    },
    {
      "type": "node",
      "id": 4929974521,
      "lat": 38.5779141,
      "lon": 68.80179,
      "timestamp": "2017-06-22T06:30:00Z",
      "version": 1,
      "changeset": 49736670,
      "user": "Farruh Rustamov",
      "uid": 4886545,
      "tags": {
        "addr:housenumber": "47",
        "addr:street": "–∫”Ø—á–∞–∏ –î—Ä—É–∂–±–∞ –Ω–∞—Ä–æ–¥–æ–≤",
        "amenity": "bar",
        "cuisine": "sandwich;international;sushi;seafood;local;pasta;russian;italian;italian_pizza",
        "internet_access": "wlan",
        "name": "–°–ø–æ—Ä—Ç-–ë–∞—Ä \"–ò—Å—Ç–∏–∫–ª–æ–ª\"",
        "name:en": "SportsBar \"Istiqlol\"",
        "name:ru": "–°–ø–æ—Ä—Ç-–ë–∞—Ä \"–ò—Å—Ç–∏–∫–ª–æ–ª\"",
        "opening_hours": "Tu-Su 10:00-02:00; Mo 09:00-18:00",
        "phone": "+992987745555",
        "website": "http://sportsbar.tj"
      }
    },
    {
      "type": "node",
      "id": 4972430726,
      "lat": 39.6735359,
      "lon": 66.9262666,
      "timestamp": "2017-07-15T16:46:59Z",
      "version": 1,
      "changeset": 50309364,
      "user": "Bek Khalimov",
      "uid": 6219885,
      "tags": {
        "amenity": "bar",
        "name:en": "BeerMan"
      }
    },
    {
      "type": "node",
      "id": 5073194521,
      "lat": 39.6509102,
      "lon": 66.96701,
      "timestamp": "2023-03-02T02:09:57Z",
      "version": 3,
      "changeset": 133193651,
      "user": "Spaghetti Monsterüçù",
      "uid": 8758904,
      "tags": {
        "amenity": "bar",
        "name:es": "Tabassum bar"
      }
    },
    {
      "type": "node",
      "id": 5150306571,
      "lat": 34.2022703,
      "lon": 69.0844542,
      "timestamp": "2017-10-05T18:45:48Z",
      "version": 1,
      "changeset": 52663409,
      "user": "Salaamlogari",
      "uid": 5374308,
      "tags": {
        "amenity": "pub",
        "name": "ŸÖ⁄©ŸÖŸá ÿßŸæÿ™ÿØÿß€åŸá ŸÖÿ≠ŸÖÿØÿ∫Ÿá"
      }
    },
    {
      "type": "node",
      "id": 5225135107,
      "lat": 39.6587615,
      "lon": 66.9468985,
      "timestamp": "2017-11-12T18:26:08Z",
      "version": 1,
      "changeset": 53720337,
      "user": "smart future",
      "uid": 6959704,
      "tags": {
        "amenity": "bar",
        "name": "Dastan BAR"
      }
    },
    {
      "type": "node",
      "id": 5233176721,
      "lat": 39.6609148,
      "lon": 66.9385428,
      "timestamp": "2024-10-18T13:16:15Z",
      "version": 2,
      "changeset": 158050665,
      "user": "Vanger69",
      "uid": 395414,
      "tags": {
        "amenity": "bar",
        "name": "–î–´–ú"
      }
    },
    {
      "type": "node",
      "id": 5249184122,
      "lat": 38.5816854,
      "lon": 68.7626943,
      "timestamp": "2017-11-26T18:29:39Z",
      "version": 1,
      "changeset": 54102105,
      "user": "–û–ª—å–≥–∞ –°–∞–ª–∏—Ö–æ–≤–∞",
      "uid": 5866664,
      "tags": {
        "addr:street": "Sharaf",
        "amenity": "bar",
        "name": "–°–∏–º-—Å–∏–º",
        "name:en": "Sim -Sim"
      }
    },
    {
      "type": "node",
      "id": 5268073322,
      "lat": 39.0819628,
      "lon": 63.5897967,
      "timestamp": "2017-12-06T14:45:46Z",
      "version": 1,
      "changeset": 54403535,
      "user": "Windows Sru",
      "uid": 7160753,
      "tags": {
        "amenity": "bar",
        "name:en": "\"Lola\" kafe",
        "name:ru": "\"–õ–æ–ª–∞\" –∫–∞—Ñ–µ"
      }
    },
    {
      "type": "node",
      "id": 5271598021,
      "lat": 39.9896727,
      "lon": 66.8460589,
      "timestamp": "2017-12-08T10:00:18Z",
      "version": 1,
      "changeset": 54454174,
      "user": "JamshidTursunov",
      "uid": 6815040,
      "tags": {
        "addr:housenumber": "1",
        "addr:street": "Park",
        "amenity": "bar",
        "cuisine": "burger;regional;grill;chicken;kebab",
        "name": "–ê–ª–∏ –ë–∞–±–∞ –ë–∞—Ä",
        "name:en": "Ali Baba Bar",
        "opening_hours": "24/7",
        "phone": "+998942883377"
      }
    },
    {
      "type": "node",
      "id": 5298646821,
      "lat": 39.642996,
      "lon": 66.9315151,
      "timestamp": "2023-03-02T01:46:21Z",
      "version": 9,
      "changeset": 133193337,
      "user": "Spaghetti Monsterüçù",
      "uid": 8758904,
      "tags": {
        "addr:housenumber": "137",
        "addr:postcode": "140100",
        "addr:street": "Firdavsiy ko'chasi",
        "amenity": "bar",
        "cuisine": "local",
        "name": "–†–µ–º–∏–∫—Å",
        "name:en": "RemiX",
        "opening_hours": "Mo-Su 12:00-00:00",
        "phone": "+998915598442"
      }
    },
    {
      "type": "node",
      "id": 5301916821,
      "lat": 38.5795122,
      "lon": 68.8018621,
      "timestamp": "2017-12-24T10:50:40Z",
      "version": 1,
      "changeset": 54883159,
      "user": "nur4ello",
      "uid": 7342264,
      "tags": {
        "amenity": "bar",
        "name:en": "Bundes bar"
      }
    },
    {
      "type": "node",
      "id": 5329843923,
      "lat": 39.7466127,
      "lon": 64.4292592,
      "timestamp": "2022-01-13T11:49:02Z",
      "version": 2,
      "changeset": 116103394,
      "user": "Mirshod UZTAXI Buxoro",
      "uid": 12921998,
      "tags": {
        "amenity": "bar",
        "name": "–£–≥–æ–ª–æ–∫",
        "name:en": "Ugolok"
      }
    },
    {
      "type": "node",
      "id": 5338541024,
      "lat": 38.5487134,
      "lon": 68.8133572,
      "timestamp": "2020-04-26T23:40:30Z",
      "version": 2,
      "changeset": 84161753,
      "user": "arievanw",
      "uid": 11057235,
      "tags": {
        "amenity": "bar"
      }
    },
    {
      "type": "node",
      "id": 5338557222,
      "lat": 38.5486642,
      "lon": 68.8159266,
      "timestamp": "2018-01-14T09:08:34Z",
      "version": 1,
      "changeset": 55425031,
      "user": "–•–∞–±–∏–±—É–ª–ª–æ –ú–∞—Ö–º—É–¥–æ–≤",
      "uid": 7468313,
      "tags": {
        "amenity": "bar",
        "internet_access": "wlan",
        "name": "–ë–∞—Ä –°–∏–ø –∑–∞–ª–∞",
        "name:en": "Bar CIP HALL",
        "opening_hours": "24/7"
      }
    },
    {
      "type": "node",
      "id": 5344656224,
      "lat": 38.584993,
      "lon": 68.7483129,
      "timestamp": "2018-01-18T13:37:58Z",
      "version": 2,
      "changeset": 55550102,
      "user": "–•–∞–±–∏–±—É–ª–ª–æ –ú–∞—Ö–º—É–¥–æ–≤",
      "uid": 7468313,
      "tags": {
        "amenity": "bar",
        "internet_access": "wlan",
        "name": "–ö–∞–ª—å—è–Ω –±–∞—Ä Jack Daniel's",
        "name:en": "Hookah-Bar Jack Daniel's",
        "opening_hours": "Mo-Su 10:00-23:00",
        "phone": "+992501231313"
      }
    },
    {
      "type": "node",
      "id": 5346914523,
      "lat": 38.8513951,
      "lon": 65.7965917,
      "timestamp": "2019-09-12T11:19:37Z",
      "version": 5,
      "changeset": 74388636,
      "user": "Marych_",
      "uid": 349645,
      "tags": {
        "amenity": "pub",
        "brewery": "Tuborg;Baltika7;Koff",
        "name": "–ë–∞–≤–∞—Ä–∏—è",
        "name:de": "Bavaria Pub",
        "outdoor_seating": "no",
        "source": "Dumont RHB Usbekistan"
      }
    },
    {
      "type": "node",
      "id": 5481073621,
      "lat": 39.6600178,
      "lon": 66.9481496,
      "timestamp": "2024-09-12T13:12:15Z",
      "version": 4,
      "changeset": 156528142,
      "user": "Marych_",
      "uid": 349645,
      "tags": {
        "amenity": "pub",
        "cuisine": "asian;kebab;local;oriental",
        "name": "Beer Street Pub",
        "name:en": "Beer Street Pub",
        "name:ja": "„Éì„Éº„É´„Éª„Çπ„Éà„É™„Éº„Éà„Éª„Éë„Éñ"
      }
    },
    {
      "type": "node",
      "id": 5580156840,
      "lat": 39.7709811,
      "lon": 64.4321494,
      "timestamp": "2019-07-09T07:06:19Z",
      "version": 3,
      "changeset": 72040686,
      "user": "abdurohman",
      "uid": 670693,
      "tags": {
        "amenity": "bar",
        "name": "Amsterdam",
        "name:ru": "–ê–º—Å—Ç–µ—Ä–¥–∞–º",
        "phone": "+998 93 454 3111"
      }
    },
    {
      "type": "node",
      "id": 5580156851,
      "lat": 39.7731158,
      "lon": 64.4322486,
      "timestamp": "2024-06-19T18:02:09Z",
      "version": 2,
      "changeset": 152908576,
      "user": "CRCulver",
      "uid": 340741,
      "tags": {
        "addr:street": "Mustaqillik ko'chasi",
        "amenity": "bar",
        "name": "Lazzat"
      }
    },
    {
      "type": "node",
      "id": 5618825729,
      "lat": 37.5963035,
      "lon": 61.8307573,
      "timestamp": "2018-05-17T16:35:50Z",
      "version": 2,
      "changeset": 59056432,
      "user": "apm-wa",
      "uid": 1960718,
      "tags": {
        "addr:city": "Mary",
        "addr:street": "Mollanepes k√∂√ßesi",
        "amenity": "bar",
        "name": "Margiana",
        "name:en": "Margiana"
      }
    },
    {
      "type": "node",
      "id": 5634037421,
      "lat": 39.7529881,
      "lon": 64.424615,
      "timestamp": "2022-01-13T11:49:02Z",
      "version": 3,
      "changeset": 116103394,
      "user": "Mirshod UZTAXI Buxoro",
      "uid": 12921998,
      "tags": {
        "addr:postcode": "200100",
        "addr:street": "–£–ª–∏—Ü–∞ –ê–ª–∏–Ω–µ—Ä–∞ –ù–∞–≤–æ–∏",
        "amenity": "bar",
        "name": "–ú–∞—Ñ—Ç—É–Ω–∞",
        "name:en": "Maftuna",
        "name:ru": "–ú–∞—Ñ—Ç—É–Ω–∞"
      }
    },
    {
      "type": "node",
      "id": 5745469037,
      "lat": 38.5759531,
      "lon": 68.7903398,
      "timestamp": "2018-07-07T14:58:03Z",
      "version": 2,
      "changeset": 60491008,
      "user": "nur4ello",
      "uid": 7342264,
      "tags": {
        "amenity": "bar",
        "name": "–¢–µ—Ö–∞—Å –ü–∏–≤–Ω–æ–º –ë–∞—Ä",
        "name:en": "Texas Resto Pub"
      }
    },
    {
      "type": "node",
      "id": 5750490434,
      "lat": 38.5758936,
      "lon": 68.7899469,
      "timestamp": "2018-07-10T01:47:47Z",
      "version": 1,
      "changeset": 60556745,
      "user": "SparkyCola",
      "uid": 2903335,
      "tags": {
        "amenity": "bar",
        "name": "De Gusto"
      }
    },
    {
      "type": "node",
      "id": 5762151453,
      "lat": 39.7627433,
      "lon": 64.4541827,
      "timestamp": "2019-11-21T05:41:54Z",
      "version": 2,
      "changeset": 77354795,
      "user": "Ilya Mazor",
      "uid": 5139675,
      "tags": {
        "addr:postcode": "700125",
        "addr:street": "Sharq 1 daxasi",
        "amenity": "pub",
        "name": "–ü–∏–≤–Ω—É—à–∫–∞ —É –ê–Ω–≤–∞—Ä–∞",
        "opening_hours": "Mo-Su 09:00-00:00"
      }
    },
    {
      "type": "node",
      "id": 5773636754,
      "lat": 38.5824784,
      "lon": 68.7684188,
      "timestamp": "2018-07-20T16:59:09Z",
      "version": 1,
      "changeset": 60913562,
      "user": "Kit Yen",
      "uid": 8577933,
      "tags": {
        "amenity": "bar",
        "name:en": "Royal Club"
      }
    },
    {
      "type": "node",
      "id": 5831310885,
      "lat": 39.789424,
      "lon": 64.4472331,
      "timestamp": "2018-08-14T03:58:04Z",
      "version": 1,
      "changeset": 61644119,
      "user": "Amirshox",
      "uid": 8683188,
      "tags": {
        "amenity": "bar",
        "name": "–°–ø–æ—Ä—Ç –ë–ê–†",
        "name:en": "PlayStation"
      }
    },
    {
      "type": "node",
      "id": 5927264214,
      "lat": 39.6559296,
      "lon": 66.9635876,
      "timestamp": "2018-09-24T18:16:43Z",
      "version": 2,
      "changeset": 62890130,
      "user": "PAMIRIAN",
      "uid": 8642936,
      "tags": {
        "amenity": "bar"
      }
    },
    {
      "type": "node",
      "id": 5936280986,
      "lat": 34.5457997,
      "lon": 69.2318405,
      "timestamp": "2018-11-09T20:37:05Z",
      "version": 2,
      "changeset": 64338267,
      "user": "mosstreet",
      "uid": 3674775,
      "tags": {
        "amenity": "bar",
        "internet_access": "wlan",
        "name:en": "Orange",
        "opening_hours": "Mo-Su 17:00-22:00"
      }
    },
    {
      "type": "node",
      "id": 6169743486,
      "lat": 38.5795769,
      "lon": 68.8017331,
      "timestamp": "2018-12-29T04:01:37Z",
      "version": 1,
      "changeset": 65857673,
      "user": "petardMN",
      "uid": 9300738,
      "tags": {
        "amenity": "pub",
        "name:it": "BNDS restobar"
      }
    },
    {
      "type": "node",
      "id": 6269079285,
      "lat": 39.4881269,
      "lon": 67.7200277,
      "timestamp": "2019-02-10T05:28:34Z",
      "version": 1,
      "changeset": 67063923,
      "user": "Z@f@r",
      "uid": 8776139,
      "tags": {
        "addr:postcode": "735055",
        "amenity": "bar",
        "name": "–ú–∞—Ö–∏–Ω–∞",
        "name:en": "Mahina",
        "opening_hours": "Mo-Su 09:00-23:30",
        "phone": "+992927773725"
      }
    },
    {
      "type": "node",
      "id": 6445908890,
      "lat": 39.6602797,
      "lon": 66.9364771,
      "timestamp": "2019-05-03T16:28:18Z",
      "version": 1,
      "changeset": 69851681,
      "user": "Miraziz Rakhimov",
      "uid": 9612592,
      "tags": {
        "addr:housenumber": "84",
        "addr:street": "Gagarin ko'chasi",
        "amenity": "bar",
        "name": "–ê–ª–∞–±–∞–Ω–∞",
        "name:en": "Alabana",
        "opening_hours": "Mo-Su 11:00-23:00",
        "phone": "+998906047092"
      }
    },
    {
      "type": "node",
      "id": 6454428985,
      "lat": 37.834069,
      "lon": 68.7610113,
      "timestamp": "2020-11-03T10:39:25Z",
      "version": 2,
      "changeset": 93475480,
      "user": "Jahajon",
      "uid": 10347914,
      "tags": {
        "amenity": "pub",
        "name": "–ü–∏–≤–∑–∞–≤–æ–¥",
        "name:en": "Pivzavod Brewery"
      }
    },
    {
      "type": "node",
      "id": 6481093492,
      "lat": 38.5753799,
      "lon": 68.8046874,
      "timestamp": "2019-05-17T15:42:04Z",
      "version": 1,
      "changeset": 70363163,
      "user": "Niclas Hinderberger",
      "uid": 8624411,
      "tags": {
        "amenity": "bar",
        "name:en": "The Hookah Louge"
      }
    },
    {
      "type": "node",
      "id": 6522472185,
      "lat": 38.5722899,
      "lon": 68.7888452,
      "timestamp": "2020-06-22T20:30:12Z",
      "version": 2,
      "changeset": 86997958,
      "user": "ChristianB77",
      "uid": 6703913,
      "tags": {
        "amenity": "bar",
        "name:en": "Twenty eight monkeys"
      }
    },
    {
      "type": "node",
      "id": 6581195685,
      "lat": 34.3781932,
      "lon": 62.3706779,
      "timestamp": "2019-07-01T07:43:22Z",
      "version": 1,
      "changeset": 71774469,
      "user": "Omidahmadi210",
      "uid": 10070334,
      "tags": {
        "amenity": "bar"
      }
    },
    {
      "type": "node",
      "id": 6581195785,
      "lat": 34.3814714,
      "lon": 62.3722497,
      "timestamp": "2019-07-01T07:43:23Z",
      "version": 1,
      "changeset": 71774469,
      "user": "Omidahmadi210",
      "uid": 10070334,
      "tags": {
        "amenity": "bar"
      }
    },
    {
      "type": "node",
      "id": 6635552285,
      "lat": 39.772886,
      "lon": 64.4259154,
      "timestamp": "2019-07-21T16:36:32Z",
      "version": 1,
      "changeset": 72486807,
      "user": "Pablo Strubell",
      "uid": 5054268,
      "tags": {
        "amenity": "pub",
        "name:en": "Esco Bar"
      }
    },
    {
      "type": "node",
      "id": 6656648685,
      "lat": 39.6595108,
      "lon": 66.9474684,
      "timestamp": "2024-09-12T13:12:15Z",
      "version": 3,
      "changeset": 156528142,
      "user": "Marych_",
      "uid": 349645,
      "tags": {
        "addr:housenumber": "11",
        "addr:postcode": "140000",
        "amenity": "bar",
        "contact:instagram": "greenbear.uz",
        "name": "Green Bear Bar",
        "name:en": "Green bear bar",
        "outdoor_seating": "no",
        "phone": "+998902126103"
      }
    },
    {
      "type": "node",
      "id": 6774697186,
      "lat": 38.6971728,
      "lon": 69.7488955,
      "timestamp": "2019-09-05T13:34:14Z",
      "version": 1,
      "changeset": 74135013,
      "user": "sulaymon shobek",
      "uid": 2610497,
      "tags": {
        "amenity": "bar",
        "name": "–ß–∞–≤–æ–Ω–æ–Ω",
        "name:en": "Javonon"
      }
    },
    {
      "type": "node",
      "id": 6779655785,
      "lat": 38.568016,
      "lon": 68.7477298,
      "timestamp": "2020-04-06T22:14:40Z",
      "version": 2,
      "changeset": 83166869,
      "user": "josmougn",
      "uid": 522742,
      "tags": {
        "amenity": "pub",
        "name": "–®–µ—à-–ë–µ—à"
      }
    },
    {
      "type": "node",
      "id": 6834460922,
      "lat": 34.3495246,
      "lon": 62.3099559,
      "timestamp": "2019-09-29T12:45:28Z",
      "version": 1,
      "changeset": 75061493,
      "user": "Omidahmadi210",
      "uid": 10070334,
      "tags": {
        "amenity": "bar"
      }
    },
    {
      "type": "node",
      "id": 6859383487,
      "lat": 37.8400549,
      "lon": 68.7774294,
      "timestamp": "2019-10-08T05:37:48Z",
      "version": 1,
      "changeset": 75399965,
      "user": "ChristianB77",
      "uid": 6703913,
      "tags": {
        "amenity": "bar",
        "name:en": "Shishkabob No. 1"
      }
    },
    {
      "type": "node",
      "id": 6862164970,
      "lat": 37.9206943,
      "lon": 68.9785763,
      "timestamp": "2021-03-23T02:42:05Z",
      "version": 2,
      "changeset": 101536424,
      "user": "ChristianB77",
      "uid": 6703913,
      "tags": {
        "amenity": "bar",
        "name": "Kokhi RS Bar"
      }
    },
    {
      "type": "node",
      "id": 6862320922,
      "lat": 39.6543554,
      "lon": 66.9578027,
      "timestamp": "2024-06-24T14:11:18Z",
      "version": 4,
      "changeset": 153114696,
      "user": "CRCulver",
      "uid": 340741,
      "tags": {
        "amenity": "bar",
        "level": "-1",
        "name": "Legrande Lounge Bar",
        "wheelchair": "no"
      }
    },
    {
      "type": "node",
      "id": 6874949486,
      "lat": 34.3818789,
      "lon": 62.3731804,
      "timestamp": "2019-10-13T07:38:28Z",
      "version": 1,
      "changeset": 75616404,
      "user": "Omidahmadi210",
      "uid": 10070334,
      "tags": {
        "amenity": "biergarten"
      }
    },
    {
      "type": "node",
      "id": 6874949487,
      "lat": 34.3772215,
      "lon": 62.3738963,
      "timestamp": "2019-10-13T07:38:29Z",
      "version": 1,
      "changeset": 75616404,
      "user": "Omidahmadi210",
      "uid": 10070334,
      "tags": {
        "amenity": "biergarten"
      }
    },
    {
      "type": "node",
      "id": 6874951785,
      "lat": 34.3823743,
      "lon": 62.3750176,
      "timestamp": "2019-10-13T07:38:28Z",
      "version": 1,
      "changeset": 75616404,
      "user": "Omidahmadi210",
      "uid": 10070334,
      "tags": {
        "amenity": "biergarten"
      }
    },
    {
      "type": "node",
      "id": 6874951885,
      "lat": 34.3821267,
      "lon": 62.3751337,
      "timestamp": "2019-10-13T07:38:29Z",
      "version": 1,
      "changeset": 75616404,
      "user": "Omidahmadi210",
      "uid": 10070334,
      "tags": {
        "amenity": "biergarten"
      }
    },
    {
      "type": "node",
      "id": 6896937787,
      "lat": 38.5846341,
      "lon": 68.7621549,
      "timestamp": "2020-04-11T19:11:27Z",
      "version": 2,
      "changeset": 83408967,
      "user": "josmougn",
      "uid": 522742,
      "tags": {
        "amenity": "bar",
        "contact:housenumber": "193",
        "contact:street": "–¥–µ—Ö–∏ –±–æ–ª–æ",
        "cuisine": "russian;pasta;sandwich;coffee_shop;georgian",
        "email": "theplace.dushanbe@gmail.com",
        "internet_access": "wlan",
        "name": "The Place",
        "name:en": "The Place",
        "name:tg": "–ó–µ –ü–ª–µ–π—Å",
        "opening_hours": "Mo-Su 12:00-23:59",
        "phone": "+992372353313",
        "website": "https://facebook.com/theplaceindushanbe"
      }
    },
    {
      "type": "node",
      "id": 6936458111,
      "lat": 37.8402846,
      "lon": 68.7695769,
      "timestamp": "2019-11-01T07:10:34Z",
      "version": 1,
      "changeset": 76478212,
      "user": "Jahajon",
      "uid": 10347914,
      "tags": {
        "amenity": "biergarten"
      }
    },
    {
      "type": "node",
      "id": 6947493495,
      "lat": 37.8293695,
      "lon": 68.7810213,
      "timestamp": "2019-11-05T07:21:30Z",
      "version": 1,
      "changeset": 76627782,
      "user": "Jahajon",
      "uid": 10347914,
      "tags": {
        "amenity": "biergarten"
      }
    },
    {
      "type": "node",
      "id": 7071571093,
      "lat": 38.6981177,
      "lon": 69.7540505,
      "timestamp": "2019-12-20T07:33:26Z",
      "version": 1,
      "changeset": 78671259,
      "user": "Behruz Boev",
      "uid": 10575859,
      "tags": {
        "amenity": "bar",
        "name": "–ß–∞–≤–æ–Ω–æ–Ω",
        "name:en": "Javonon",
        "phone": "935891905"
      }
    },
    {
      "type": "node",
      "id": 7177318987,
      "lat": 37.841842,
      "lon": 65.2029682,
      "timestamp": "2020-02-01T14:41:35Z",
      "version": 1,
      "changeset": 80411772,
      "user": "Serik07",
      "uid": 10687744,
      "tags": {
        "addr:street": "S. Ny√Ωazow k√∂√ßesi",
        "amenity": "bar",
        "name:en": "Steykhaus",
        "name:ru": "–°—Ç–µ–π–∫—Ö–∞—É—Å",
        "opening_hours": "Mo-Su 09:00-22:00"
      }
    },
    {
      "type": "node",
      "id": 7183519372,
      "lat": 33.5889795,
      "lon": 69.2293753,
      "timestamp": "2020-02-24T08:39:32Z",
      "version": 3,
      "changeset": 81395198,
      "user": "hosein mohammadi",
      "uid": 2692640,
      "tags": {
        "amenity": "bar",
        "name": "ÿ™ÿßŸÜ⁄© ÿ™€åŸÑ ÿ≠ŸÖ€åÿØÿßŸÑŸÑŸá ⁄Øÿ±ÿØ€åÿ≤€å"
      }
    },
    {
      "type": "node",
      "id": 7238291377,
      "lat": 32.7918485,
      "lon": 69.099781,
      "timestamp": "2020-02-24T08:39:32Z",
      "version": 1,
      "changeset": 81395198,
      "user": "hosein mohammadi",
      "uid": 2692640,
      "tags": {
        "amenity": "bar",
        "name": "ÿ®ÿßÿ± ÿπÿµÿ±€å"
      }
    },
    {
      "type": "node",
      "id": 7290873485,
      "lat": 37.8810407,
      "lon": 68.711929,
      "timestamp": "2020-03-13T06:59:07Z",
      "version": 1,
      "changeset": 82147381,
      "user": "–ó–æ—Ö–∏—Ä–¥–∂–æ–Ω –ú—É—Ö–∏–±—É–ª–ª–æ–∑–æ–¥–∞",
      "uid": 4101477,
      "tags": {
        "amenity": "bar",
        "name": "–ó–∞–º–∏–Ω–∏ –§–∞–π–∑–∏–¥–¥–∏–Ω"
      }
    },
    {
      "type": "node",
      "id": 7488868366,
      "lat": 37.8381162,
      "lon": 68.7846428,
      "timestamp": "2024-11-25T07:06:58Z",
      "version": 2,
      "changeset": 159559722,
      "user": "solenoid jam",
      "uid": 10129333,
      "tags": {
        "amenity": "bar",
        "name": "–ë–∞—Ä"
      }
    },
    {
      "type": "node",
      "id": 7488930095,
      "lat": 37.8380144,
      "lon": 68.7864271,
      "timestamp": "2020-05-06T09:52:41Z",
      "version": 1,
      "changeset": 84750621,
      "user": "–ò—Å–ª–æ–º–¥–∂–æ–Ω",
      "uid": 10751137,
      "tags": {
        "amenity": "bar",
        "name": "–ë–∞—Ä"
      }
    },
    {
      "type": "node",
      "id": 7491060951,
      "lat": 37.842645,
      "lon": 68.7644173,
      "timestamp": "2020-05-07T04:28:12Z",
      "version": 1,
      "changeset": 84799570,
      "user": "–ò—Å–ª–æ–º–¥–∂–æ–Ω",
      "uid": 10751137,
      "tags": {
        "amenity": "bar",
        "name": "–ë–∞—Ä"
      }
    },
    {
      "type": "node",
      "id": 7757179786,
      "lat": 37.8391972,
      "lon": 68.798609,
      "timestamp": "2020-11-20T08:40:23Z",
      "version": 2,
      "changeset": 94485826,
      "user": "–ò—Å–ª–æ–º–¥–∂–æ–Ω",
      "uid": 10751137,
      "tags": {
        "amenity": "bar",
        "name": "–∫–∞–ª—è–Ω–±–∞—Ä –ë—É—Ö–æ—Ä–æ"
      }
    },
    {
      "type": "node",
      "id": 7872171048,
      "lat": 37.8421567,
      "lon": 68.8181138,
      "timestamp": "2020-09-03T10:53:37Z",
      "version": 1,
      "changeset": 90357133,
      "user": "–ò—Å–ª–æ–º–¥–∂–æ–Ω",
      "uid": 10751137,
      "tags": {
        "amenity": "bar"
      }
    },
    {
      "type": "node",
      "id": 7882335985,
      "lat": 39.7040584,
      "lon": 67.2827501,
      "timestamp": "2025-10-13T22:36:58Z",
      "version": 2,
      "changeset": 173250209,
      "user": "FUZZY_42",
      "uid": 5460758,
      "tags": {
        "amenity": "bar",
        "name": "–ë–æ—á–∫–∞",
        "name:en": "Bochka",
        "shop": "alcohol"
      }
    },
    {
      "type": "node",
      "id": 8932596633,
      "lat": 38.8744927,
      "lon": 65.7947884,
      "timestamp": "2023-01-22T16:04:55Z",
      "version": 2,
      "changeset": 131571833,
      "user": "Damir XD",
      "uid": 17991949,
      "tags": {
        "amenity": "pub",
        "opening_hours": "Mo-Sa 08:00-18:00"
      }
    },
    {
      "type": "node",
      "id": 8932596644,
      "lat": 38.8744982,
      "lon": 65.7945423,
      "timestamp": "2023-01-22T16:04:55Z",
      "version": 2,
      "changeset": 131571833,
      "user": "Damir XD",
      "uid": 17991949,
      "tags": {
        "amenity": "bar"
      }
    },
    {
      "type": "node",
      "id": 9510586140,
      "lat": 38.2749332,
      "lon": 67.892442,
      "timestamp": "2022-02-16T13:46:54Z",
      "version": 1,
      "changeset": 117477775,
      "user": "Abdulaziz13",
      "uid": 15050342,
      "tags": {
        "amenity": "bar",
        "name": "Marvarid"
      }
    },
    {
      "type": "node",
      "id": 9523378711,
      "lat": 38.6116137,
      "lon": 68.7852058,
      "timestamp": "2022-02-21T05:56:07Z",
      "version": 1,
      "changeset": 117663735,
      "user": "TaniaN",
      "uid": 14221249,
      "tags": {
        "amenity": "bar",
        "name": "Zuma Kalyan Bar"
      }
    },
    {
      "type": "node",
      "id": 9668041717,
      "lat": 38.5104748,
      "lon": 68.737236,
      "timestamp": "2022-04-15T12:03:21Z",
      "version": 1,
      "changeset": 119748660,
      "user": "GIDPandion",
      "uid": 15588576,
      "tags": {
        "addr:housenumber": "15/A",
        "addr:street": "–ö—É—á–∞–∏ –ì–∏–ø—Ä–æ–∑–µ–º",
        "amenity": "bar",
        "cuisine": "international;pasta;pizza",
        "name": "–ú–∞—Ä–∫–æ –ü–æ–ª–æ",
        "name:en": "Marco Polo",
        "opening_hours": "Mo-Su 12:00-23:00",
        "phone": "+992900925000"
      }
    },
    {
      "type": "node",
      "id": 9704507708,
      "lat": 38.571038,
      "lon": 68.7975223,
      "timestamp": "2022-04-30T05:00:48Z",
      "version": 1,
      "changeset": 120371529,
      "user": "TaniaN",
      "uid": 14221249,
      "tags": {
        "addr:city": "–î—É—à–∞–Ω–±–µ",
        "addr:housenumber": "1",
        "addr:street": "–∫”Ø—á–∞–∏ –¢—É—Ä—Å—É–Ω–∑–æ–¥–∞",
        "amenity": "pub",
        "name": "Dood lounge"
      }
    },
    {
      "type": "node",
      "id": 9704507710,
      "lat": 38.5709088,
      "lon": 68.7976586,
      "timestamp": "2022-04-30T05:00:48Z",
      "version": 1,
      "changeset": 120371529,
      "user": "TaniaN",
      "uid": 14221249,
      "tags": {
        "amenity": "bar",
        "name": "M1Nt Lounge",
        "opening_hours": "Mo-Su 12:00-00:00"
      }
    },
    {
      "type": "node",
      "id": 9704579149,
      "lat": 38.5692999,
      "lon": 68.797075,
      "timestamp": "2022-04-30T05:54:29Z",
      "version": 1,
      "changeset": 120372229,
      "user": "TaniaN",
      "uid": 14221249,
      "tags": {
        "addr:city": "–î—É—à–∞–Ω–±–µ",
        "addr:housenumber": "1",
        "addr:street": "–∫”Ø—á–∞–∏ –ë–µ“≥–∑–æ–¥",
        "amenity": "pub",
        "name": "le club"
      }
    },
    {
      "type": "node",
      "id": 9704579153,
      "lat": 38.5679427,
      "lon": 68.7985019,
      "timestamp": "2022-04-30T05:54:29Z",
      "version": 1,
      "changeset": 120372229,
      "user": "TaniaN",
      "uid": 14221249,
      "tags": {
        "addr:city": "–î—É—à–∞–Ω–±–µ",
        "addr:housenumber": "3/1",
        "addr:street": "–∫”Ø—á–∞–∏ –ù–∏—Å–æ—Ä –ú—É“≥–∞–º–º–∞–¥",
        "amenity": "bar",
        "name": "–Ø—Å–º–∏–Ω"
      }
    },
    {
      "type": "node",
      "id": 9704579190,
      "lat": 38.5625768,
      "lon": 68.802,
      "timestamp": "2022-04-30T05:54:29Z",
      "version": 1,
      "changeset": 120372229,
      "user": "TaniaN",
      "uid": 14221249,
      "tags": {
        "addr:city": "–î—É—à–∞–Ω–±–µ",
        "addr:housenumber": "40",
        "addr:street": "–∫”Ø—á–∞–∏ –°–∞–¥—Ä–∏–¥–¥–∏–Ω –ê–π–Ω”£",
        "amenity": "bar",
        "name": "K bar"
      }
    },
    {
      "type": "node",
      "id": 9704640745,
      "lat": 38.5681737,
      "lon": 68.784954,
      "timestamp": "2022-04-30T06:29:08Z",
      "version": 1,
      "changeset": 120372829,
      "user": "TaniaN",
      "uid": 14221249,
      "tags": {
        "amenity": "pub",
        "name": "Bundes",
        "smoking": "yes"
      }
    },
    {
      "type": "node",
      "id": 9704640746,
      "lat": 38.5682367,
      "lon": 68.785091,
      "timestamp": "2022-04-30T06:29:08Z",
      "version": 1,
      "changeset": 120372829,
      "user": "TaniaN",
      "uid": 14221249,
      "tags": {
        "amenity": "pub",
        "contact:phone": "+992900202202",
        "name": "Somoni Cyber Space"
      }
    },
    {
      "type": "node",
      "id": 9704640747,
      "lat": 38.5684984,
      "lon": 68.7854751,
      "timestamp": "2022-04-30T06:29:08Z",
      "version": 1,
      "changeset": 120372829,
      "user": "TaniaN",
      "uid": 14221249,
      "tags": {
        "addr:city": "dusanbe",
        "addr:housenumber": "25",
        "addr:street": "–∫”Ø—á–∞–∏ –ë—É—Ö–æ—Ä–æ",
        "amenity": "pub",
        "name": "SK Lounge"
      }
    },
    {
      "type": "node",
      "id": 9704640748,
      "lat": 38.5682056,
      "lon": 68.7839666,
      "timestamp": "2022-04-30T06:29:08Z",
      "version": 1,
      "changeset": 120372829,
      "user": "TaniaN",
      "uid": 14221249,
      "tags": {
        "addr:city": "dusanbe",
        "addr:housenumber": "32",
        "addr:street": "–∫”Ø—á–∞–∏ –ë—É—Ö–æ—Ä–æ",
        "amenity": "pub",
        "name": "Public Bar 2.0"
      }
    },
    {
      "type": "node",
      "id": 9766091360,
      "lat": 38.5579014,
      "lon": 68.8006066,
      "timestamp": "2022-05-24T06:05:33Z",
      "version": 1,
      "changeset": 121401860,
      "user": "TaniaN",
      "uid": 14221249,
      "tags": {
        "amenity": "bar",
        "name": "–°–ò–ú –°–ò–ú"
      }
    },
    {
      "type": "node",
      "id": 9768694696,
      "lat": 38.583785,
      "lon": 68.7814435,
      "timestamp": "2022-05-25T05:35:43Z",
      "version": 1,
      "changeset": 121455490,
      "user": "TaniaN",
      "uid": 14221249,
      "tags": {
        "amenity": "pub",
        "name": "Cherry & Tomato"
      }
    },
    {
      "type": "node",
      "id": 9768712195,
      "lat": 38.5912794,
      "lon": 68.7360802,
      "timestamp": "2022-05-25T05:35:43Z",
      "version": 1,
      "changeset": 121455490,
      "user": "TaniaN",
      "uid": 14221249,
      "tags": {
        "amenity": "bar",
        "name": "Mist"
      }
    },
    {
      "type": "node",
      "id": 9776782817,
      "lat": 38.5681897,
      "lon": 68.7839587,
      "timestamp": "2022-05-28T13:07:27Z",
      "version": 1,
      "changeset": 121616454,
      "user": "fossa89",
      "uid": 7674260,
      "tags": {
        "amenity": "pub",
        "name": "–ü–∞–±–ª–∏–∫ –ü–∞–± 2.0",
        "name:en": "Public Pub 2.0"
      }
    },
    {
      "type": "node",
      "id": 10010752959,
      "lat": 37.2682595,
      "lon": 67.2917822,
      "timestamp": "2022-09-09T07:59:56Z",
      "version": 1,
      "changeset": 125970219,
      "user": "donovaly",
      "uid": 1730904,
      "tags": {
        "amenity": "pub"
      }
    },
    {
      "type": "node",
      "id": 10187568717,
      "lat": 38.6005721,
      "lon": 68.7865194,
      "timestamp": "2022-11-16T04:27:44Z",
      "version": 1,
      "changeset": 128968212,
      "user": "Shuhrat2022",
      "uid": 17692990,
      "tags": {
        "amenity": "bar",
        "internet_access": "wlan"
      }
    },
    {
      "type": "node",
      "id": 10973726005,
      "lat": 39.64338,
      "lon": 66.9370937,
      "timestamp": "2023-06-13T12:11:25Z",
      "version": 1,
      "changeset": 137283453,
      "user": "Martooner99",
      "uid": 19434984,
      "tags": {
        "amenity": "bar",
        "name:en": "Samcraft - Craft beer pub"
      }
    },
    {
      "type": "node",
      "id": 10973726007,
      "lat": 39.6511155,
      "lon": 66.9497485,
      "timestamp": "2023-06-13T12:26:55Z",
      "version": 1,
      "changeset": 137283972,
      "user": "Martooner99",
      "uid": 19434984,
      "tags": {
        "amenity": "pub",
        "name:en": "Blues /Jazz bar"
      }
    },
    {
      "type": "node",
      "id": 10979960205,
      "lat": 39.5041561,
      "lon": 67.6051663,
      "timestamp": "2023-06-16T03:15:33Z",
      "version": 1,
      "changeset": 137394962,
      "user": "Martooner99",
      "uid": 19434984,
      "tags": {
        "amenity": "bar",
        "name:en": "Guest house and bar"
      }
    },
    {
      "type": "node",
      "id": 11080883305,
      "lat": 39.6599147,
      "lon": 66.9472756,
      "timestamp": "2024-09-12T13:12:15Z",
      "version": 2,
      "changeset": 156528142,
      "user": "Marych_",
      "uid": 349645,
      "tags": {
        "amenity": "bar",
        "name": "–ú–∞–Ω—á–µ—Å—Ç–µ—Ä –ø–∞–±",
        "name:en": "Manchester Pub",
        "name:ru": "–ú–∞–Ω—á–µ—Å—Ç–µ—Ä –ø–∞–±",
        "outdoor_seating": "no"
      }
    },
    {
      "type": "node",
      "id": 11365279051,
      "lat": 39.3683198,
      "lon": 67.7615858,
      "timestamp": "2023-11-20T23:25:11Z",
      "version": 1,
      "changeset": 144266008,
      "user": "ChristianB77",
      "uid": 6703913,
      "tags": {
        "amenity": "pub"
      }
    },
    {
      "type": "node",
      "id": 11795576369,
      "lat": 37.5953897,
      "lon": 61.8353241,
      "timestamp": "2024-04-06T15:17:02Z",
      "version": 1,
      "changeset": 149659770,
      "user": "Marin Petrovic",
      "uid": 19516095,
      "tags": {
        "amenity": "bar",
        "name:en": "Draught beer 10 manat"
      }
    },
    {
      "type": "node",
      "id": 11891265269,
      "lat": 39.6750411,
      "lon": 67.0006975,
      "timestamp": "2025-07-08T06:22:42Z",
      "version": 3,
      "changeset": 168632922,
      "user": "solenoid jam",
      "uid": 10129333,
      "tags": {
        "amenity": "bar"
      }
    },
    {
      "type": "node",
      "id": 11945305269,
      "lat": 39.4949479,
      "lon": 67.6005456,
      "timestamp": "2024-05-30T15:30:09Z",
      "version": 1,
      "changeset": 152041627,
      "user": "ilya37529",
      "uid": 9250623,
      "tags": {
        "amenity": "pub",
        "name": "–ü—Ä–æ—Å—Ç–æ –ø–∏–≤–Ω—É—à–∫–∞",
        "name:en": "Beer House"
      }
    },
    {
      "type": "node",
      "id": 11955924169,
      "lat": 39.4971462,
      "lon": 67.594359,
      "timestamp": "2024-06-04T13:58:47Z",
      "version": 1,
      "changeset": 152245804,
      "user": "ilya37529",
      "uid": 9250623,
      "tags": {
        "amenity": "biergarten",
        "name": "–ü–∏–≤–Ω–∞—è #1. –ö—Ä–∞—Ñ—Ç–æ–≤–æ–µ –ø–∏–≤–æ",
        "name:en": "Beer House #1. Craft beer"
      }
    },
    {
      "type": "node",
      "id": 11970659169,
      "lat": 36.3626203,
      "lon": 68.8934172,
      "timestamp": "2024-06-10T20:34:34Z",
      "version": 1,
      "changeset": 152515327,
      "user": "Snoopy Dogg",
      "uid": 21644436,
      "tags": {
        "amenity": "bar"
      }
    },
    {
      "type": "node",
      "id": 11990436516,
      "lat": 39.6589165,
      "lon": 66.9577868,
      "timestamp": "2024-06-18T16:04:39Z",
      "version": 1,
      "changeset": 152855918,
      "user": "CRCulver",
      "uid": 340741,
      "tags": {
        "amenity": "bar",
        "name": "Jamayca Lounge Bar"
      }
    },
    {
      "type": "node",
      "id": 11990462294,
      "lat": 39.6579642,
      "lon": 66.9585803,
      "timestamp": "2024-06-18T16:04:39Z",
      "version": 1,
      "changeset": 152855918,
      "user": "CRCulver",
      "uid": 340741,
      "tags": {
        "amenity": "bar",
        "microbrewery": "yes",
        "name": "Zlata Brewery"
      }
    },
    {
      "type": "node",
      "id": 11992054160,
      "lat": 39.653701,
      "lon": 66.971922,
      "timestamp": "2024-06-19T13:14:49Z",
      "version": 1,
      "changeset": 152896711,
      "user": "CRCulver",
      "uid": 340741,
      "tags": {
        "amenity": "pub",
        "name": "Sam Craft Pub"
      }
    },
    {
      "type": "node",
      "id": 11992057886,
      "lat": 39.6561219,
      "lon": 66.9543548,
      "timestamp": "2024-06-19T13:14:49Z",
      "version": 1,
      "changeset": 152896711,
      "user": "CRCulver",
      "uid": 340741,
      "tags": {
        "amenity": "bar",
        "name": "Pravda Lounge & Bar"
      }
    },
    {
      "type": "node",
      "id": 11992057893,
      "lat": 39.6566502,
      "lon": 66.960752,
      "timestamp": "2024-06-19T13:14:49Z",
      "version": 1,
      "changeset": 152896711,
      "user": "CRCulver",
      "uid": 340741,
      "tags": {
        "amenity": "bar",
        "name": "Pravda Lounge Bar"
      }
    },
    {
      "type": "node",
      "id": 11992057923,
      "lat": 39.6554271,
      "lon": 66.9602903,
      "timestamp": "2024-06-19T13:14:49Z",
      "version": 1,
      "changeset": 152896711,
      "user": "CRCulver",
      "uid": 340741,
      "tags": {
        "amenity": "bar",
        "name": "Sava Lounge Bar"
      }
    },
    {
      "type": "node",
      "id": 11994501154,
      "lat": 39.6447412,
      "lon": 66.9336966,
      "timestamp": "2024-06-20T13:23:43Z",
      "version": 1,
      "changeset": 152945888,
      "user": "CRCulver",
      "uid": 340741,
      "tags": {
        "amenity": "pub",
        "microbrewery": "yes",
        "name": "Two Chinar's Beer Brewery"
      }
    },
    {
      "type": "node",
      "id": 11994510581,
      "lat": 39.6431079,
      "lon": 66.9359891,
      "timestamp": "2024-06-20T13:23:43Z",
      "version": 1,
      "changeset": 152945888,
      "user": "CRCulver",
      "uid": 340741,
      "tags": {
        "amenity": "bar",
        "name": "Re Bar",
        "outdoor_seating": "yes"
      }
    },
    {
      "type": "node",
      "id": 11994721073,
      "lat": 39.6466923,
      "lon": 66.9348971,
      "timestamp": "2024-06-20T15:09:53Z",
      "version": 1,
      "changeset": 152950857,
      "user": "CRCulver",
      "uid": 340741,
      "tags": {
        "amenity": "bar",
        "name": "Lamoza Lounge Bar"
      }
    },
    {
      "type": "node",
      "id": 12003322065,
      "lat": 39.6295575,
      "lon": 66.970307,
      "timestamp": "2024-06-23T15:39:25Z",
      "version": 1,
      "changeset": 153073900,
      "user": "CRCulver",
      "uid": 340741,
      "tags": {
        "amenity": "bar"
      }
    },
    {
      "type": "node",
      "id": 12006579558,
      "lat": 39.6480348,
      "lon": 66.9559424,
      "timestamp": "2024-06-24T14:11:18Z",
      "version": 1,
      "changeset": 153114696,
      "user": "CRCulver",
      "uid": 340741,
      "tags": {
        "amenity": "bar",
        "level": "-1",
        "name": "Xookas Hookah Bar",
        "wheelchair": "no"
      }
    },
    {
      "type": "node",
      "id": 12229987503,
      "lat": 39.7725359,
      "lon": 64.4194629,
      "timestamp": "2024-10-06T16:39:43Z",
      "version": 1,
      "changeset": 157549062,
      "user": "JoeHardi",
      "uid": 10935094,
      "tags": {
        "amenity": "bar",
        "name": "JOY Chaikhana Lounge"
      }
    },
    {
      "type": "node",
      "id": 12229987504,
      "lat": 39.7701595,
      "lon": 64.4199198,
      "timestamp": "2024-10-06T16:39:44Z",
      "version": 1,
      "changeset": 157549062,
      "user": "JoeHardi",
      "uid": 10935094,
      "tags": {
        "amenity": "bar",
        "internet_access": "wlan",
        "name": "Restaurant Old Barn"
      }
    },
    {
      "type": "node",
      "id": 12234221601,
      "lat": 39.7725689,
      "lon": 64.4194633,
      "timestamp": "2025-05-08T15:31:22Z",
      "version": 2,
      "changeset": 165989995,
      "user": "user_10539745",
      "uid": 10539745,
      "tags": {
        "addr:housenumber": "2",
        "addr:street": "Sarrafon ko'chasi",
        "amenity": "bar",
        "name:en": "Wine shop & tasting",
        "name:ru": "–£–≥–æ–ª–æ–∫ –û–º–∞—Ä –•–∞—è–º–∞ - –ê–ª–∫–æ–º–∞—Ä–∫–µ—Ç –∏ –¥–µ–≥—É—Å—Ç–∞—Ü–∏–∏",
        "opening_hours": "Mo-Su 10:00-23:00",
        "outdoor_seating": "no",
        "phone": "+998 90 298 88 00"
      }
    },
    {
      "type": "node",
      "id": 12282257101,
      "lat": 37.5098316,
      "lon": 66.0330262,
      "timestamp": "2024-10-23T17:04:11Z",
      "version": 1,
      "changeset": 158263345,
      "user": "XXX2024",
      "uid": 22067437,
      "tags": {
        "amenity": "bar",
        "name:en": "Doganlar toy mekany",
        "name:ru": "–î–æ–≥–∞–Ω–ª–∞—Ä —Ç–æ–π –º–µ–∫–∞–Ω—ã"
      }
    },
    {
      "type": "node",
      "id": 12556880715,
      "lat": 38.3885624,
      "lon": 69.3192445,
      "timestamp": "2025-02-04T16:50:03Z",
      "version": 1,
      "changeset": 162133949,
      "user": "ChristianB77",
      "uid": 6703913,
      "tags": {
        "amenity": "biergarten"
      }
    },
    {
      "type": "node",
      "id": 12587517672,
      "lat": 39.6630166,
      "lon": 66.9329285,
      "timestamp": "2025-02-14T12:50:35Z",
      "version": 1,
      "changeset": 162502235,
      "user": "Gorod Bar&Club",
      "uid": 22504527,
      "tags": {
        "addr:city": "Samarqand",
        "addr:housenumber": "140A",
        "addr:street": "Mirzo Ulug'bek ko'chasi",
        "air_conditioning": "yes",
        "amenity": "bar",
        "internet_access": "wlan",
        "min_age": "18",
        "mobile": "+998953328580",
        "name": "GOROD",
        "payment:cash": "yes",
        "payment:debit_cards": "yes",
        "payment:visa": "yes",
        "smoking": "yes",
        "website": "https://www.instagram.com/gorod__samarkand?igsh=NDg3M2Rpc2l2a3E0"
      }
    },
    {
      "type": "node",
      "id": 12840396301,
      "lat": 37.8446258,
      "lon": 68.7801993,
      "timestamp": "2025-05-16T02:42:49Z",
      "version": 2,
      "changeset": 166329097,
      "user": "Firuz Zabirov",
      "uid": 22711563,
      "tags": {
        "addr:street": "—É–ª. –ß–∞–ª–æ–ª–∏–¥–¥–∏–Ω–∏ –†—É–º–∏ 9 (—à.–ë–æ—Ö—Ç–∞—Ä)",
        "amenity": "bar",
        "internet_access": "wlan",
        "name": "–ö–∞–ª—å—è–Ω-–±–∞—Ä –ú–æ–Ω–∞–∫–æ"
      }
    },
    {
      "type": "node",
      "id": 12840396601,
      "lat": 37.8439944,
      "lon": 68.7736891,
      "timestamp": "2025-05-16T02:42:52Z",
      "version": 2,
      "changeset": 166329097,
      "user": "Firuz Zabirov",
      "uid": 22711563,
      "tags": {
        "amenity": "bar",
        "name": "–¢–∞–±–∞–∫–∞–∏ –•–∏—Å–æ—Ä"
      }
    },
    {
      "type": "node",
      "id": 12943890852,
      "lat": 39.667664,
      "lon": 66.9749624,
      "timestamp": "2025-06-22T02:05:24Z",
      "version": 1,
      "changeset": 167935612,
      "user": "alkino",
      "uid": 510085,
      "tags": {
        "amenity": "pub",
        "name": "Beer market",
        "opening_hours": "Mo-Su 10:00-01:00"
      }
    },
    {
      "type": "way",
      "id": 169855406,
      "timestamp": "2019-03-24T16:00:52Z",
      "version": 4,
      "changeset": 68475627,
      "user": "apm-wa",
      "uid": 1960718,
      "center": {
        "lat": 39.0677887,
        "lon": 63.5816421
      },
      "nodes": [
        1810134446,
        1810134502,
        1810134922,
        1810134553,
        1810134912,
        1810134761,
        1810135028,
        1810134716,
        1810135050,
        1810134556,
        1810134919,
        1810134358,
        1810134734,
        1810134862,
        1810134770,
        1810134778,
        1810134971,
        1810134937,
        1810134786,
        1810135103,
        1810134961,
        1810134410,
        1810134550,
        1810134402,
        1810134451,
        1810135012,
        1810134726,
        1810134621,
        1810134709,
        1810135152,
        1810134728,
        1810134676,
        1810134860,
        1810134876,
        1810135163,
        1810134785,
        1810134765,
        1810134465,
        1810134667,
        1810134918,
        1810134661,
        1810134558,
        1810134758,
        1810134557,
        1810134689,
        1810134539,
        1810134561,
        1810134662,
        1810135064,
        1810134999,
        1810134446
      ],
      "tags": {
        "addr:city": "Turkmenabat",
        "addr:street": "Abdyrahmanow k√∂√ßesi",
        "amenity": "bar",
        "building": "yes",
        "cuisine": "regional",
        "internet_access": "no",
        "name": "Selbi Disco"
      }
    },
    {
      "type": "way",
      "id": 262247757,
      "timestamp": "2023-03-07T03:59:22Z",
      "version": 5,
      "changeset": 133386744,
      "user": "apm-wa",
      "uid": 1960718,
      "center": {
        "lat": 39.0450118,
        "lon": 63.5821905
      },
      "nodes": [
        2679045933,
        2679045936,
        2679045938,
        2679045940,
        2679045933
      ],
      "tags": {
        "addr:city": "Turkmenabat",
        "addr:street": "S.A. Ny√Ωazow k√∂√ßesi",
        "amenity": "bar",
        "building": "yes",
        "name": "Asia Disco"
      }
    },
    {
      "type": "way",
      "id": 264407738,
      "timestamp": "2014-03-04T05:46:45Z",
      "version": 1,
      "changeset": 20903420,
      "user": "Ruslan26",
      "uid": 1935572,
      "center": {
        "lat": 39.0829907,
        "lon": 63.5785175
      },
      "nodes": [
        2700931826,
        2700931827,
        2700931828,
        2700931829,
        2700931830,
        2700931831,
        2700931832,
        2700931833,
        2700931826
      ],
      "tags": {
        "amenity": "pub",
        "building": "yes"
      }
    },
    {
      "type": "way",
      "id": 265515836,
      "timestamp": "2014-03-10T22:46:20Z",
      "version": 2,
      "changeset": 21036067,
      "user": "Ruslan26",
      "uid": 1935572,
      "center": {
        "lat": 39.1091785,
        "lon": 63.573218
      },
      "nodes": [
        2711684235,
        2711684237,
        2711684239,
        2711684242,
        2711684235
      ],
      "tags": {
        "addr:city": "Turkmenabat",
        "addr:street": "No 521",
        "amenity": "pub",
        "building": "yes",
        "cuisine": "regional",
        "name": "ZIP Kafe"
      }
    },
    {
      "type": "way",
      "id": 266072410,
      "timestamp": "2024-09-12T13:12:15Z",
      "version": 3,
      "changeset": 156528142,
      "user": "Marych_",
      "uid": 349645,
      "center": {
        "lat": 39.6610751,
        "lon": 66.9470727
      },
      "nodes": [
        2716476644,
        2716476645,
        12172361474,
        12172361475,
        2716476646,
        2716476647,
        2716476644
      ],
      "tags": {
        "amenity": "bar",
        "building": "yes",
        "name": "–ë–æ—á–∫–∞",
        "name:ru": "–ë–æ—á–∫–∞"
      }
    },
    {
      "type": "way",
      "id": 267330634,
      "timestamp": "2017-01-10T15:27:04Z",
      "version": 4,
      "changeset": 45053514,
      "user": "parukhin",
      "uid": 519501,
      "center": {
        "lat": 39.0682288,
        "lon": 63.5837448
      },
      "nodes": [
        2727954669,
        2727954670,
        2727954671,
        2727954672,
        2727954673,
        2727954674,
        2727954675,
        2727954676,
        2727954677,
        2727954678,
        2727954679,
        2727954680,
        2727954681,
        2727954682,
        2727954683,
        2727954684,
        2727954685,
        2679585712,
        2727954669
      ],
      "tags": {
        "addr:city": "Turkmenabat",
        "amenity": "bar",
        "building": "yes",
        "name": "TOHTAGUL DISCO",
        "opening_hours": "09:00",
        "wheelchair": "limited"
      }
    },
    {
      "type": "way",
      "id": 274792277,
      "timestamp": "2022-02-16T12:36:12Z",
      "version": 2,
      "changeset": 117474994,
      "user": "Abdulaziz13",
      "uid": 15050342,
      "center": {
        "lat": 38.2672717,
        "lon": 67.8982954
      },
      "nodes": [
        2794597181,
        2794597183,
        2794597179,
        2794597178,
        2794597181
      ],
      "tags": {
        "amenity": "bar",
        "building": "yes",
        "building:levels": "2",
        "name": "Antaliya",
        "smoking": "yes"
      }
    },
    {
      "type": "way",
      "id": 394009463,
      "timestamp": "2016-01-27T10:13:54Z",
      "version": 1,
      "changeset": 36833650,
      "user": "Azim_sherov",
      "uid": 2794197,
      "center": {
        "lat": 38.5402446,
        "lon": 68.7728223
      },
      "nodes": [
        3970545266,
        3970545267,
        3970545268,
        3970545269,
        3970545266
      ],
      "tags": {
        "amenity": "bar",
        "building": "yes",
        "name": "–ë–∞—Ä-–ö–∞—Ä–∞–æ–∫–µ-–ë–∏–ª—å—è—Ä–¥"
      }
    },
    {
      "type": "way",
      "id": 674523941,
      "timestamp": "2020-11-27T05:17:54Z",
      "version": 2,
      "changeset": 94871736,
      "user": "Rehei_47",
      "uid": 12221816,
      "center": {
        "lat": 38.5332923,
        "lon": 68.7523069
      },
      "nodes": [
        6316907062,
        6316907059,
        6316907060,
        6316907061,
        6316907062
      ],
      "tags": {
        "addr:street": "–∫”Ø—á–∞–∏ –ë–æ—Ä–±–∞–¥",
        "amenity": "bar",
        "building": "yes",
        "building:levels": "1",
        "lgbtq": "primary",
        "name": "–ü–ú–°"
      }
    },
    {
      "type": "way",
      "id": 707340944,
      "timestamp": "2019-07-25T15:04:20Z",
      "version": 1,
      "changeset": 72650819,
      "user": "Mehrubon",
      "uid": 9209878,
      "center": {
        "lat": 38.5150719,
        "lon": 68.2142467
      },
      "nodes": [
        6647017557,
        6647017558,
        6647017559,
        6647017560,
        6647017557
      ],
      "tags": {
        "addr:city": "–¢—É—Ä—Å—É–Ω–∑–∞–¥–µ",
        "addr:street": "3-–π –º–∏–∫—Ä–æ—Ä–∞–π–æ–Ω",
        "amenity": "pub",
        "building": "yes",
        "name": "Chill Out",
        "opening_hours": "Mo-Su 06:00-22:00"
      }
    },
    {
      "type": "way",
      "id": 721153916,
      "timestamp": "2019-09-02T12:08:53Z",
      "version": 1,
      "changeset": 73998114,
      "user": "–ë–∞—Ö—Ç–æ–≤–∞—Ä –®–∞—Ä–∏–ø–æ–≤",
      "uid": 10221564,
      "center": {
        "lat": 38.5166552,
        "lon": 68.2172326
      },
      "nodes": [
        6766179070,
        6766179071,
        6766179072,
        6766179073,
        6766179074,
        6766179075,
        6766179076,
        6766179077,
        6766179070
      ],
      "tags": {
        "amenity": "bar",
        "building": "yes"
      }
    },
    {
      "type": "way",
      "id": 824104793,
      "timestamp": "2020-07-08T08:57:48Z",
      "version": 1,
      "changeset": 87698377,
      "user": "Jahajon",
      "uid": 10347914,
      "center": {
        "lat": 37.8313237,
        "lon": 68.7822289
      },
      "nodes": [
        7694449854,
        7694449855,
        7694449856,
        7694449857,
        7694449858,
        7694449859,
        7694449860,
        7694449861,
        7694449862,
        7694449863,
        7694449864,
        7694449854
      ],
      "tags": {
        "amenity": "biergarten",
        "name": "–°–∏–º –°–∏–º"
      }
    },
    {
      "type": "way",
      "id": 884988693,
      "timestamp": "2020-12-15T04:59:04Z",
      "version": 1,
      "changeset": 95845963,
      "user": "Rehei_47",
      "uid": 12221816,
      "center": {
        "lat": 38.5578501,
        "lon": 68.7641197
      },
      "nodes": [
        8229871261,
        8229871262,
        8229871263,
        8229871264,
        8229871261
      ],
      "tags": {
        "amenity": "bar",
        "building": "yes",
        "name:tg": "–°–∏–º –°–∏–º (–¶–∏—Ä–∫)"
      }
    }
  ]
}