{
  "version": 0.6,
  "generator": "Overpass API 0.7.62.8 e802775f",
  "osm3s": {
    "timestamp_osm_base": "2025-10-23T20:32:11Z",
    "copyright": "The data included in this document is from www.openstreetmap.org. The data is made available under ODbL."
  },
  "elements": [
    {
      "type": "node",
      "id": 279728851,
      "lat": 52.1513528,
      "lon": -10.0565553,
      "timestamp": "2023-02-22T12:54:54Z",
      "version": 8,
      "changeset": 132878404,
      "user": "PubUpdater",
      "uid": 13921292,
      "tags": {
        "addr:city": "Annascaul",
        "addr:country": "IE",
        "addr:county": "Kerry",
        "addr:postcode": "V92 N220",
        "addr:street": "Main Street",
        "amenity": "pub",
        "contact:facebook": "https://www.facebook.com/SouthPoleInn/",
        "name": "South Pole Inn",
        "note": "Tom creans pub ring ahead for lunch on way to dingle",
        "phone": "+353669157388",
        "website": "https://www.southpoleinn.com/"
      }
    },
    {
      "type": "node",
      "id": 279772647,
      "lat": 52.2685759,
      "lon": -10.1600133,
      "timestamp": "2024-04-24T15:22:39Z",
      "version": 4,
      "changeset": 150453155,
      "user": "PubUpdater",
      "uid": 13921292,
      "tags": {
        "addr:city": "Brandon",
        "addr:county": "Kerry",
        "addr:postcode": "V92 T680",
        "addr:street": "Brandon Pier",
        "amenity": "pub",
        "contact:facebook": "https://www.facebook.com/murphysbrandon",
        "email": "murphysbarbrandon@gmail.com",
        "internet_access": "wlan",
        "name": "Nora Murphy’s",
        "website": "https://www.murphysbarbrandon.com/"
      }
    },
    {
      "type": "node",
      "id": 566627156,
      "lat": 51.6405689,
      "lon": -10.0440201,
      "timestamp": "2025-07-24T11:59:42Z",
      "version": 8,
      "changeset": 169394604,
      "user": "Yuxian",
      "uid": 10084645,
      "tags": {
        "addr:city": "Allihies",
        "addr:country": "IE",
        "addr:county": "Cork",
        "addr:postcode": "P75 E406",
        "addr:street": "Cluin",
        "amenity": "pub",
        "brewery": "Guinness;Smithwick",
        "check_date": "2025-07-24",
        "indoor_seating": "yes",
        "name": "Jimmy's",
        "outdoor_seating": "yes"
      }
    },
    {
      "type": "node",
      "id": 659788605,
      "lat": 53.5448886,
      "lon": -10.1456035,
      "timestamp": "2020-10-08T18:33:06Z",
      "version": 7,
      "changeset": 92191471,
      "user": "DaCor",
      "uid": 578519,
      "tags": {
        "amenity": "pub",
        "name": "Sweeney's Strand Bar",
        "name:en": "Sweeney's Strand Bar",
        "phone": "+353-95-44673",
        "website": "https://www.sweeneysbarcladdaghduff.com/"
      }
    },
    {
      "type": "node",
      "id": 667391363,
      "lat": 51.779154,
      "lon": -10.0342499,
      "timestamp": "2021-02-18T15:35:35Z",
      "version": 4,
      "changeset": 99534300,
      "user": "Quainer",
      "uid": 12657291,
      "tags": {
        "amenity": "pub",
        "name": "An Siopa Dubh"
      }
    },
    {
      "type": "node",
      "id": 677839817,
      "lat": 51.9255647,
      "lon": -10.2916886,
      "timestamp": "2024-06-21T13:22:06Z",
      "version": 3,
      "changeset": 152993275,
      "user": "PubUpdater",
      "uid": 13921292,
      "tags": {
        "addr:city": "Valentia Island",
        "addr:county": "Kerry",
        "addr:postcode": "V23 AK49",
        "addr:street": "Market Street",
        "amenity": "pub",
        "name": "Boston’s"
      }
    },
    {
      "type": "node",
      "id": 684291065,
      "lat": 51.8278783,
      "lon": -10.1721912,
      "timestamp": "2022-05-22T04:11:31Z",
      "version": 4,
      "changeset": 121303543,
      "user": "b-jazz-bot",
      "uid": 9451067,
      "tags": {
        "amenity": "pub",
        "email": "reservations@butlerarms.com",
        "fax": "+353 66 9474520",
        "name": "Butler Arms",
        "phone": "+353 66 9474144",
        "stars": "4",
        "tourism": "hotel",
        "website": "https://www.butlerarms.com/"
      }
    },
    {
      "type": "node",
      "id": 766934173,
      "lat": 52.2562585,
      "lon": -10.0211265,
      "timestamp": "2023-05-25T09:43:16Z",
      "version": 4,
      "changeset": 136535579,
      "user": "PubUpdater",
      "uid": 13921292,
      "tags": {
        "addr:city": "Castlegregory",
        "addr:country": "IE",
        "addr:county": "Kerry",
        "addr:postcode": "V92 F6NX",
        "addr:street": "Strand Street",
        "amenity": "pub",
        "name": "Fitzgerald’s",
        "wheelchair": "no"
      }
    },
    {
      "type": "node",
      "id": 868398459,
      "lat": 52.1906684,
      "lon": -10.3757593,
      "timestamp": "2015-06-02T08:46:55Z",
      "version": 2,
      "changeset": 31657612,
      "user": "Mary Tossell",
      "uid": 2958904,
      "tags": {
        "amenity": "pub",
        "name": "TP's"
      }
    },
    {
      "type": "node",
      "id": 868398462,
      "lat": 52.1902921,
      "lon": -10.374737,
      "timestamp": "2018-12-03T13:27:50Z",
      "version": 2,
      "changeset": 65125337,
      "user": "dónal",
      "uid": 574926,
      "tags": {
        "addr:city": "Baile na nGall",
        "amenity": "pub",
        "brewery": "yes",
        "name": "Begley's",
        "outdoor_seating": "yes",
        "smoking": "outside"
      }
    },
    {
      "type": "node",
      "id": 877738390,
      "lat": 52.1410132,
      "lon": -10.2670816,
      "timestamp": "2024-04-25T13:43:40Z",
      "version": 9,
      "changeset": 150497517,
      "user": "PubUpdater",
      "uid": 13921292,
      "tags": {
        "addr:city": "Dingle",
        "addr:county": "Kerry",
        "addr:postcode": "V92 DK2E",
        "addr:street": "An tSráid Mhór",
        "amenity": "pub",
        "brewery": "Guinness;Heineken",
        "name": "An Droichead Beag",
        "name:en": "The Small Bridge",
        "name:ga": "An Droichead Beag"
      }
    },
    {
      "type": "node",
      "id": 879565293,
      "lat": 52.1406189,
      "lon": -10.2671385,
      "timestamp": "2024-04-25T13:43:40Z",
      "version": 5,
      "changeset": 150497517,
      "user": "PubUpdater",
      "uid": 13921292,
      "tags": {
        "addr:city": "Dingle",
        "addr:county": "Kerry",
        "addr:postcode": "V92 N471",
        "addr:street": "An Meal",
        "amenity": "pub",
        "name": "O’Sullivan’s Courthouse Pub",
        "name:en": "O’Sullivan’s Courthouse Pub",
        "website": "https://osullivanscourthousepub.com"
      }
    },
    {
      "type": "node",
      "id": 944699609,
      "lat": 51.944805,
      "lon": -10.2304436,
      "timestamp": "2021-11-11T14:04:05Z",
      "version": 2,
      "changeset": 113654092,
      "user": "PubUpdater",
      "uid": 13921292,
      "tags": {
        "addr:city": "Cahersiveen",
        "addr:country": "IE",
        "addr:county": "Kerry",
        "addr:street": "New Street",
        "amenity": "bar",
        "name": "Sceilig Rock Bar"
      }
    },
    {
      "type": "node",
      "id": 944699644,
      "lat": 51.9443986,
      "lon": -10.2315405,
      "timestamp": "2021-11-11T14:04:05Z",
      "version": 2,
      "changeset": 113654092,
      "user": "PubUpdater",
      "uid": 13921292,
      "tags": {
        "addr:city": "Cahersiveen",
        "addr:country": "IE",
        "addr:county": "Kerry",
        "addr:street": "New Street",
        "amenity": "pub",
        "name": "Tom’s Tavern"
      }
    },
    {
      "type": "node",
      "id": 1324008898,
      "lat": 51.8857859,
      "lon": -10.365456,
      "timestamp": "2024-06-21T13:22:06Z",
      "version": 3,
      "changeset": 152993275,
      "user": "PubUpdater",
      "uid": 13921292,
      "tags": {
        "addr:city": "Portmagee",
        "addr:county": "Kerry",
        "addr:postcode": "V23 RX05",
        "amenity": "pub",
        "internet_access": "no",
        "name": "The Bridge Bar",
        "smoking": "no"
      }
    },
    {
      "type": "node",
      "id": 1324008902,
      "lat": 51.8855965,
      "lon": -10.3665016,
      "timestamp": "2024-06-21T13:22:06Z",
      "version": 3,
      "changeset": 152993275,
      "user": "PubUpdater",
      "uid": 13921292,
      "tags": {
        "addr:city": "Portmagee",
        "addr:county": "Kerry",
        "addr:postcode": "V23 PK58",
        "addr:street": "West End",
        "amenity": "pub",
        "internet_access": "no",
        "name": "Fisherman’s Bar",
        "smoking": "no"
      }
    },
    {
      "type": "node",
      "id": 1341148010,
      "lat": 52.139558,
      "lon": -10.2734304,
      "timestamp": "2024-04-25T13:21:20Z",
      "version": 6,
      "changeset": 150496625,
      "user": "PubUpdater",
      "uid": 13921292,
      "tags": {
        "addr:city": "Dingle",
        "addr:county": "Kerry",
        "addr:postcode": "V92 X31C",
        "addr:street": "Sráid na Trá",
        "amenity": "pub",
        "name": "Murphy’s"
      }
    },
    {
      "type": "node",
      "id": 1536488978,
      "lat": 52.1413582,
      "lon": -10.2676152,
      "timestamp": "2024-04-25T13:43:40Z",
      "version": 5,
      "changeset": 150497517,
      "user": "PubUpdater",
      "uid": 13921292,
      "tags": {
        "addr:city": "Dingle",
        "addr:county": "Kerry",
        "addr:postcode": "V92 RHP1",
        "addr:street": "An tSráid Mhór",
        "amenity": "pub",
        "name": "The Dingle Pub"
      }
    },
    {
      "type": "node",
      "id": 1536488985,
      "lat": 52.1428718,
      "lon": -10.2705328,
      "timestamp": "2023-11-08T12:01:43Z",
      "version": 3,
      "changeset": 143776959,
      "user": "PubUpdater",
      "uid": 13921292,
      "tags": {
        "addr:city": "Dingle",
        "addr:country": "IE",
        "addr:county": "Kerry",
        "addr:postcode": "V92 C8HP",
        "addr:street": "Sráid na nGabhar",
        "amenity": "pub",
        "name": "Barrna Sraide Inn"
      }
    },
    {
      "type": "node",
      "id": 1545025476,
      "lat": 51.8340308,
      "lon": -10.2627186,
      "timestamp": "2022-05-18T12:45:21Z",
      "version": 4,
      "changeset": 121145143,
      "user": "wheelmap_visitor",
      "uid": 290680,
      "tags": {
        "amenity": "pub",
        "internet_access": "wlan",
        "internet_access:fee": "no",
        "name": "Tig Rosie",
        "wheelchair": "limited"
      }
    },
    {
      "type": "node",
      "id": 1545064253,
      "lat": 51.8253053,
      "lon": -10.2720947,
      "timestamp": "2022-05-18T12:33:10Z",
      "version": 3,
      "changeset": 121145143,
      "user": "wheelmap_visitor",
      "uid": 290680,
      "tags": {
        "amenity": "pub",
        "name": "Cable O´Leary",
        "wheelchair": "yes"
      }
    },
    {
      "type": "node",
      "id": 1591172530,
      "lat": 52.1514367,
      "lon": -10.055076,
      "timestamp": "2023-02-22T12:54:54Z",
      "version": 4,
      "changeset": 132878404,
      "user": "PubUpdater",
      "uid": 13921292,
      "tags": {
        "addr:city": "Annascaul",
        "addr:country": "IE",
        "addr:county": "Kerry",
        "addr:postcode": "V92 P6Y4",
        "addr:street": "Main Street",
        "amenity": "pub",
        "name": "Patcheen’s",
        "old_name": "Herlihy"
      }
    },
    {
      "type": "node",
      "id": 1591177760,
      "lat": 52.1516065,
      "lon": -10.0539708,
      "timestamp": "2023-02-22T12:54:54Z",
      "version": 3,
      "changeset": 132878404,
      "user": "PubUpdater",
      "uid": 13921292,
      "tags": {
        "addr:city": "Annascaul",
        "addr:country": "IE",
        "addr:county": "Kerry",
        "addr:postcode": "V92 YH2H",
        "addr:street": "Main Street",
        "amenity": "pub",
        "name": "Dan Foley’s Pub"
      }
    },
    {
      "type": "node",
      "id": 1591225241,
      "lat": 52.1532343,
      "lon": -10.0504526,
      "timestamp": "2019-05-27T17:58:50Z",
      "version": 2,
      "changeset": 70670587,
      "user": "josh_morgan",
      "uid": 10036062,
      "tags": {
        "amenity": "pub",
        "name": "The Randy Leprechaun"
      }
    },
    {
      "type": "node",
      "id": 1591244542,
      "lat": 52.151697,
      "lon": -10.0536171,
      "timestamp": "2023-02-22T12:54:54Z",
      "version": 2,
      "changeset": 132878404,
      "user": "PubUpdater",
      "uid": 13921292,
      "tags": {
        "addr:city": "Annascaul",
        "addr:country": "IE",
        "addr:county": "Kerry",
        "addr:postcode": "V92 HW7Y",
        "addr:street": "Main Street",
        "amenity": "pub",
        "name": "Hanafin’s"
      }
    },
    {
      "type": "node",
      "id": 1673502170,
      "lat": 52.1704822,
      "lon": -10.3865057,
      "timestamp": "2025-08-18T11:06:03Z",
      "version": 9,
      "changeset": 170610219,
      "user": "nimbinOSM",
      "uid": 10085534,
      "tags": {
        "amenity": "pub",
        "microbrewery": "yes",
        "name": "West Kerry Brewery"
      }
    },
    {
      "type": "node",
      "id": 1730262035,
      "lat": 52.0327893,
      "lon": -10.0775657,
      "timestamp": "2019-03-16T12:19:20Z",
      "version": 3,
      "changeset": 68201514,
      "user": "b-jazz-bot",
      "uid": 9451067,
      "tags": {
        "amenity": "pub",
        "name": "Caitin's Pub",
        "website": "https://www.caitins.com/"
      }
    },
    {
      "type": "node",
      "id": 1809978642,
      "lat": 53.4880086,
      "lon": -10.0218314,
      "timestamp": "2024-02-16T14:46:32Z",
      "version": 6,
      "changeset": 147535508,
      "user": "PubUpdater",
      "uid": 13921292,
      "tags": {
        "addr:city": "Clifden",
        "addr:county": "Galway",
        "addr:postcode": "H71 WT32",
        "addr:street": "Market Square",
        "amenity": "pub",
        "name": "Lowry’s",
        "wheelchair": "yes"
      }
    },
    {
      "type": "node",
      "id": 1809978646,
      "lat": 53.4877679,
      "lon": -10.021862,
      "timestamp": "2024-07-16T15:16:06Z",
      "version": 7,
      "changeset": 154018359,
      "user": "m_baran",
      "uid": 21753371,
      "tags": {
        "addr:city": "Clifden",
        "addr:county": "Galway",
        "addr:housename": "The Woodfield Hotel",
        "addr:postcode": "H71 V272",
        "addr:street": "Market Street",
        "amenity": "bar",
        "indoor_seating": "yes",
        "name": "The Woodfield Bar",
        "old_name": "Atlantic Bar",
        "outdoor_seating": "yes"
      }
    },
    {
      "type": "node",
      "id": 1809978647,
      "lat": 53.4884404,
      "lon": -10.0225402,
      "timestamp": "2025-07-30T13:15:26Z",
      "version": 12,
      "changeset": 169720789,
      "user": "Yuxian",
      "uid": 10084645,
      "tags": {
        "addr:city": "Clifden",
        "addr:county": "Galway",
        "addr:postcode": "H71 XV21",
        "addr:street": "Main Street",
        "amenity": "pub",
        "brewery": "yes;guinness;rockshore",
        "check_date": "2025-07-30",
        "cuisine": "seafood",
        "diet:vegan": "no",
        "diet:vegetarian": "no",
        "food": "yes",
        "indoor_seating": "yes",
        "level": "0;1",
        "name": "E.J. Kings Bar & Restaurant",
        "opening_hours": "Mo-Th 10:00-23:30; Fr-Sa 10:00-00:30; Su 10:00-23:00",
        "outdoor_seating": "yes",
        "phone": "+353 (095) 21330",
        "website": "https://www.ejkings.com/",
        "wheelchair": "yes"
      }
    },
    {
      "type": "node",
      "id": 1809978651,
      "lat": 53.488574,
      "lon": -10.0221594,
      "timestamp": "2025-07-30T12:26:27Z",
      "version": 10,
      "changeset": 169718173,
      "user": "Yuxian",
      "uid": 10084645,
      "tags": {
        "addr:city": "Clifden",
        "addr:county": "Galway",
        "addr:postcode": "H71 Y277",
        "addr:street": "Main Street",
        "amenity": "pub",
        "brewery": "bridewell",
        "check_date": "2025-07-30",
        "diet:vegan": "yes",
        "diet:vegetarian": "yes",
        "email": "info@guysbarclifden.com",
        "food": "yes",
        "indoor_seating": "yes",
        "name": "Guy’s Bar",
        "outdoor_seating": "yes",
        "phone": "+3539521130",
        "website": "https://guysbarclifden.com/",
        "wheelchair": "yes"
      }
    },
    {
      "type": "node",
      "id": 1809978656,
      "lat": 53.487731,
      "lon": -10.0208524,
      "timestamp": "2024-07-16T15:21:28Z",
      "version": 5,
      "changeset": 154018359,
      "user": "m_baran",
      "uid": 21753371,
      "tags": {
        "addr:city": "Clifden",
        "addr:country": "IE",
        "addr:county": "Galway",
        "addr:postcode": "H71 R129",
        "addr:street": "Market Street",
        "amenity": "pub",
        "indoor_seating": "yes",
        "name": "Mannion’s",
        "outdoor_seating": "yes"
      }
    },
    {
      "type": "node",
      "id": 1809978659,
      "lat": 53.4879448,
      "lon": -10.0223602,
      "timestamp": "2025-07-30T13:21:51Z",
      "version": 10,
      "changeset": 169720789,
      "user": "Yuxian",
      "uid": 10084645,
      "tags": {
        "addr:city": "Clifden",
        "addr:county": "Galway",
        "addr:housenumber": "1",
        "addr:postcode": "H71 XA52",
        "addr:street": "Market Street",
        "amenity": "pub",
        "brewery": "bridewell;connemara",
        "check_date": "2025-07-30",
        "indoor_seating": "yes",
        "name": "Ravi’s Bar and Resturant",
        "old_name": "Macdara’s;Conneely’s",
        "opening_hours": "Mo-Su 10:30-23:30",
        "outdoor_seating": "yes",
        "phone": "+3539521980"
      }
    },
    {
      "type": "node",
      "id": 1809978662,
      "lat": 53.488751,
      "lon": -10.0214754,
      "timestamp": "2025-07-30T13:27:48Z",
      "version": 9,
      "changeset": 169720725,
      "user": "Yuxian",
      "uid": 10084645,
      "tags": {
        "addr:city": "Clifden",
        "addr:country": "IE",
        "addr:county": "Galway",
        "addr:postcode": "H71 W227",
        "addr:street": "Main Street",
        "amenity": "pub",
        "check_date": "2025-07-30",
        "indoor_seating": "yes",
        "name": "Griffin’s",
        "outdoor_seating": "yes",
        "phone": "+3539521370",
        "website": "http://www.griffinsbar.ie",
        "wheelchair": "yes"
      }
    },
    {
      "type": "node",
      "id": 1809984777,
      "lat": 53.4874813,
      "lon": -10.0191763,
      "timestamp": "2024-07-16T15:55:02Z",
      "version": 8,
      "changeset": 154018359,
      "user": "m_baran",
      "uid": 21753371,
      "tags": {
        "addr:city": "Clifden",
        "addr:county": "Galway",
        "addr:postcode": "H71 HY80",
        "addr:street": "Market Street",
        "amenity": "pub",
        "indoor_seating": "yes",
        "name": "Vaughan’s",
        "outdoor_seating": "yes"
      }
    },
    {
      "type": "node",
      "id": 1868450704,
      "lat": 52.1419799,
      "lon": -10.2691091,
      "timestamp": "2024-04-25T13:43:40Z",
      "version": 5,
      "changeset": 150497517,
      "user": "PubUpdater",
      "uid": 13921292,
      "tags": {
        "addr:city": "Dingle",
        "addr:county": "Kerry",
        "addr:postcode": "V92 PD6F",
        "addr:street": "An tSráid Mhór",
        "amenity": "pub",
        "name": "Foxy John’s",
        "wheelchair": "limited",
        "wheelchair:description": "keine Stufen, neue Toiletten, für sehr breite Rollstühle evtl. Eingangstür zu schmal?"
      }
    },
    {
      "type": "node",
      "id": 2132487910,
      "lat": 52.1326516,
      "lon": -10.359192,
      "timestamp": "2025-08-30T12:18:50Z",
      "version": 3,
      "changeset": 171224676,
      "user": "wonkadilly",
      "uid": 6947209,
      "tags": {
        "amenity": "pub",
        "name": "Quinn’s Pub"
      }
    },
    {
      "type": "node",
      "id": 2151983888,
      "lat": 51.9063292,
      "lon": -10.0602773,
      "timestamp": "2023-12-10T20:52:28Z",
      "version": 2,
      "changeset": 144977259,
      "user": "Oxeelix",
      "uid": 8116181,
      "tags": {
        "amenity": "pub",
        "name": "Inny Tavern",
        "wifi": "no"
      }
    },
    {
      "type": "node",
      "id": 2165108624,
      "lat": 51.8273442,
      "lon": -10.1719109,
      "timestamp": "2025-02-17T12:55:14Z",
      "version": 4,
      "changeset": 162610935,
      "user": "PubUpdater",
      "uid": 13921292,
      "tags": {
        "accommodation": "yes",
        "addr:city": "Waterville",
        "addr:county": "Kerry",
        "addr:postcode": "V23 AY05",
        "addr:street": "Main Street",
        "alt_name": "O’Dwyer’s",
        "amenity": "pub",
        "beds": "12",
        "contact:facebook": "https://www.facebook.com/ODwyersTheVilla",
        "email": "villawaterville@gmail.com",
        "food": "yes",
        "live_music": "yes",
        "name": "The Villa",
        "phone": "+353669474248",
        "start_date": "1973",
        "website": "https://thevillawaterville.com"
      }
    },
    {
      "type": "node",
      "id": 2302799375,
      "lat": 52.1416282,
      "lon": -10.2680443,
      "timestamp": "2024-04-25T13:43:40Z",
      "version": 5,
      "changeset": 150497517,
      "user": "PubUpdater",
      "uid": 13921292,
      "tags": {
        "addr:city": "Dingle",
        "addr:county": "Kerry",
        "addr:postcode": "V92 W2Y3",
        "addr:street": "An tSráid Mhór",
        "amenity": "pub",
        "name": "Paul Geaney’s Bar",
        "website": "https://www.paulgeaneysbar.ie/"
      }
    },
    {
      "type": "node",
      "id": 2407107655,
      "lat": 51.9458852,
      "lon": -10.2264047,
      "timestamp": "2024-08-26T16:17:55Z",
      "version": 3,
      "changeset": 155791155,
      "user": "PubUpdater",
      "uid": 13921292,
      "tags": {
        "addr:city": "Cahersiveen",
        "addr:county": "Kerry",
        "addr:street": "Main Street",
        "amenity": "pub",
        "name": "Harp Bar"
      }
    },
    {
      "type": "node",
      "id": 2659636246,
      "lat": 52.2264761,
      "lon": -10.3070692,
      "timestamp": "2024-04-05T23:34:17Z",
      "version": 4,
      "changeset": 149635962,
      "user": "AndrewMcCarthy",
      "uid": 1379,
      "tags": {
        "amenity": "pub",
        "email": "botharpub@eircom.net",
        "name": "An Bothar Pub & Guesthouse",
        "phone": "00353669155342",
        "tourism": "guest_house",
        "website": "https://www.botharpub.com/",
        "wikidata": "Q111876708"
      }
    },
    {
      "type": "node",
      "id": 2799130456,
      "lat": 52.1410757,
      "lon": -10.2671889,
      "timestamp": "2024-04-25T13:43:40Z",
      "version": 5,
      "changeset": 150497517,
      "user": "PubUpdater",
      "uid": 13921292,
      "tags": {
        "addr:city": "Dingle",
        "addr:county": "Kerry",
        "addr:postcode": "V92 W8FW",
        "addr:street": "An tSráid Mhór",
        "alt_name": "M. Neligan",
        "amenity": "pub",
        "contact:facebook": "https://www.facebook.com/neligansbardingle",
        "name": "Neligan’s"
      }
    },
    {
      "type": "node",
      "id": 3105289326,
      "lat": 51.6719734,
      "lon": -10.0005046,
      "timestamp": "2019-07-03T18:41:32Z",
      "version": 2,
      "changeset": 71871613,
      "user": "Dafo43",
      "uid": 114051,
      "tags": {
        "amenity": "pub",
        "name": "The Urhin Inn"
      }
    },
    {
      "type": "node",
      "id": 3381250636,
      "lat": 52.1395086,
      "lon": -10.27381,
      "timestamp": "2024-04-25T13:21:20Z",
      "version": 4,
      "changeset": 150496625,
      "user": "PubUpdater",
      "uid": 13921292,
      "tags": {
        "addr:city": "Dingle",
        "addr:county": "Kerry",
        "addr:housename": "Dingle Bay Hotel",
        "addr:postcode": "V92 D9HH",
        "addr:street": "Sráid na Trá",
        "amenity": "bar",
        "name": "Paudie’s Bar"
      }
    },
    {
      "type": "node",
      "id": 3381250641,
      "lat": 52.1411631,
      "lon": -10.2666689,
      "timestamp": "2024-04-25T13:43:40Z",
      "version": 5,
      "changeset": 150497517,
      "user": "PubUpdater",
      "uid": 13921292,
      "tags": {
        "addr:city": "Dingle",
        "addr:county": "Kerry",
        "addr:postcode": "V92 XY52",
        "addr:street": "Bóthar an Spá",
        "amenity": "pub",
        "name": "An Chonair"
      }
    },
    {
      "type": "node",
      "id": 3381250642,
      "lat": 52.1413653,
      "lon": -10.2661175,
      "timestamp": "2024-04-25T13:43:40Z",
      "version": 6,
      "changeset": 150497517,
      "user": "PubUpdater",
      "uid": 13921292,
      "tags": {
        "addr:city": "Dingle",
        "addr:county": "Kerry",
        "addr:postcode": "V92 XN66",
        "addr:street": "Bóthar an Spá",
        "amenity": "pub",
        "name": "Nellie Fred’s"
      }
    },
    {
      "type": "node",
      "id": 3381250643,
      "lat": 52.1409309,
      "lon": -10.2673513,
      "timestamp": "2024-04-25T13:43:40Z",
      "version": 3,
      "changeset": 150497517,
      "user": "PubUpdater",
      "uid": 13921292,
      "tags": {
        "addr:city": "Dingle",
        "addr:county": "Kerry",
        "addr:postcode": "V92 HW95",
        "addr:street": "An tSráid Mhór",
        "amenity": "pub",
        "name": "Walker’s"
      }
    },
    {
      "type": "node",
      "id": 3381357856,
      "lat": 52.1389643,
      "lon": -10.270911,
      "timestamp": "2024-04-25T13:43:40Z",
      "version": 6,
      "changeset": 150497517,
      "user": "PubUpdater",
      "uid": 13921292,
      "tags": {
        "addr:city": "Dingle",
        "addr:county": "Kerry",
        "addr:postcode": "V92 VK50",
        "addr:street": "Sráid an Droichid",
        "amenity": "pub",
        "contact:facebook": "https://www.facebook.com/OFlahertys-Bar-152400028229362",
        "name": "O’Flaherty’s",
        "name:en": "O’Flaherty’s"
      }
    },
    {
      "type": "node",
      "id": 3381418424,
      "lat": 52.1419706,
      "lon": -10.2686881,
      "timestamp": "2024-04-25T13:43:40Z",
      "version": 4,
      "changeset": 150497517,
      "user": "PubUpdater",
      "uid": 13921292,
      "tags": {
        "addr:city": "Dingle",
        "addr:county": "Kerry",
        "addr:postcode": "V92 XA71",
        "addr:street": "An tSráid Mhór",
        "amenity": "bar",
        "name": "Adam’s Bar"
      }
    },
    {
      "type": "node",
      "id": 3381446612,
      "lat": 52.1403987,
      "lon": -10.2661643,
      "timestamp": "2024-04-25T13:43:40Z",
      "version": 4,
      "changeset": 150497517,
      "user": "PubUpdater",
      "uid": 13921292,
      "tags": {
        "addr:city": "Dingle",
        "addr:county": "Kerry",
        "addr:postcode": "V92 NV24",
        "addr:street": "Sráid Eoin",
        "amenity": "bar",
        "name": "Barrack Height"
      }
    },
    {
      "type": "node",
      "id": 3381446613,
      "lat": 52.1404957,
      "lon": -10.2663331,
      "timestamp": "2024-04-25T13:43:40Z",
      "version": 3,
      "changeset": 150497517,
      "user": "PubUpdater",
      "uid": 13921292,
      "tags": {
        "addr:city": "Dingle",
        "addr:county": "Kerry",
        "addr:postcode": "V92 HD54",
        "addr:street": "Sráid Eoin",
        "amenity": "bar",
        "name": "Muiris Dan’s"
      }
    },
    {
      "type": "node",
      "id": 3929391130,
      "lat": 53.4883998,
      "lon": -10.0232737,
      "timestamp": "2024-02-16T14:46:32Z",
      "version": 5,
      "changeset": 147535508,
      "user": "PubUpdater",
      "uid": 13921292,
      "tags": {
        "addr:city": "Clifden",
        "addr:county": "Galway",
        "addr:housename": "Alcock & Brown Hotel",
        "addr:postcode": "H71 KN29",
        "addr:street": "Main Street",
        "amenity": "pub",
        "cuisine": "regional",
        "name": "The Cosy Bar"
      }
    },
    {
      "type": "node",
      "id": 3929701385,
      "lat": 53.488264,
      "lon": -10.0223463,
      "timestamp": "2025-07-30T13:24:04Z",
      "version": 5,
      "changeset": 169720789,
      "user": "Yuxian",
      "uid": 10084645,
      "tags": {
        "addr:city": "Clifden",
        "addr:country": "IE",
        "addr:county": "Galway",
        "addr:postcode": "H71 E248",
        "addr:street": "Market Square",
        "amenity": "pub",
        "check_date": "2025-07-30",
        "indoor_seating": "yes",
        "name": "Tom King’s Bar & Snug",
        "outdoor_seating": "yes"
      }
    },
    {
      "type": "node",
      "id": 4302212007,
      "lat": 52.2554024,
      "lon": -10.0248861,
      "timestamp": "2023-05-25T09:43:16Z",
      "version": 4,
      "changeset": 136535579,
      "user": "PubUpdater",
      "uid": 13921292,
      "tags": {
        "addr:city": "Castlegregory",
        "addr:country": "IE",
        "addr:county": "Kerry",
        "addr:postcode": "V92 NV38",
        "addr:street": "West Main Street",
        "amenity": "pub",
        "name": "Ned Natterjack’s",
        "wheelchair": "limited"
      }
    },
    {
      "type": "node",
      "id": 4302212010,
      "lat": 52.2548616,
      "lon": -10.0224591,
      "timestamp": "2023-05-25T09:43:16Z",
      "version": 4,
      "changeset": 136535579,
      "user": "PubUpdater",
      "uid": 13921292,
      "tags": {
        "addr:city": "Castlegregory",
        "addr:country": "IE",
        "addr:county": "Kerry",
        "addr:postcode": "V92 A09W",
        "addr:street": "Main Street",
        "amenity": "pub",
        "food": "yes",
        "name": "Boland’s",
        "wheelchair": "limited"
      }
    },
    {
      "type": "node",
      "id": 4331356343,
      "lat": 51.6414907,
      "lon": -10.0440901,
      "timestamp": "2023-04-09T08:59:52Z",
      "version": 2,
      "changeset": 134678879,
      "user": "PubUpdater",
      "uid": 13921292,
      "tags": {
        "addr:city": "Allihies",
        "addr:country": "IE",
        "addr:county": "Cork",
        "addr:postcode": "P75 PE80",
        "addr:street": "Cluin",
        "amenity": "pub",
        "food": "yes",
        "internet_access": "yes",
        "name": "O’Neill’s",
        "opening_hours": "10:00-21:00",
        "outdoor_seating": "yes",
        "phone": "+353 27 73008",
        "smoking": "outside",
        "website": "http://oneillsbeara.ie/"
      }
    },
    {
      "type": "node",
      "id": 4378143872,
      "lat": 51.9477697,
      "lon": -10.2218221,
      "timestamp": "2024-08-26T16:17:55Z",
      "version": 3,
      "changeset": 155791155,
      "user": "PubUpdater",
      "uid": 13921292,
      "tags": {
        "addr:city": "Cahersiveen",
        "addr:county": "Kerry",
        "addr:street": "New Market Street",
        "amenity": "bar",
        "name": "Bowler’s"
      }
    },
    {
      "type": "node",
      "id": 4378143874,
      "lat": 51.9460383,
      "lon": -10.2270028,
      "timestamp": "2024-09-20T15:56:16Z",
      "version": 6,
      "changeset": 156875054,
      "user": "scai",
      "uid": 118134,
      "tags": {
        "addr:city": "Cahersiveen",
        "addr:county": "Kerry",
        "addr:housenumber": "5",
        "addr:postcode": "V23 FX09",
        "addr:street": "Main Street",
        "amenity": "pub",
        "contact:facebook": "https://www.facebook.com/CraineensBar",
        "indoor_seating": "yes",
        "name": "Cràineen’s",
        "outdoor_seating": "yes"
      }
    },
    {
      "type": "node",
      "id": 4378143875,
      "lat": 51.947883,
      "lon": -10.2205239,
      "timestamp": "2024-08-26T16:17:55Z",
      "version": 3,
      "changeset": 155791155,
      "user": "PubUpdater",
      "uid": 13921292,
      "tags": {
        "addr:city": "Cahersiveen",
        "addr:country": "IE",
        "addr:county": "Kerry",
        "addr:housenumber": "7",
        "addr:postcode": "V23 KX66",
        "addr:street": "East End",
        "amenity": "bar",
        "name": "East End"
      }
    },
    {
      "type": "node",
      "id": 4378143876,
      "lat": 51.9471168,
      "lon": -10.2235233,
      "timestamp": "2024-08-26T16:17:55Z",
      "version": 3,
      "changeset": 155791155,
      "user": "PubUpdater",
      "uid": 13921292,
      "tags": {
        "addr:city": "Cahersiveen",
        "addr:county": "Kerry",
        "addr:street": "Church Street",
        "amenity": "bar",
        "name": "Frank’s"
      }
    },
    {
      "type": "node",
      "id": 4378143879,
      "lat": 51.9468068,
      "lon": -10.224522,
      "timestamp": "2024-08-26T16:17:55Z",
      "version": 3,
      "changeset": 155791155,
      "user": "PubUpdater",
      "uid": 13921292,
      "tags": {
        "addr:city": "Cahersiveen",
        "addr:county": "Kerry",
        "addr:housenumber": "20",
        "addr:postcode": "V23 CH94",
        "addr:street": "Church Street",
        "amenity": "pub",
        "name": "Kelly’s"
      }
    },
    {
      "type": "node",
      "id": 4378143881,
      "lat": 51.9473974,
      "lon": -10.2222633,
      "timestamp": "2024-09-20T19:45:47Z",
      "version": 4,
      "changeset": 156884739,
      "user": "scai",
      "uid": 118134,
      "tags": {
        "addr:city": "Cahersiveen",
        "addr:county": "Kerry",
        "addr:postcode": "V23 CF43",
        "addr:street": "New Market Street",
        "amenity": "pub",
        "indoor_seating": "yes",
        "name": "Mike Murt’s",
        "outdoor_seating": "yes",
        "phone": "+353669472396"
      }
    },
    {
      "type": "node",
      "id": 4378143887,
      "lat": 51.9460072,
      "lon": -10.2270882,
      "timestamp": "2024-09-20T15:56:18Z",
      "version": 5,
      "changeset": 156875054,
      "user": "scai",
      "uid": 118134,
      "tags": {
        "addr:city": "Cahersiveen",
        "addr:county": "Kerry",
        "addr:postcode": "V23 C7R6",
        "addr:street": "Main Street",
        "amenity": "pub",
        "indoor_seating": "yes",
        "name": "The Anchor Bar",
        "outdoor_seating": "yes"
      }
    },
    {
      "type": "node",
      "id": 4378143888,
      "lat": 51.9463293,
      "lon": -10.2258222,
      "timestamp": "2024-08-26T16:17:55Z",
      "version": 3,
      "changeset": 155791155,
      "user": "PubUpdater",
      "uid": 13921292,
      "tags": {
        "addr:city": "Cahersiveen",
        "addr:county": "Kerry",
        "addr:housenumber": "20",
        "addr:postcode": "V23 HC44",
        "addr:street": "Church Street",
        "amenity": "bar",
        "contact:facebook": "https://www.facebook.com/fertha/",
        "food": "yes",
        "name": "The Fertha",
        "phone": "+353669472023",
        "website": "https://www.ferthabar.ie"
      }
    },
    {
      "type": "node",
      "id": 5004996626,
      "lat": 51.9067156,
      "lon": -10.3364664,
      "timestamp": "2024-06-21T13:22:06Z",
      "version": 2,
      "changeset": 152993275,
      "user": "PubUpdater",
      "uid": 13921292,
      "tags": {
        "addr:city": "Valentia Island",
        "addr:county": "Kerry",
        "addr:place": "Chapeltown",
        "addr:postcode": "V23 HY79",
        "amenity": "pub",
        "name": "The Ring Lyne",
        "website": "http://www.theringlyne.com"
      }
    },
    {
      "type": "node",
      "id": 5562003012,
      "lat": 52.1423309,
      "lon": -10.2699353,
      "timestamp": "2022-01-24T10:13:51Z",
      "version": 3,
      "changeset": 116533959,
      "user": "PubUpdater",
      "uid": 13921292,
      "tags": {
        "addr:city": "Dingle",
        "addr:country": "IE",
        "addr:county": "Kerry",
        "addr:street": "An tSráid Mhór",
        "amenity": "pub",
        "name": "McCarthy’s Bar"
      }
    },
    {
      "type": "node",
      "id": 5918566685,
      "lat": 52.1393713,
      "lon": -10.275077,
      "timestamp": "2024-04-25T13:21:20Z",
      "version": 7,
      "changeset": 150496625,
      "user": "PubUpdater",
      "uid": 13921292,
      "tags": {
        "addr:city": "Dingle",
        "addr:county": "Kerry",
        "addr:housenumber": "39",
        "addr:postcode": "V92 EE70",
        "addr:street": "Sráid na Trá",
        "amenity": "pub",
        "brewery": "beoir_chorca_dhuibhne",
        "contact:facebook": "https://www.facebook.com/themarinainn",
        "contact:instagram": "@marinainndingle",
        "cuisine": "irish",
        "diet:vegetarian": "no",
        "email": "marinainndingle@gmail.com",
        "food": "yes",
        "internet_access": "wlan",
        "live_music": "yes",
        "name": "Marina Inn",
        "name:en": "Marina Inn",
        "opening_hours": "Mo-Su 10:30-11:30",
        "phone": "+353669151660",
        "website": "https://themarinainndingle.com/",
        "website:menu": "https://themarinainndingle.com/menu"
      }
    },
    {
      "type": "node",
      "id": 6519137080,
      "lat": 52.1393726,
      "lon": -10.2748916,
      "timestamp": "2024-04-25T13:21:20Z",
      "version": 4,
      "changeset": 150496625,
      "user": "PubUpdater",
      "uid": 13921292,
      "tags": {
        "addr:city": "Dingle",
        "addr:county": "Kerry",
        "addr:postcode": "V92 YV5X",
        "addr:street": "Sráid na Trá",
        "amenity": "bar",
        "brewery": "dick_macs;killarney_brewing",
        "email": "info@jameslongdingle.com",
        "food": "yes",
        "name": "James Long Bar & Restaurant",
        "website": "https://www.jameslongdingle.com"
      }
    },
    {
      "type": "node",
      "id": 6600928597,
      "lat": 52.1393908,
      "lon": -10.2744994,
      "timestamp": "2024-05-08T16:28:26Z",
      "version": 6,
      "changeset": 151065170,
      "user": "Oxeelix",
      "uid": 8116181,
      "tags": {
        "addr:city": "Dingle",
        "addr:county": "Kerry",
        "addr:postcode": "V92 N207",
        "addr:street": "Sráid na Trá",
        "amenity": "pub",
        "check_date": "2024-05-08",
        "food": "yes",
        "live_music": "yes",
        "name": "John Benny’s",
        "phone": "+353 66 9151215",
        "website": "https://www.johnbennyspub.com"
      }
    },
    {
      "type": "node",
      "id": 6799476390,
      "lat": 52.1704667,
      "lon": -10.3864822,
      "timestamp": "2025-08-18T11:23:47Z",
      "version": 6,
      "changeset": 170610998,
      "user": "nimbinOSM",
      "uid": 10085534,
      "tags": {
        "addr:city": "Ballyferriter",
        "addr:country": "IE",
        "addr:county": "Kerry",
        "addr:postcode": "V92 P681",
        "addr:street": "An Riasc",
        "amenity": "pub",
        "food": "yes",
        "internet_access": "wlan",
        "name": "Tig Bhric",
        "opening_hours": "Mo-Th 11:00-22:00; Fr,Sa 11:00-12:00"
      }
    },
    {
      "type": "node",
      "id": 6814667065,
      "lat": 52.2441255,
      "lon": -10.0624392,
      "timestamp": "2022-02-13T19:54:36Z",
      "version": 4,
      "changeset": 117367351,
      "user": "eireidium",
      "uid": 146307,
      "tags": {
        "amenity": "pub",
        "description": "https://g.co/kgs/qjGF3Y",
        "name": "Tomásin's",
        "opening_hours": "Mo-Fr 12:00-21:30; Sa, Su 12:00-22:00",
        "phone": "+353 66 713 9088"
      }
    },
    {
      "type": "node",
      "id": 7058410017,
      "lat": 52.1395731,
      "lon": -10.272622,
      "timestamp": "2024-04-25T13:21:20Z",
      "version": 7,
      "changeset": 150496625,
      "user": "PubUpdater",
      "uid": 13921292,
      "tags": {
        "addr:city": "Dingle",
        "addr:county": "Kerry",
        "addr:postcode": "V92 A091",
        "addr:street": "Sráid na Trá",
        "amenity": "pub",
        "cocktails": "yes",
        "description": "Historic pub on colourful Strand Street in the centre of Dingle town. Old style bar and terraced beer garden.  Parties welcome, ring for booking info.",
        "drink:espresso": "served",
        "email": "bobgriffinsbardingle@gmail.com",
        "food": "no",
        "internet_access": "wlan",
        "min_age": "18",
        "name": "Bob Griffin’s",
        "outdoor_seating": "yes",
        "phone": "+353 (0)87 2461591",
        "start_date": "1937",
        "website": "https://www.bobgriffinsbardingle.com",
        "wheelchair": "yes"
      }
    },
    {
      "type": "node",
      "id": 8766000550,
      "lat": 52.1449871,
      "lon": -10.1337132,
      "timestamp": "2021-05-25T19:57:36Z",
      "version": 1,
      "changeset": 105313613,
      "user": "b-unicycling",
      "uid": 1713634,
      "tags": {
        "amenity": "pub",
        "name": "O'Sullivan's Bar"
      }
    },
    {
      "type": "node",
      "id": 8774024124,
      "lat": 52.0129287,
      "lon": -10.0985056,
      "timestamp": "2021-05-27T23:05:33Z",
      "version": 1,
      "changeset": 105453333,
      "user": "b-unicycling",
      "uid": 1713634,
      "tags": {
        "amenity": "pub",
        "name": "Golden's of Kells"
      }
    },
    {
      "type": "node",
      "id": 9480174425,
      "lat": 53.6140428,
      "lon": -10.2280331,
      "timestamp": "2022-08-12T13:54:54Z",
      "version": 3,
      "changeset": 124820136,
      "user": "PubUpdater",
      "uid": 13921292,
      "tags": {
        "addr:city": "Inishbofin",
        "addr:country": "IE",
        "addr:county": "Galway",
        "addr:housename": "Doonmore Hotel",
        "addr:postcode": "H91 NV06",
        "addr:street": "Low Road",
        "amenity": "bar",
        "name": "Murray’s Bar",
        "website": "https://www.doonmore.com/music-at-murrays"
      }
    },
    {
      "type": "node",
      "id": 9518890000,
      "lat": 52.1425682,
      "lon": -10.2699951,
      "timestamp": "2022-02-19T10:00:58Z",
      "version": 1,
      "changeset": 117597364,
      "user": "PubUpdater",
      "uid": 13921292,
      "tags": {
        "addr:city": "Dingle",
        "addr:country": "IE",
        "addr:county": "Kerry",
        "addr:postcode": "V92 FH64",
        "addr:street": "Sráid na nGabhar",
        "amenity": "pub",
        "contact:twitter": "@KennedysDingle",
        "name": "Kennedy’s"
      }
    },
    {
      "type": "node",
      "id": 9949401156,
      "lat": 53.6134529,
      "lon": -10.2071639,
      "timestamp": "2023-06-14T09:26:13Z",
      "version": 2,
      "changeset": 137318947,
      "user": "PubUpdater",
      "uid": 13921292,
      "tags": {
        "addr:city": "Inishbofin",
        "addr:country": "IE",
        "addr:county": "Galway",
        "addr:postcode": "H91 XK74",
        "addr:street": "Low Road",
        "alt_name": "Days Bar",
        "amenity": "pub",
        "contact:facebook": "https://www.facebook.com/TheBeachBofin/",
        "diet:vegetarian": "no",
        "food": "yes",
        "name": "The Beach",
        "website": "http://thebeach.ie/"
      }
    },
    {
      "type": "node",
      "id": 10168623834,
      "lat": 51.8279957,
      "lon": -10.172144,
      "timestamp": "2025-02-17T12:55:14Z",
      "version": 2,
      "changeset": 162610935,
      "user": "PubUpdater",
      "uid": 13921292,
      "tags": {
        "addr:city": "Waterville",
        "addr:county": "Kerry",
        "addr:housename": "Butler Arms Hotel",
        "addr:postcode": "V23 F658",
        "addr:street": "Main Street",
        "amenity": "pub",
        "name": "Fishermen’s Bar"
      }
    },
    {
      "type": "node",
      "id": 10201155070,
      "lat": 53.9745082,
      "lon": -10.0863373,
      "timestamp": "2022-11-19T08:16:14Z",
      "version": 1,
      "changeset": 129113352,
      "user": "TXPeig",
      "uid": 10630989,
      "tags": {
        "amenity": "pub",
        "name": "The Annexe Inn"
      }
    },
    {
      "type": "node",
      "id": 10255455726,
      "lat": 52.1395737,
      "lon": -10.2718491,
      "timestamp": "2024-04-25T13:21:20Z",
      "version": 2,
      "changeset": 150496625,
      "user": "PubUpdater",
      "uid": 13921292,
      "tags": {
        "addr:city": "Dingle",
        "addr:county": "Kerry",
        "addr:postcode": "V92 E628",
        "addr:street": "Sráid na Trá",
        "amenity": "pub",
        "contact:facebook": "https://www.facebook.com/PaddyBawnBrosnans",
        "name": "Paddy Bawn Brosnan’s",
        "phone": "+353857613630"
      }
    },
    {
      "type": "node",
      "id": 10685755506,
      "lat": 52.1512805,
      "lon": -10.0548008,
      "timestamp": "2025-04-20T10:06:41Z",
      "version": 3,
      "changeset": 165185880,
      "user": "3Loader3",
      "uid": 22791122,
      "tags": {
        "addr:city": "Annascaul",
        "addr:country": "IE",
        "addr:county": "Kerry",
        "addr:postcode": "V92 TR53",
        "addr:street": "Main Street",
        "alt_name": "Brosnan’s Bar",
        "amenity": "pub",
        "name": "Teac Seáin"
      }
    },
    {
      "type": "node",
      "id": 11844607267,
      "lat": 52.2684549,
      "lon": -10.1616402,
      "timestamp": "2024-04-24T15:22:39Z",
      "version": 1,
      "changeset": 150453155,
      "user": "PubUpdater",
      "uid": 13921292,
      "tags": {
        "addr:city": "Brandon",
        "addr:county": "Kerry",
        "addr:place": "Lisnakealwee",
        "addr:postcode": "V92 YV00",
        "amenity": "pub",
        "name": "Mullally’s"
      }
    },
    {
      "type": "node",
      "id": 11844607268,
      "lat": 52.2685396,
      "lon": -10.1616553,
      "timestamp": "2024-04-24T15:22:39Z",
      "version": 1,
      "changeset": 150453155,
      "user": "PubUpdater",
      "uid": 13921292,
      "tags": {
        "addr:city": "Brandon",
        "addr:county": "Kerry",
        "addr:place": "Lisnakealwee",
        "addr:postcode": "V92 YV00",
        "amenity": "pub",
        "name": "O’Shea’s"
      }
    },
    {
      "type": "node",
      "id": 12159586855,
      "lat": 53.431051,
      "lon": -10.0755809,
      "timestamp": "2024-09-06T08:59:12Z",
      "version": 1,
      "changeset": 156263740,
      "user": "VictorIE",
      "uid": 2008037,
      "tags": {
        "addr:city": "Clifden",
        "addr:place": "Ballyconneely",
        "amenity": "pub",
        "name": "Keogh's"
      }
    },
    {
      "type": "node",
      "id": 12186440338,
      "lat": 51.8335529,
      "lon": -10.1718638,
      "timestamp": "2024-09-19T16:26:08Z",
      "version": 1,
      "changeset": 156829173,
      "user": "scai",
      "uid": 118134,
      "tags": {
        "amenity": "bar",
        "check_date": "2024-09-19",
        "name": "Jolly Swagman Bar",
        "outdoor_seating": "yes"
      }
    },
    {
      "type": "way",
      "id": 126810064,
      "timestamp": "2024-07-01T06:30:16Z",
      "version": 4,
      "changeset": 153395669,
      "user": "b-jazz-bot",
      "uid": 9451067,
      "center": {
        "lat": 52.1273948,
        "lon": -10.3800957
      },
      "nodes": [
        1404699585,
        1404699571,
        1404699574,
        1404699582,
        1404699585
      ],
      "tags": {
        "amenity": "pub",
        "building": "yes",
        "indoor_seating": "yes",
        "name": "Páidi Ó Sé's",
        "outdoor_seating": "yes",
        "source": "bing",
        "website": "https://paidiose.com/"
      }
    },
    {
      "type": "way",
      "id": 238006388,
      "timestamp": "2024-11-11T17:51:59Z",
      "version": 5,
      "changeset": 159019610,
      "user": "b-unicycling",
      "uid": 1713634,
      "center": {
        "lat": 52.1342499,
        "lon": -10.4537615
      },
      "nodes": [
        2458656458,
        2458656455,
        2458656456,
        2458656457,
        2458656459,
        8219449486,
        8219449487,
        2458656465,
        2458656461,
        2458656464,
        2458656462,
        2458656463,
        2458656458
      ],
      "tags": {
        "amenity": "pub",
        "building": "retail",
        "email": "info@krugers.ie",
        "name": "Krugers Pub",
        "phone": "+353 66 9156127",
        "source": "Bing",
        "website": "https://www.krugers.ie/"
      }
    },
    {
      "type": "way",
      "id": 239432619,
      "timestamp": "2023-06-12T18:17:06Z",
      "version": 3,
      "changeset": 137255328,
      "user": "VictorIE",
      "uid": 2008037,
      "center": {
        "lat": 52.2161168,
        "lon": -10.349195
      },
      "nodes": [
        2472099019,
        2472099047,
        10971717139,
        2472099034,
        2472099004,
        2472098976,
        2472099013,
        2472099019
      ],
      "tags": {
        "amenity": "pub",
        "building": "pub"
      }
    },
    {
      "type": "way",
      "id": 239440159,
      "timestamp": "2025-10-06T10:01:24Z",
      "version": 5,
      "changeset": 172905012,
      "user": "b-unicycling",
      "uid": 1713634,
      "center": {
        "lat": 52.1661463,
        "lon": -10.4066336
      },
      "nodes": [
        2472159458,
        2472159416,
        2472159370,
        2472159453,
        8210591924,
        2472159437,
        2472159358,
        2472159458
      ],
      "tags": {
        "amenity": "pub",
        "building": "retail",
        "name": "Tigh Uí Mhurchú",
        "name:en": "Murphy's Pub",
        "name:ga": "Tigh Uí Mhurchú"
      }
    },
    {
      "type": "way",
      "id": 239440168,
      "timestamp": "2025-10-06T10:01:24Z",
      "version": 6,
      "changeset": 172905012,
      "user": "b-unicycling",
      "uid": 1713634,
      "center": {
        "lat": 52.166331,
        "lon": -10.4063413
      },
      "nodes": [
        2472159341,
        2472159285,
        2472159382,
        8212958568,
        2472159466,
        2472159341
      ],
      "tags": {
        "amenity": "pub",
        "building": "retail",
        "name": "Tigh an tSaorsaigh"
      }
    },
    {
      "type": "way",
      "id": 239440177,
      "timestamp": "2022-05-26T19:21:08Z",
      "version": 3,
      "changeset": 121542511,
      "user": "Quainer",
      "uid": 12657291,
      "center": {
        "lat": 52.166105,
        "lon": -10.406838
      },
      "nodes": [
        2472159457,
        2472159417,
        2472159463,
        2472159288,
        2472159337,
        2472159362,
        8210591922,
        2472159334,
        2472159457
      ],
      "tags": {
        "amenity": "pub",
        "building": "yes",
        "name": "Tigh Uí Chatháin"
      }
    },
    {
      "type": "way",
      "id": 277747929,
      "timestamp": "2024-02-16T14:46:32Z",
      "version": 6,
      "changeset": 147535508,
      "user": "PubUpdater",
      "uid": 13921292,
      "center": {
        "lat": 53.4887214,
        "lon": -10.0230077
      },
      "nodes": [
        2822085202,
        2822085205,
        2822085100,
        2822085095,
        2822085202
      ],
      "tags": {
        "addr:city": "Clifden",
        "addr:county": "Galway",
        "addr:housename": "Foyle’s Hotel",
        "addr:postcode": "H71 NH97",
        "addr:street": "Church Street",
        "amenity": "pub",
        "building": "retail",
        "contact:facebook": "https://www.facebook.com/mullarkeysbar",
        "internet_access": "wlan",
        "internet_access:fee": "no",
        "name": "Mullarkey’s Bar",
        "smoking": "outside",
        "website": "https://www.foyleshotel.com/mullarkeys-bar.html"
      }
    },
    {
      "type": "way",
      "id": 285089985,
      "timestamp": "2022-08-21T18:55:51Z",
      "version": 3,
      "changeset": 125195711,
      "user": "janolezab",
      "uid": 10630643,
      "center": {
        "lat": 51.7609831,
        "lon": -10.1396171
      },
      "nodes": [
        2887726911,
        2887726914,
        2887726913,
        2887726910,
        2887726908,
        2887726907,
        2887726904,
        2887726694,
        2887726695,
        2887726688,
        2887726691,
        2887726912,
        2887726911
      ],
      "tags": {
        "amenity": "pub",
        "building": "yes",
        "name": "Keatings Bar",
        "opening_hours": "Sa-Tu 12:30-23:30"
      }
    },
    {
      "type": "way",
      "id": 300592586,
      "timestamp": "2024-09-19T19:07:52Z",
      "version": 8,
      "changeset": 156836219,
      "user": "AndrewMcCarthy",
      "uid": 1379,
      "center": {
        "lat": 53.4884686,
        "lon": -10.0176326
      },
      "nodes": [
        3046697507,
        3046697506,
        3455276242,
        3903542737,
        3455276246,
        3046697503,
        3903542733,
        3046697510,
        3046697513,
        3046697509,
        3046697512,
        3046697511,
        3046697507
      ],
      "tags": {
        "addr:city": "Clifden",
        "addr:county": "Galway",
        "addr:housename": "Clifden Station House Hotel",
        "addr:postcode": "H71 PX68",
        "addr:street": "Galway Road",
        "amenity": "pub",
        "building": "retail",
        "diet:vegetarian": "limited",
        "food": "yes",
        "name": "Signal Bar",
        "old_name": "Station House Bar",
        "phone": "+3539521699",
        "website": "https://www.clifdenstationhouse.com/dining/signal-bar-restaurant/",
        "wikidata": "Q66828834"
      }
    },
    {
      "type": "way",
      "id": 367075799,
      "timestamp": "2025-10-08T19:16:58Z",
      "version": 3,
      "changeset": 173020056,
      "user": "ranebobenar",
      "uid": 23376585,
      "center": {
        "lat": 52.1411224,
        "lon": -10.2704174
      },
      "nodes": [
        3710367099,
        3710367100,
        3710367101,
        3710367102,
        3710367103,
        3710367104,
        3710367105,
        3710367106,
        3710367099
      ],
      "tags": {
        "amenity": "pub",
        "building": "yes",
        "name": "Dingle Brew House"
      }
    },
    {
      "type": "way",
      "id": 399111793,
      "timestamp": "2022-02-04T23:52:03Z",
      "version": 3,
      "changeset": 117027614,
      "user": "VictorIE",
      "uid": 2008037,
      "center": {
        "lat": 53.7010236,
        "lon": -10.0934272
      },
      "nodes": [
        4018528002,
        4018528006,
        4018528007,
        9477310939,
        9477310942,
        9477310941,
        9477310940,
        4018528005,
        4018528002
      ],
      "tags": {
        "amenity": "pub",
        "building": "yes",
        "building:levels": "2",
        "name": "Community Hall"
      }
    },
    {
      "type": "way",
      "id": 504364757,
      "timestamp": "2025-01-11T14:12:54Z",
      "version": 7,
      "changeset": 161240699,
      "user": "OscarBrownbread",
      "uid": 4637589,
      "center": {
        "lat": 53.5572155,
        "lon": -10.1124696
      },
      "nodes": [
        4945358303,
        4945356562,
        4945356561,
        4945356560,
        10819795058,
        10819795059,
        4945358297,
        10819795056,
        10819795055,
        10819795057,
        4945358299,
        4945358304,
        4945358303
      ],
      "tags": {
        "addr:city": "Cleggan",
        "addr:country": "IE",
        "addr:county": "Galway",
        "addr:postcode": "H71 FV07",
        "amenity": "pub",
        "building": "retail",
        "contact:facebook": "https://www.facebook.com/thepierbarcleggan/",
        "contact:instagram": "@thepierbarcleggan",
        "email": "thepierbarconnemara@gmail.com",
        "food": "yes",
        "name": "The Pier Bar",
        "phone": "+3539544718"
      }
    },
    {
      "type": "way",
      "id": 504365034,
      "timestamp": "2023-06-13T21:51:09Z",
      "version": 5,
      "changeset": 137304114,
      "user": "PubUpdater",
      "uid": 13921292,
      "center": {
        "lat": 53.5556924,
        "lon": -10.1094858
      },
      "nodes": [
        4945358218,
        4945358217,
        4945358216,
        4945358215,
        4945358214,
        4945358213,
        4945358212,
        4945358211,
        4945358210,
        4945358209,
        4945358218
      ],
      "tags": {
        "addr:city": "Cleggan",
        "addr:country": "IE",
        "addr:county": "Galway",
        "addr:postcode": "H71 A890",
        "addr:street": "Knockbrack",
        "amenity": "pub",
        "building": "retail",
        "building:levels": "1",
        "name": "Newman’s Bar"
      }
    },
    {
      "type": "way",
      "id": 504365036,
      "timestamp": "2023-06-13T21:51:09Z",
      "version": 6,
      "changeset": 137304114,
      "user": "PubUpdater",
      "uid": 13921292,
      "center": {
        "lat": 53.556057,
        "lon": -10.1100363
      },
      "nodes": [
        4945358226,
        4945358225,
        4945358224,
        4945358223,
        4945358226
      ],
      "tags": {
        "addr:city": "Cleggan",
        "addr:country": "IE",
        "addr:county": "Galway",
        "addr:postcode": "H71 HY36",
        "addr:street": "Knockbrack",
        "amenity": "pub",
        "building": "retail",
        "internet_access": "wlan",
        "name": "Joyce's Bar",
        "phone": "+3539534658"
      }
    },
    {
      "type": "way",
      "id": 535574498,
      "timestamp": "2023-04-30T21:30:30Z",
      "version": 5,
      "changeset": 135553927,
      "user": "danieldegroot2",
      "uid": 11212507,
      "center": {
        "lat": 51.6414027,
        "lon": -10.0440705
      },
      "nodes": [
        5190793254,
        8171569307,
        5190793255,
        5190793256,
        8171569306,
        5190793257,
        5190793254
      ],
      "tags": {
        "addr:city": "Allihies",
        "addr:country": "IE",
        "addr:county": "Cork",
        "addr:postcode": "P75 F635",
        "addr:street": "Cluin",
        "amenity": "pub",
        "building": "retail",
        "description": "Traditional Irish bar with open fire and traditional music.",
        "name": "The Lighthouse Bar",
        "opening_hours": "Mo-Su 11:00-23:30",
        "outdoor_seating": "yes",
        "smoking": "outside"
      }
    },
    {
      "type": "way",
      "id": 614437435,
      "timestamp": "2019-06-21T12:08:11Z",
      "version": 3,
      "changeset": 71479027,
      "user": "Cerritus",
      "uid": 12919,
      "center": {
        "lat": 53.9749604,
        "lon": -10.1298971
      },
      "nodes": [
        5812111167,
        6142295471,
        6142295473,
        6142295472,
        6142295470,
        5812111168,
        5812111169,
        6142295474,
        6142295475,
        6142295476,
        5812111167
      ],
      "tags": {
        "amenity": "pub",
        "building": "yes",
        "name": "Lourdie's"
      }
    },
    {
      "type": "way",
      "id": 684682151,
      "timestamp": "2025-05-17T22:51:18Z",
      "version": 3,
      "changeset": 166411052,
      "user": "hwierzbicki",
      "uid": 10198270,
      "center": {
        "lat": 52.3036668,
        "lon": -10.028735
      },
      "nodes": [
        6415284565,
        6415284564,
        6415284563,
        6415284562,
        6415284565
      ],
      "tags": {
        "amenity": "pub",
        "building": "yes",
        "name": "The Green Room"
      }
    },
    {
      "type": "way",
      "id": 700294641,
      "timestamp": "2020-12-03T19:57:53Z",
      "version": 2,
      "changeset": 95246826,
      "user": "eireidium",
      "uid": 146307,
      "center": {
        "lat": 52.2154704,
        "lon": -10.3439894
      },
      "nodes": [
        6576367952,
        6576367951,
        6576367950,
        6576367949,
        6576367948,
        6576367947,
        6576367952
      ],
      "tags": {
        "amenity": "pub",
        "building": "yes"
      }
    },
    {
      "type": "way",
      "id": 717528676,
      "timestamp": "2023-02-28T14:57:16Z",
      "version": 4,
      "changeset": 133132448,
      "user": "b-unicycling",
      "uid": 1713634,
      "center": {
        "lat": 53.9789939,
        "lon": -10.044807
      },
      "nodes": [
        6738503313,
        6738496154,
        6920718048,
        6738503218,
        6738503196,
        6738503313
      ],
      "tags": {
        "amenity": "pub",
        "building": "commercial",
        "food": "yes",
        "name": "The Cross Bar",
        "opening_hours": "Mo-Sa 10:00-01:00; Su 10:00-00:00",
        "phone": "+353 98 43139"
      }
    },
    {
      "type": "way",
      "id": 855640840,
      "timestamp": "2021-10-06T00:27:27Z",
      "version": 3,
      "changeset": 112145284,
      "user": "DeBigC",
      "uid": 1932826,
      "center": {
        "lat": 54.1185962,
        "lon": -10.1015812
      },
      "nodes": [
        7978875535,
        7978875527,
        7978875526,
        7978875525,
        7978875524,
        7978875532,
        7978875528,
        7978875529,
        7978875531,
        7978875530,
        7978875533,
        7978875534,
        7978875535
      ],
      "tags": {
        "amenity": "pub",
        "name": "John Joe's"
      }
    },
    {
      "type": "way",
      "id": 856159371,
      "timestamp": "2023-04-29T09:54:12Z",
      "version": 2,
      "changeset": 135497536,
      "user": "cilliank27",
      "uid": 7532732,
      "center": {
        "lat": 54.255024,
        "lon": -10.0419296
      },
      "nodes": [
        7983145342,
        7983145339,
        7983145340,
        7983145341,
        7983145342
      ],
      "tags": {
        "amenity": "pub",
        "building": "pub",
        "name": "Lavelles Eagle Bar"
      }
    },
    {
      "type": "way",
      "id": 880337412,
      "timestamp": "2025-10-11T12:22:32Z",
      "version": 4,
      "changeset": 173134674,
      "user": "gsommer",
      "uid": 140922,
      "center": {
        "lat": 52.2347029,
        "lon": -10.1821522
      },
      "nodes": [
        8188310021,
        8188310026,
        8188310035,
        8188310027,
        8188310028,
        8188310029,
        8188310030,
        8188310022,
        8188310021
      ],
      "tags": {
        "amenity": "pub",
        "building": "yes",
        "internet_access": "wlan",
        "internet_access:fee": "no",
        "name": "O'Connor's Bar",
        "outdoor_seating": "yes",
        "toilets:access": "customers",
        "toilets:wheelchair": "no"
      }
    },
    {
      "type": "way",
      "id": 884488418,
      "timestamp": "2025-05-19T15:39:56Z",
      "version": 4,
      "changeset": 166483569,
      "user": "PubUpdater",
      "uid": 13921292,
      "center": {
        "lat": 52.3030615,
        "lon": -10.0400022
      },
      "nodes": [
        2459303937,
        8225395001,
        8225394996,
        8225394995,
        8225395000,
        8225394999,
        8225394997,
        8225394998,
        2459303937
      ],
      "tags": {
        "addr:city": "Castlegregory",
        "addr:county": "Kerry",
        "addr:postcode": "V92 PX93",
        "addr:street": "Fahamore",
        "amenity": "pub",
        "brewery": "torc_brewing",
        "building": "retail",
        "contact:facebook": "https://www.facebook.com/spillanesbar",
        "contact:instagram": "spillanesbar",
        "contact:twitter": "spillanesbar",
        "cuisine": "irish",
        "email": "info@spillanesbar.com",
        "food": "yes",
        "name": "Spillane’s",
        "phone": "+353667139125",
        "website": "https://www.spillanesbar.com/"
      }
    },
    {
      "type": "way",
      "id": 893064314,
      "timestamp": "2021-01-07T14:51:35Z",
      "version": 1,
      "changeset": 97116279,
      "user": "eireidium",
      "uid": 146307,
      "center": {
        "lat": 52.2553822,
        "lon": -10.0249707
      },
      "nodes": [
        8300228492,
        8300228493,
        8300228494,
        8300228495,
        8300228496,
        8300228497,
        8300228498,
        8300228499,
        8300228492
      ],
      "tags": {
        "amenity": "pub",
        "building": "yes"
      }
    },
    {
      "type": "way",
      "id": 893064325,
      "timestamp": "2021-01-07T14:51:35Z",
      "version": 1,
      "changeset": 97116279,
      "user": "eireidium",
      "uid": 146307,
      "center": {
        "lat": 52.2549148,
        "lon": -10.0225149
      },
      "nodes": [
        8300228550,
        8300228552,
        8300228568,
        8300228553,
        8300228554,
        8300228555,
        8300228556,
        8300228551,
        8300228550
      ],
      "tags": {
        "amenity": "pub",
        "building": "yes"
      }
    },
    {
      "type": "way",
      "id": 896750608,
      "timestamp": "2021-01-18T20:17:55Z",
      "version": 1,
      "changeset": 97719953,
      "user": "eireidium",
      "uid": 146307,
      "center": {
        "lat": 52.1408351,
        "lon": -10.1650973
      },
      "nodes": [
        8335717383,
        8335717384,
        8335717385,
        8335717386,
        8335717387,
        8335717388,
        8335717389,
        8335717390,
        8335717391,
        8335717392,
        8335717393,
        8335717394,
        8335717383
      ],
      "tags": {
        "amenity": "pub",
        "building": "yes"
      }
    },
    {
      "type": "way",
      "id": 900924964,
      "timestamp": "2022-02-13T19:54:36Z",
      "version": 3,
      "changeset": 117367351,
      "user": "eireidium",
      "uid": 146307,
      "center": {
        "lat": 52.2441414,
        "lon": -10.0624487
      },
      "nodes": [
        8369434887,
        8369434888,
        8369434889,
        8369434890,
        8369434891,
        8369434892,
        8369434893,
        8369434894,
        8369434887
      ],
      "tags": {
        "amenity": "pub",
        "building": "yes",
        "roof:material": "thatch"
      }
    },
    {
      "type": "way",
      "id": 900924965,
      "timestamp": "2022-02-13T19:54:36Z",
      "version": 2,
      "changeset": 117367351,
      "user": "eireidium",
      "uid": 146307,
      "center": {
        "lat": 52.2441856,
        "lon": -10.0619984
      },
      "nodes": [
        8369434895,
        8369434896,
        8369434897,
        8369434898,
        9503335017,
        9503335018,
        8369434899,
        8369434900,
        8369434895
      ],
      "tags": {
        "amenity": "pub",
        "building": "yes"
      }
    },
    {
      "type": "way",
      "id": 906664789,
      "timestamp": "2025-06-11T18:56:27Z",
      "version": 2,
      "changeset": 167505085,
      "user": "3Loader3",
      "uid": 22791122,
      "center": {
        "lat": 52.153312,
        "lon": -10.0504205
      },
      "nodes": [
        8419147654,
        8419147655,
        8419147656,
        8419147657,
        8419147658,
        8419147659,
        8419147660,
        8419147661,
        8419147654
      ],
      "tags": {
        "amenity": "pub",
        "building": "yes",
        "name": "The Randy Leprachaun"
      }
    },
    {
      "type": "way",
      "id": 907022240,
      "timestamp": "2021-02-14T11:48:01Z",
      "version": 1,
      "changeset": 99246416,
      "user": "eireidium",
      "uid": 146307,
      "center": {
        "lat": 52.1514548,
        "lon": -10.0542931
      },
      "nodes": [
        8422491029,
        8422491033,
        8422491037,
        8422491034,
        8422491030,
        8422491029
      ],
      "tags": {
        "amenity": "pub",
        "building": "yes"
      }
    },
    {
      "type": "way",
      "id": 907024988,
      "timestamp": "2022-09-06T15:12:24Z",
      "version": 2,
      "changeset": 125863566,
      "user": "Séamus Knightly",
      "uid": 17052261,
      "center": {
        "lat": 52.1513989,
        "lon": -10.0566106
      },
      "nodes": [
        8422499603,
        8422499604,
        8422499605,
        8422499606,
        8422499603
      ],
      "tags": {
        "amenity": "pub",
        "building": "yes",
        "name": "South Pole Inn"
      }
    },
    {
      "type": "way",
      "id": 908069292,
      "timestamp": "2022-04-11T15:45:51Z",
      "version": 6,
      "changeset": 119585473,
      "user": "PubUpdater",
      "uid": 13921292,
      "center": {
        "lat": 51.7695995,
        "lon": -10.1006797
      },
      "nodes": [
        8431892849,
        8431892851,
        8431892852,
        8431892854,
        8431892855,
        8431892856,
        8431892857,
        8431892858,
        8431892850,
        8431892849
      ],
      "tags": {
        "addr:city": "Caherdaniel",
        "addr:country": "IE",
        "addr:county": "Kerry",
        "addr:postcode": "V93 DD83",
        "amenity": "pub",
        "building": "retail",
        "contact:facebook": "https://www.facebook.com/profile.php?id=100059036361925",
        "food": "yes",
        "name": "The Blind Piper",
        "name:ga": "An Píobaire Dall",
        "website": "https://blindpiperpub.ie"
      }
    },
    {
      "type": "way",
      "id": 908569447,
      "timestamp": "2022-07-07T20:11:23Z",
      "version": 2,
      "changeset": 123334796,
      "user": "shiftee",
      "uid": 5589928,
      "center": {
        "lat": 51.7605653,
        "lon": -10.0802536
      },
      "nodes": [
        8436272023,
        8436272024,
        8436272025,
        8436272026,
        8436272027,
        8436272028,
        8436272023
      ],
      "tags": {
        "amenity": "pub",
        "building": "yes",
        "name": "Maisie Ryans"
      }
    },
    {
      "type": "way",
      "id": 931584763,
      "timestamp": "2024-04-25T13:43:40Z",
      "version": 4,
      "changeset": 150497517,
      "user": "PubUpdater",
      "uid": 13921292,
      "center": {
        "lat": 52.1412952,
        "lon": -10.2707286
      },
      "nodes": [
        8636540003,
        8636540004,
        8636540008,
        8636540009,
        8636540010,
        8636540007,
        8636540005,
        8636540006,
        8636540003
      ],
      "tags": {
        "addr:city": "Dingle",
        "addr:county": "Kerry",
        "addr:housenumber": "46-47",
        "addr:postcode": "V92 FF25",
        "addr:street": "Sráid an Doirín",
        "amenity": "pub",
        "building": "retail",
        "contact:facebook": "https://www.facebook.com/Dick-Macks-Pub-114673071886441",
        "contact:twitter": "@dickmackspub",
        "dog": "yes",
        "email": "info@dickmackspub.com",
        "internet_access": "wlan",
        "internet_access:fee": "yes",
        "name": "Dick Mack’s",
        "phone": "+353669151787",
        "start_date": "2017",
        "website": "https://www.dickmackspub.com"
      }
    },
    {
      "type": "way",
      "id": 1288517624,
      "timestamp": "2024-06-24T22:43:32Z",
      "version": 2,
      "changeset": 153132579,
      "user": "TXPeig",
      "uid": 10630989,
      "center": {
        "lat": 53.9742991,
        "lon": -10.085757
      },
      "nodes": [
        5602877765,
        11948911684,
        11948911685,
        5810638612,
        5810638613,
        5602877765
      ],
      "tags": {
        "amenity": "pub",
        "building": "yes",
        "name": "The Basking Shark Bar"
      }
    }
  ]
}