{
  "version": 0.6,
  "generator": "Overpass API 0.7.62.8 e802775f",
  "osm3s": {
    "timestamp_osm_base": "2025-10-23T20:03:31Z",
    "copyright": "The data included in this document is from www.openstreetmap.org. The data is made available under ODbL."
  },
  "elements": [
    {
      "type": "node",
      "id": 4202068504,
      "lat": 29.2997003,
      "lon": 47.9066924,
      "timestamp": "2018-03-01T07:29:23Z",
      "version": 2,
      "changeset": 56778510,
      "user": "Ø³Ø§Ù…Ø¨Ø§",
      "uid": 4860517,
      "tags": {
        "amenity": "bar",
        "name": "juice",
        "name:en": "juice"
      }
    },
    {
      "type": "node",
      "id": 4500951856,
      "lat": 29.3343767,
      "lon": 48.057848,
      "timestamp": "2018-02-28T15:15:18Z",
      "version": 3,
      "changeset": 56758902,
      "user": "Ø³Ø§Ù…Ø¨Ø§",
      "uid": 4860517,
      "tags": {
        "addr:street": "9",
        "amenity": "bar",
        "name": "Ladies Saloon",
        "name:en": "Ladies Saloon",
        "source": "KG Ground Survey 2016"
      }
    },
    {
      "type": "node",
      "id": 4526707726,
      "lat": 29.33408,
      "lon": 48.0460031,
      "timestamp": "2018-02-28T15:23:02Z",
      "version": 3,
      "changeset": 56759107,
      "user": "Ø³Ø§Ù…Ø¨Ø§",
      "uid": 4860517,
      "tags": {
        "amenity": "bar",
        "name": "Hookah Bar",
        "name:en": "Hookah Bar",
        "source": "KG Ground Survey 2016"
      }
    },
    {
      "type": "node",
      "id": 4745519526,
      "lat": 29.337202,
      "lon": 48.0636946,
      "timestamp": "2017-03-20T18:50:37Z",
      "version": 1,
      "changeset": 47020581,
      "user": "The RooM lounge",
      "uid": 5524922,
      "tags": {
        "amenity": "bar"
      }
    },
    {
      "type": "node",
      "id": 6054865385,
      "lat": 29.1048196,
      "lon": 47.9051113,
      "timestamp": "2020-12-03T05:39:53Z",
      "version": 2,
      "changeset": 95195637,
      "user": "MustafaQasim",
      "uid": 9535554,
      "tags": {
        "amenity": "bar",
        "name": "Ø¨Ø±",
        "name:ar": "Ø¨Ø±",
        "name:en": "desert"
      }
    },
    {
      "type": "node",
      "id": 10101716517,
      "lat": 29.5095967,
      "lon": 47.3439166,
      "timestamp": "2022-10-14T17:16:03Z",
      "version": 1,
      "changeset": 127537016,
      "user": "Ø§Ù„Ø¬Ù„Ø¹ÙˆÙŠ",
      "uid": 12174149,
      "tags": {
        "amenity": "pub"
      }
    },
    {
      "type": "node",
      "id": 11630327470,
      "lat": 29.9355432,
      "lon": 44.5503391,
      "timestamp": "2024-02-16T12:39:48Z",
      "version": 1,
      "changeset": 147530914,
      "user": "ahmedzxz",
      "uid": 18380615,
      "tags": {
        "amenity": "pub",
        "name": "Ø§Ù… Ø§Ø®Ø±ÙˆØ±"
      }
    },
    {
      "type": "node",
      "id": 11704749569,
      "lat": 29.2358844,
      "lon": 44.7546611,
      "timestamp": "2024-03-08T18:07:28Z",
      "version": 1,
      "changeset": 148396010,
      "user": "á˜“á“†É¹É¹ÌˆÌ‡É¹É• ğ„ É‘ÌˆÉ¹Ì¤ÈŠá”•á“—",
      "uid": 21184121,
      "tags": {
        "amenity": "biergarten",
        "email": "oooio8oiooo@gmail.com",
        "internet_access": "wlan",
        "name": "á˜“á“†É¹É¹ÌˆÌ‡É¹É• É‘ÌˆÉ¹Ì¤ÈŠá”•á“—",
        "opening_hours": "24/7",
        "phone": "07863592707",
        "website": "http://oooio8oiooo@gmail.com"
      }
    },
    {
      "type": "node",
      "id": 11971540698,
      "lat": 29.2673524,
      "lon": 47.998616,
      "timestamp": "2024-06-20T09:40:11Z",
      "version": 2,
      "changeset": 152934322,
      "user": "Donia_EL menshawy",
      "uid": 21389750,
      "tags": {
        "addr:block": "Ù‚Ø·Ø¹Ù‡ 7",
        "addr:block:en": "Block 7",
        "addr:city": "Ø§Ù„Ø²Ù‡Ø±Ø§Ø¡",
        "addr:city:en": "Zahra",
        "addr:country": "KW",
        "addr:postcode": "20011",
        "addr:street": "Faris Furah Al Wagayan Street",
        "amenity": "bar",
        "contact:website": "http://charsteakbar.com/",
        "name": "Ø¨Ø§Ø± Ø³ØªÙŠÙƒ Ø´Ø§Ø±",
        "name:ar": "Ø¨Ø§Ø± Ø³ØªÙŠÙƒ Ø´Ø§Ø±",
        "name:en": "Char Steak Bar",
        "shop": "restaurant",
        "source": "www.q8maps.com",
        "status": "Operational"
      }
    }
  ]
}