{
  "version": 0.6,
  "generator": "Overpass API 0.7.62.8 e802775f",
  "osm3s": {
    "timestamp_osm_base": "2025-10-23T20:03:31Z",
    "copyright": "The data included in this document is from www.openstreetmap.org. The data is made available under ODbL."
  },
  "elements": [
    {
      "type": "node",
      "id": 4585456498,
      "lat": 26.52583,
      "lon": 13.0071588,
      "timestamp": "2020-11-24T03:01:31Z",
      "version": 3,
      "changeset": 94670743,
      "user": "MustafaQasim",
      "uid": 9535554,
      "tags": {
        "amenity": "pub",
        "name": "سور العيناوي الامراض الايدز",
        "name:ar": "سور العيناوي الامراض الايدز",
        "name:en": "Military"
      }
    },
    {
      "type": "node",
      "id": 6347510685,
      "lat": 29.0674453,
      "lon": 15.7794762,
      "timestamp": "2020-11-24T03:01:31Z",
      "version": 3,
      "changeset": 94670743,
      "user": "MustafaQasim",
      "uid": 9535554,
      "tags": {
        "addr:housenumber": "918245008",
        "amenity": "pub",
        "name": "فرقة ابناء سوكنة",
        "name:ar": "فرقة ابناء سوكنة",
        "name:en": "Music",
        "phone": "0928245008"
      }
    },
    {
      "type": "node",
      "id": 11382841669,
      "lat": 23.2839571,
      "lon": 10.5456687,
      "timestamp": "2023-11-29T02:35:21Z",
      "version": 1,
      "changeset": 144571034,
      "user": "Nassim0656",
      "uid": 18083521,
      "tags": {
        "amenity": "bar",
        "name:fr": "ali dema"
      }
    },
    {
      "type": "node",
      "id": 11914038470,
      "lat": 23.2682488,
      "lon": 11.2253022,
      "timestamp": "2024-05-17T19:16:03Z",
      "version": 1,
      "changeset": 151468915,
      "user": "Nassim0656",
      "uid": 18083521,
      "tags": {
        "amenity": "bar",
        "name:fr": "skivage in ezzane"
      }
    },
    {
      "type": "node",
      "id": 12942474301,
      "lat": 22.2760618,
      "lon": 11.1973038,
      "timestamp": "2025-06-21T12:42:59Z",
      "version": 1,
      "changeset": 167912199,
      "user": "oaraouae",
      "uid": 23025146,
      "tags": {
        "addr:housenumber": "19111111",
        "amenity": "bar"
      }
    }
  ]
}