{
  "version": 0.6,
  "generator": "Overpass API 0.7.62.8 e802775f",
  "osm3s": {
    "timestamp_osm_base": "2025-10-23T20:03:31Z",
    "copyright": "The data included in this document is from www.openstreetmap.org. The data is made available under ODbL."
  },
  "elements": [
    {
      "type": "node",
      "id": 1089008369,
      "lat": 25.3695272,
      "lon": 68.3590544,
      "timestamp": "2011-01-11T05:52:34Z",
      "version": 2,
      "changeset": 6933509,
      "user": "sultanbaig",
      "uid": 341940,
      "tags": {
        "amenity": "pub"
      }
    },
    {
      "type": "node",
      "id": 1440070253,
      "lat": 24.8847829,
      "lon": 66.9562515,
      "timestamp": "2011-09-22T06:56:54Z",
      "version": 1,
      "changeset": 9365859,
      "user": "ihsaan",
      "uid": 488094,
      "tags": {
        "amenity": "pub",
        "name": "Milk Shop"
      }
    },
    {
      "type": "node",
      "id": 4299809794,
      "lat": 24.8696824,
      "lon": 67.3536294,
      "timestamp": "2017-08-31T11:43:18Z",
      "version": 2,
      "changeset": 51611285,
      "user": "Hashaam",
      "uid": 6448457,
      "tags": {
        "addr:city": "Karachi",
        "addr:country": "PK",
        "addr:full": "Gulshan e Hadeed Phase 1",
        "addr:province": "Sindh",
        "addr:street": "Main Commercial Street",
        "amenity": "pub",
        "name": "P1 A833"
      }
    },
    {
      "type": "node",
      "id": 4303178304,
      "lat": 24.5536996,
      "lon": 67.5693838,
      "timestamp": "2016-07-14T18:58:33Z",
      "version": 1,
      "changeset": 40747573,
      "user": "Ayaz Soomro",
      "uid": 4253084,
      "tags": {
        "amenity": "bar",
        "name": "cow village"
      }
    },
    {
      "type": "node",
      "id": 4690333792,
      "lat": 24.9457368,
      "lon": 67.0677358,
      "timestamp": "2017-11-06T13:27:14Z",
      "version": 2,
      "changeset": 53554873,
      "user": "Syed Zeeshan Ahmed90",
      "uid": 6448472,
      "tags": {
        "addr:city": "Karachi",
        "addr:street": "Shah Jahan Avenue",
        "amenity": "pub",
        "name": "Cafe Pyala",
        "name:en": "Cafe Pyala"
      }
    },
    {
      "type": "node",
      "id": 4732944009,
      "lat": 24.8441719,
      "lon": 66.9906,
      "timestamp": "2017-09-25T13:13:05Z",
      "version": 3,
      "changeset": 52355676,
      "user": "Splasher",
      "uid": 396662,
      "tags": {
        "addr:city": "Karachi",
        "addr:street": "Port Grand",
        "amenity": "bar",
        "name": "Karoke Studio -Port Grand"
      }
    },
    {
      "type": "node",
      "id": 4786356122,
      "lat": 24.7989139,
      "lon": 67.0565888,
      "timestamp": "2017-09-23T13:01:33Z",
      "version": 2,
      "changeset": 52303451,
      "user": "Hashaam",
      "uid": 6448457,
      "tags": {
        "addr:city": "Karachi",
        "addr:country": "PK",
        "addr:place": "DHA Phase 6",
        "addr:province": "Sindh",
        "addr:street": "DHA Phase 6",
        "amenity": "bar",
        "name": "Miftah's Cocktail"
      }
    },
    {
      "type": "node",
      "id": 5214334068,
      "lat": 24.9459347,
      "lon": 67.0675356,
      "timestamp": "2017-11-06T13:27:12Z",
      "version": 1,
      "changeset": 53554873,
      "user": "Syed Zeeshan Ahmed90",
      "uid": 6448472,
      "tags": {
        "addr:city": "Karachi",
        "addr:street": "Shah Jahan Avenue",
        "amenity": "pub",
        "name": "Cafe Super Pyala"
      }
    },
    {
      "type": "node",
      "id": 5440570225,
      "lat": 26.811857,
      "lon": 68.1936221,
      "timestamp": "2018-02-27T18:27:27Z",
      "version": 1,
      "changeset": 56730730,
      "user": "Ovaiskhoso",
      "uid": 7680268,
      "tags": {
        "amenity": "bar",
        "name": "Abbasi Petrol pump"
      }
    },
    {
      "type": "node",
      "id": 7719395485,
      "lat": 26.5581121,
      "lon": 67.9917976,
      "timestamp": "2020-07-16T06:21:50Z",
      "version": 1,
      "changeset": 88065330,
      "user": "Akhter Saeed",
      "uid": 6600208,
      "tags": {
        "amenity": "bar",
        "name": "MDFB FACTORY"
      }
    },
    {
      "type": "node",
      "id": 12128178483,
      "lat": 24.8823321,
      "lon": 67.1519946,
      "timestamp": "2024-08-22T17:23:45Z",
      "version": 1,
      "changeset": 155617928,
      "user": "Areesha123",
      "uid": 21872214,
      "tags": {
        "addr:city": "Karachi",
        "addr:housenumber": "V5M2+2RF",
        "addr:street": ", Shah Faisal Colony 3 Shah Faisal Colony, Karachi,",
        "amenity": "bar",
        "name": "CO2 The Soda Shop"
      }
    },
    {
      "type": "node",
      "id": 12133663478,
      "lat": 24.922773,
      "lon": 67.0891854,
      "timestamp": "2024-08-24T11:15:00Z",
      "version": 3,
      "changeset": 155690697,
      "user": "Farah678",
      "uid": 21874926,
      "tags": {
        "addr:city": "Karachi",
        "addr:street": "SB 7, Asia Apartments, near Rab Medical Center, Block 2 Gulshan-e-Iqbal, Karachi, Pakistan",
        "amenity": "bar",
        "name": "1°C - One Degree Centigrade: Gulshan e Iqbal Branch"
      }
    },
    {
      "type": "node",
      "id": 12137863519,
      "lat": 24.9187377,
      "lon": 67.0726404,
      "timestamp": "2024-08-26T14:13:24Z",
      "version": 1,
      "changeset": 155785091,
      "user": "manalnaseem123",
      "uid": 21870918,
      "tags": {
        "addr:city": "Karachi",
        "addr:street": "Gulshan-e-Shamim, Federal B Area Gulshan e Shamim,",
        "amenity": "bar",
        "name": "Liquid trance Limcano"
      }
    },
    {
      "type": "node",
      "id": 12138344304,
      "lat": 24.9109159,
      "lon": 67.0763564,
      "timestamp": "2024-08-26T17:43:42Z",
      "version": 1,
      "changeset": 155795121,
      "user": "Farah678",
      "uid": 21874926,
      "tags": {
        "addr:city": "Karachi",
        "addr:street": "Shop #19, apartment, Rufi Heaven, Block 13D-2 Block 13 D 2 Gulshan-e-Iqbal, Karachi, Karachi City, Sindh, Pakistan",
        "amenity": "bar",
        "name": "Cafe Barosh"
      }
    },
    {
      "type": "node",
      "id": 12144659980,
      "lat": 24.8534914,
      "lon": 67.072543,
      "timestamp": "2024-08-29T16:56:34Z",
      "version": 1,
      "changeset": 155938593,
      "user": "Iqra Naaz",
      "uid": 21871157,
      "tags": {
        "addr:city": "Karachi",
        "addr:street": "233 Mehmoodabad Number 2, near Baig Sons Store, Mehmoodabad",
        "amenity": "bar",
        "name": "The Soda Station - Mehmoodabad Branch"
      }
    },
    {
      "type": "node",
      "id": 12148275635,
      "lat": 24.898672,
      "lon": 67.0442049,
      "timestamp": "2024-08-31T18:58:43Z",
      "version": 1,
      "changeset": 156028558,
      "user": "Farah678",
      "uid": 21874926,
      "tags": {
        "addr:street": "S M Taufiq Rd, C Area Liaquatabad Town, Karachi,",
        "amenity": "bar",
        "mobile": "03009277754",
        "name": "CO2 The Soda Shop"
      }
    },
    {
      "type": "node",
      "id": 12149482226,
      "lat": 24.9261446,
      "lon": 67.0649431,
      "timestamp": "2024-09-01T10:17:09Z",
      "version": 1,
      "changeset": 156047398,
      "user": "manalnaseem123",
      "uid": 21870918,
      "tags": {
        "addr:street": "W3G7+CXV, Federal B Area Block 7 Gulberg Town,",
        "amenity": "bar",
        "name": "99 Orange Juice Bar"
      }
    },
    {
      "type": "node",
      "id": 12149485632,
      "lat": 24.9250553,
      "lon": 67.0653628,
      "timestamp": "2024-09-01T10:28:33Z",
      "version": 1,
      "changeset": 156047856,
      "user": "manalnaseem123",
      "uid": 21870918,
      "tags": {
        "addr:city": "Karachi",
        "addr:street": "Federal B Area Block 7 Gulberg Town",
        "amenity": "bar",
        "name": "Gilgit and Chitral premium Drinking water"
      }
    },
    {
      "type": "node",
      "id": 12149732236,
      "lat": 24.924859,
      "lon": 67.0632925,
      "timestamp": "2024-09-01T13:16:26Z",
      "version": 1,
      "changeset": 156054045,
      "user": "manalnaseem123",
      "uid": 21870918,
      "tags": {
        "addr:city": "Karachi",
        "addr:street": "Habib Baba Juice, Madni Masjid Rd, Federal B Area Block 7 Gulberg Town",
        "amenity": "bar",
        "name": "Habib Baba Juice"
      }
    },
    {
      "type": "node",
      "id": 12151192789,
      "lat": 24.9270843,
      "lon": 67.065714,
      "timestamp": "2024-09-02T08:30:07Z",
      "version": 1,
      "changeset": 156085921,
      "user": "manalnaseem123",
      "uid": 21870918,
      "tags": {
        "addr:city": "Hype - The Soda Bar",
        "addr:street": "W3G8+Q76, Federal B Area Naseerabad Block 14 Gulberg Town",
        "amenity": "bar",
        "name": "Hype - The Soda Bar"
      }
    },
    {
      "type": "node",
      "id": 12151435985,
      "lat": 24.9250093,
      "lon": 67.0667149,
      "timestamp": "2024-09-02T11:05:38Z",
      "version": 1,
      "changeset": 156092656,
      "user": "manalnaseem123",
      "uid": 21870918,
      "tags": {
        "addr:city": "Karachi",
        "addr:housenumber": "Shop No:02,",
        "addr:street": "prince plaza, block 7 Ayesha Manzil Pedestrian Crosssing, Federal B Area Naseerabad Block 14 Gulberg Town,",
        "amenity": "bar",
        "name": "Sodafy"
      }
    },
    {
      "type": "node",
      "id": 12154644519,
      "lat": 24.939091,
      "lon": 67.0527753,
      "timestamp": "2024-09-04T04:26:44Z",
      "version": 1,
      "changeset": 156167484,
      "user": "amna0077",
      "uid": 21870909,
      "tags": {
        "addr:city": "Karachi",
        "addr:street": "B 106, Block L Block H North Nazimabad Town",
        "amenity": "bar",
        "name": "Soda Punch"
      }
    },
    {
      "type": "node",
      "id": 12154704380,
      "lat": 24.9395519,
      "lon": 67.052149,
      "timestamp": "2024-09-04T05:24:10Z",
      "version": 1,
      "changeset": 156168549,
      "user": "amna0077",
      "uid": 21870909,
      "tags": {
        "addr:city": "Karachi",
        "addr:street": "shop#8, Al fatah center, plot#sc5 street#9, Block L North Nazimabad Town",
        "amenity": "bar",
        "name": "Frosby Unique Soda Dükkani"
      }
    },
    {
      "type": "node",
      "id": 12154704382,
      "lat": 24.9398056,
      "lon": 67.0519071,
      "timestamp": "2024-09-04T05:24:10Z",
      "version": 1,
      "changeset": 156168549,
      "user": "amna0077",
      "uid": 21870909,
      "tags": {
        "addr:city": "Karachi",
        "addr:street": "Street No. 8, Block L North Nazimabad Town",
        "amenity": "bar",
        "name": "Safeer Limca & Soda drink"
      }
    },
    {
      "type": "node",
      "id": 12154979962,
      "lat": 24.9283841,
      "lon": 67.0752104,
      "timestamp": "2024-09-04T09:23:57Z",
      "version": 1,
      "changeset": 156176474,
      "user": "manalnaseem123",
      "uid": 21870918,
      "tags": {
        "addr:city": "Karachi",
        "addr:housenumber": "Shop # R-210,",
        "addr:street": ", Block15, Federal B Area Block 15 Gulberg Town",
        "amenity": "bar",
        "name": "Berry Boy"
      }
    },
    {
      "type": "node",
      "id": 12155015029,
      "lat": 24.9282914,
      "lon": 67.0750956,
      "timestamp": "2024-09-04T09:21:43Z",
      "version": 1,
      "changeset": 156176393,
      "user": "manalnaseem123",
      "uid": 21870918,
      "tags": {
        "addr:city": "Karachi",
        "addr:housenumber": "Plot R 207",
        "addr:street": "Area Block 15 Gulberg Town,",
        "amenity": "bar",
        "name": "Flavours Lab"
      }
    },
    {
      "type": "node",
      "id": 12158200178,
      "lat": 24.9323281,
      "lon": 67.0775556,
      "timestamp": "2024-09-05T17:15:40Z",
      "version": 1,
      "changeset": 156241280,
      "user": "manalnaseem123",
      "uid": 21870918,
      "tags": {
        "addr:city": "Karachi",
        "addr:housenumber": "Plot R 1065",
        "addr:street": "Federal B Area Naseerabad Block 14 Gulberg Town,",
        "amenity": "bar",
        "name": "Disco Deewanay"
      }
    },
    {
      "type": "node",
      "id": 12161718579,
      "lat": 24.9282159,
      "lon": 67.0671718,
      "timestamp": "2024-09-07T12:17:30Z",
      "version": 1,
      "changeset": 156310588,
      "user": "manalnaseem123",
      "uid": 21870918,
      "tags": {
        "addr:city": "Karachi",
        "addr:street": "W3H8+7V5, Federal B Area Naseerabad Block 14 Gulberg Town,",
        "amenity": "bar",
        "name": "M. Iqbal Zaiqa Nimco"
      }
    },
    {
      "type": "node",
      "id": 12161833089,
      "lat": 24.8316073,
      "lon": 67.041732,
      "timestamp": "2024-09-07T13:44:40Z",
      "version": 2,
      "changeset": 156313872,
      "user": "Iqra Naaz",
      "uid": 21871157,
      "tags": {
        "addr:city": "Karachi",
        "addr:street": "R2JR+PMG, Delhi Colony,",
        "amenity": "bar",
        "name": "Madina shirmal house"
      }
    },
    {
      "type": "node",
      "id": 12165327607,
      "lat": 24.9362761,
      "lon": 67.0763045,
      "timestamp": "2024-09-09T11:07:07Z",
      "version": 1,
      "changeset": 156389165,
      "user": "manalnaseem123",
      "uid": 21870918,
      "tags": {
        "addr:city": "Karachi",
        "addr:street": "W3PG+FGH, Federal B Area Naseerabad Block 14 Gulberg Town,",
        "amenity": "bar",
        "name": "Kulki Soda"
      }
    },
    {
      "type": "node",
      "id": 12165470877,
      "lat": 24.9352646,
      "lon": 67.0451126,
      "timestamp": "2024-09-09T12:32:09Z",
      "version": 1,
      "changeset": 156392401,
      "user": "amna0077",
      "uid": 21870909,
      "tags": {
        "addr:city": "Karachi",
        "addr:street": "W2PW+432, Block G North Nazimabad Town",
        "amenity": "bar",
        "name": "Four Seasons Limca"
      }
    },
    {
      "type": "node",
      "id": 12182460946,
      "lat": 24.9165226,
      "lon": 67.0476306,
      "timestamp": "2024-09-17T16:21:25Z",
      "version": 1,
      "changeset": 156737487,
      "user": "Farah678",
      "uid": 21874926,
      "tags": {
        "addr:city": "Karachi",
        "addr:street": "Unnamed Road, Federal B Area FC Area, Karachi, Karachi City, Sindh, Pakistan",
        "amenity": "bar",
        "name": "Bismillah Juice Center"
      }
    },
    {
      "type": "node",
      "id": 12186116440,
      "lat": 24.9237863,
      "lon": 67.1511565,
      "timestamp": "2024-09-19T12:30:13Z",
      "version": 1,
      "changeset": 156817999,
      "user": "Iqra Naaz",
      "uid": 21871157,
      "tags": {
        "addr:city": "Karachi",
        "addr:street": "W5F2+GCG, Bhittai Abad Dhani Bakhsh Goth Block 9 A",
        "amenity": "bar",
        "name": "Shaheen Block Works"
      }
    },
    {
      "type": "node",
      "id": 12186486862,
      "lat": 24.9210538,
      "lon": 67.1456631,
      "timestamp": "2024-09-19T16:28:09Z",
      "version": 2,
      "changeset": 156829267,
      "user": "Iqra Naaz",
      "uid": 21871157,
      "tags": {
        "addr:city": "Karachi",
        "addr:street": "Block 9 Pia Housing Scheme Block 9 PIA Housing Scheme,",
        "amenity": "bar",
        "name": "Pan Club"
      }
    },
    {
      "type": "node",
      "id": 12195272355,
      "lat": 24.9292678,
      "lon": 67.0400269,
      "timestamp": "2024-09-23T18:31:25Z",
      "version": 1,
      "changeset": 157008969,
      "user": "amna0077",
      "uid": 21870909,
      "tags": {
        "addr:city": "Karachi",
        "addr:street": "F 97, Block-B Block B North Nazimabad Town",
        "amenity": "bar",
        "name": "Meta boost juicebar"
      }
    },
    {
      "type": "node",
      "id": 12201973178,
      "lat": 24.9266014,
      "lon": 67.0304749,
      "timestamp": "2024-09-26T15:22:35Z",
      "version": 1,
      "changeset": 157134224,
      "user": "amna0077",
      "uid": 21870909,
      "tags": {
        "addr:city": "Karachi",
        "addr:street": "W2GJ+J5R, Block A North Nazimabad Town",
        "amenity": "bar",
        "name": "Hype The Soda Shop"
      }
    },
    {
      "type": "node",
      "id": 12206295911,
      "lat": 24.9140512,
      "lon": 67.0221624,
      "timestamp": "2024-09-28T02:46:02Z",
      "version": 1,
      "changeset": 157193360,
      "user": "Farah678",
      "uid": 21874926,
      "tags": {
        "addr:city": "Karachi",
        "addr:street": "Plot H 12/41C, Block 3 Nazimabad, Karachi, Karachi City, Sindh 74600, Pakistan",
        "amenity": "bar",
        "name": "CO2 THE SODA SHOP"
      }
    },
    {
      "type": "node",
      "id": 12206358270,
      "lat": 24.9137892,
      "lon": 67.0239122,
      "timestamp": "2024-09-28T04:10:06Z",
      "version": 1,
      "changeset": 157194163,
      "user": "Farah678",
      "uid": 21874926,
      "tags": {
        "addr:city": "Karachi",
        "addr:street": "Plot H, 5/36C, Block 3 Nazimabad, Karachi, Karachi City, Sindh 74600, Pakistan",
        "amenity": "bar",
        "name": "Tawakkal Soda Drink"
      }
    },
    {
      "type": "node",
      "id": 12213520165,
      "lat": 24.8964945,
      "lon": 66.9955057,
      "timestamp": "2024-10-01T08:01:58Z",
      "version": 2,
      "changeset": 157326107,
      "user": "Farah678",
      "uid": 21874926,
      "tags": {
        "addr:city": "Karachi",
        "addr:street": "Haroonabad Sindh Industrial Trading Estate, Karachi, Karachi City, Sindh, Pakistan",
        "amenity": "bar",
        "name": "Rakyl"
      }
    },
    {
      "type": "node",
      "id": 12218989837,
      "lat": 24.9185779,
      "lon": 67.1435939,
      "timestamp": "2024-10-03T16:22:35Z",
      "version": 1,
      "changeset": 157427293,
      "user": "Iqra Naaz",
      "uid": 21871157,
      "tags": {
        "addr:city": "Karachi",
        "addr:street": "P.I.A Society Gate 2 entrance, Block 9 Pia Housing Scheme Block 9 PIA Housing Scheme,",
        "amenity": "bar",
        "name": "Jam sultan k dost ka hotel"
      }
    },
    {
      "type": "node",
      "id": 12228054123,
      "lat": 24.9444137,
      "lon": 67.073963,
      "timestamp": "2024-10-05T16:25:17Z",
      "version": 1,
      "changeset": 157509172,
      "user": "amna0077",
      "uid": 21870909,
      "tags": {
        "addr:city": "Karachi",
        "addr:street": "Plot R 312 Block 17 FB AREA, Samanabad Gulberg Town",
        "amenity": "bar",
        "name": "Crazy Soda Bar ( Samnabad Branch )"
      }
    },
    {
      "type": "node",
      "id": 12230386898,
      "lat": 24.8756534,
      "lon": 67.0322076,
      "timestamp": "2024-10-06T20:41:46Z",
      "version": 1,
      "changeset": 157557376,
      "user": "Sawera21",
      "uid": 21890681,
      "tags": {
        "addr:city": "Karachi",
        "addr:housenumber": "V2GJ+3RV",
        "addr:street": "Soldier Bazaar Rd, Soldier Bazaar Parsi Colony Saddar,",
        "amenity": "bar",
        "name": "FIZZYLICIOUS"
      }
    },
    {
      "type": "node",
      "id": 12244343774,
      "lat": 24.8600993,
      "lon": 67.0297712,
      "timestamp": "2024-10-11T15:02:43Z",
      "version": 3,
      "changeset": 157761075,
      "user": "Areesha123",
      "uid": 21872214,
      "tags": {
        "addr:city": "Karachi",
        "addr:street": "V26H+3V8, Dr Daud Pota Rd, Saddar",
        "amenity": "bar",
        "name": "Sadder soda center"
      }
    },
    {
      "type": "node",
      "id": 12252233117,
      "lat": 24.9277124,
      "lon": 67.0950546,
      "timestamp": "2024-10-15T05:41:35Z",
      "version": 1,
      "changeset": 157904476,
      "user": "amna0077",
      "uid": 21870909,
      "tags": {
        "addr:city": "Karachi",
        "addr:street": "plot fl-3-3 , shop, 2, Block 3 Gulshan-e-Iqbal",
        "amenity": "bar",
        "name": "the boys soda bar"
      }
    },
    {
      "type": "node",
      "id": 12252306821,
      "lat": 24.9269312,
      "lon": 66.9679235,
      "timestamp": "2024-10-15T07:16:16Z",
      "version": 1,
      "changeset": 157906928,
      "user": "Farah678",
      "uid": 21874926,
      "tags": {
        "addr:city": "karachi",
        "addr:street": "1 Ameer Hamza Rd, Sector 4 - E Sector 4 Baldia, Karachi, Karachi City, Sindh, Pakistan",
        "amenity": "bar",
        "name": "Zubar",
        "phone": "03138274298"
      }
    },
    {
      "type": "node",
      "id": 12258044898,
      "lat": 24.8584354,
      "lon": 67.0250106,
      "timestamp": "2024-10-17T10:02:31Z",
      "version": 1,
      "changeset": 158000345,
      "user": "Iiqraa487",
      "uid": 22065722,
      "tags": {
        "addr:city": "Karachi",
        "addr:street": "170-176, Sarmad Road, Artillery Maidan,",
        "amenity": "bar",
        "name": "شریف سائیلٹ پوائنٹ"
      }
    },
    {
      "type": "node",
      "id": 12258219391,
      "lat": 24.8582554,
      "lon": 67.0243629,
      "timestamp": "2024-10-17T12:17:03Z",
      "version": 2,
      "changeset": 158005373,
      "user": "Iiqraa487",
      "uid": 22065722,
      "tags": {
        "addr:city": "Karachi",
        "addr:street": "149 Frere Rd, Artillery Maidan,",
        "amenity": "bar",
        "name": "Wine store"
      }
    },
    {
      "type": "node",
      "id": 12273224383,
      "lat": 24.8703928,
      "lon": 67.0362989,
      "timestamp": "2024-10-21T11:24:05Z",
      "version": 2,
      "changeset": 158165336,
      "user": "Iiqraa487",
      "uid": 22065722,
      "tags": {
        "addr:city": "Karachi",
        "addr:street": "V2CP+4H9, Nizami Rd, Central Jacob Lines",
        "amenity": "bar",
        "name": "Babaji Fruit Chat"
      }
    },
    {
      "type": "node",
      "id": 12288129417,
      "lat": 25.0323191,
      "lon": 67.3046069,
      "timestamp": "2024-10-25T13:36:47Z",
      "version": 2,
      "changeset": 158338182,
      "user": "Iiqraa487",
      "uid": 22065722,
      "tags": {
        "addr:city": "karachi",
        "addr:street": "28J3+PV4, Bahria Town",
        "amenity": "bar",
        "name": "Dhaba hotel"
      }
    },
    {
      "type": "node",
      "id": 12293771268,
      "lat": 24.8287625,
      "lon": 67.0324119,
      "timestamp": "2024-10-28T12:11:25Z",
      "version": 1,
      "changeset": 158452989,
      "user": "Iiqraa487",
      "uid": 22065722,
      "tags": {
        "addr:city": "Karachi",
        "addr:street": "R2HJ+FFV, Street Number 3, Chandio Zone C Block 7 Delhi Colony,",
        "amenity": "bar",
        "name": "Kachori Point"
      }
    },
    {
      "type": "way",
      "id": 531478525,
      "timestamp": "2021-05-24T11:20:17Z",
      "version": 2,
      "changeset": 105221174,
      "user": "WebiShabeelle",
      "uid": 11387827,
      "center": {
        "lat": 24.8399565,
        "lon": 66.9791076
      },
      "nodes": [
        5159196864,
        5159196865,
        5159196866,
        5159196867,
        5159196868,
        5159196869,
        5159196870,
        5159196871,
        5159196872,
        5159196873,
        5159196874,
        5159196875,
        5159196876,
        5159196877,
        5159196878,
        5159196879,
        5159196880,
        5159196881,
        5159196882,
        5159196883,
        5159196884,
        5159196885,
        5159196886,
        5159196887,
        5159196864
      ],
      "tags": {
        "addr:city": "Kemari Town",
        "addr:street": "Kemari",
        "amenity": "pub",
        "name": "The Ship"
      }
    },
    {
      "type": "way",
      "id": 737812046,
      "timestamp": "2019-10-23T08:40:03Z",
      "version": 1,
      "changeset": 76089204,
      "user": "RLakhani",
      "uid": 5172728,
      "center": {
        "lat": 24.8542675,
        "lon": 66.9943242
      },
      "nodes": [
        6908242587,
        6908242586,
        6908242585,
        6908222280,
        6908242587
      ],
      "tags": {
        "amenity": "bar",
        "building": "yes"
      }
    },
    {
      "type": "way",
      "id": 1120555181,
      "timestamp": "2022-12-09T12:31:38Z",
      "version": 1,
      "changeset": 129899327,
      "user": "sjarvis_15",
      "uid": 12517370,
      "center": {
        "lat": 24.567059,
        "lon": 68.0658739
      },
      "nodes": [
        10248790308,
        10248811209,
        10248811210,
        10248811211,
        10248790308
      ],
      "tags": {
        "amenity": "bar",
        "building": "yes"
      }
    },
    {
      "type": "way",
      "id": 1245366345,
      "timestamp": "2024-02-01T19:37:46Z",
      "version": 1,
      "changeset": 146959640,
      "user": "Doc Géofan",
      "uid": 12793685,
      "center": {
        "lat": 22.1283137,
        "lon": 69.2911824
      },
      "nodes": [
        11577486674,
        11577486675,
        11577486676,
        11577486673,
        11577486674
      ],
      "tags": {
        "amenity": "pub",
        "building": "yes",
        "microbrewery": "yes"
      }
    },
    {
      "type": "way",
      "id": 1245533913,
      "timestamp": "2024-02-02T13:21:20Z",
      "version": 1,
      "changeset": 146985159,
      "user": "Doc Géofan",
      "uid": 12793685,
      "center": {
        "lat": 22.1298598,
        "lon": 69.2891488
      },
      "nodes": [
        11578910754,
        11578910755,
        11578910756,
        11578910757,
        11577556833,
        11578910754
      ],
      "tags": {
        "amenity": "bar",
        "building": "yes"
      }
    },
    {
      "type": "way",
      "id": 1245533915,
      "timestamp": "2024-02-02T13:21:20Z",
      "version": 1,
      "changeset": 146985159,
      "user": "Doc Géofan",
      "uid": 12793685,
      "center": {
        "lat": 22.128903,
        "lon": 69.2906585
      },
      "nodes": [
        11578910762,
        11578910763,
        11578910764,
        11577525851,
        11578910762
      ],
      "tags": {
        "amenity": "bar",
        "building": "yes"
      }
    },
    {
      "type": "way",
      "id": 1434048820,
      "timestamp": "2025-09-29T14:32:21Z",
      "version": 1,
      "changeset": 172616382,
      "user": "Doc Géofan",
      "uid": 12793685,
      "center": {
        "lat": 22.2388589,
        "lon": 68.9659108
      },
      "nodes": [
        13180554076,
        13180554077,
        13180554078,
        13180554079,
        13180554076
      ],
      "tags": {
        "amenity": "bar",
        "brewery": "no",
        "building": "yes"
      }
    }
  ]
}