{
  "version": 0.6,
  "generator": "Overpass API 0.7.62.8 e802775f",
  "osm3s": {
    "timestamp_osm_base": "2025-10-23T20:12:45Z",
    "copyright": "The data included in this document is from www.openstreetmap.org. The data is made available under ODbL."
  },
  "elements": [
    {
      "type": "node",
      "id": 1365685520,
      "lat": 36.8653234,
      "lon": 42.9944687,
      "timestamp": "2022-12-12T21:20:00Z",
      "version": 2,
      "changeset": 130013231,
      "user": "Ú•Ø§Ø³ØªÛŒ",
      "uid": 4800812,
      "tags": {
        "addr:city": "Ø¯Ù‡Û†Ú©",
        "amenity": "pub"
      }
    },
    {
      "type": "node",
      "id": 1505088770,
      "lat": 36.2291613,
      "lon": 43.9904735,
      "timestamp": "2024-01-08T10:57:58Z",
      "version": 5,
      "changeset": 146024047,
      "user": "Mahmood_abdul",
      "uid": 12978592,
      "tags": {
        "addr:city": "Ø£Ø±Ø¨ÙŠÙ„",
        "addr:country": "IQ",
        "addr:district": "Ù‚Ø¶Ø§Ø¡ Ø£Ø±Ø¨ÙŠÙ„",
        "addr:postcode": "44003",
        "addr:state": "Ù…Ø­Ø§ÙØ¸Ø© Ø£Ø±Ø¨ÙŠÙ„",
        "addr:subdistrict": "Ù†Ø§Ø­ÙŠØ© Ø¹Ù†ÙƒØ§ÙˆØ§",
        "addr:town": "Ø¹Ù†ÙƒØ§ÙˆØ§",
        "amenity": "pub"
      }
    },
    {
      "type": "node",
      "id": 1713225214,
      "lat": 37.0489288,
      "lon": 41.2260609,
      "timestamp": "2012-04-12T19:33:42Z",
      "version": 1,
      "changeset": 11280043,
      "user": "warsheen",
      "uid": 454614,
      "tags": {
        "amenity": "bar"
      }
    },
    {
      "type": "node",
      "id": 1713226109,
      "lat": 37.0489007,
      "lon": 41.2259707,
      "timestamp": "2012-04-12T19:34:00Z",
      "version": 1,
      "changeset": 11280043,
      "user": "warsheen",
      "uid": 454614,
      "tags": {
        "amenity": "bar"
      }
    },
    {
      "type": "node",
      "id": 1713226175,
      "lat": 37.0487466,
      "lon": 41.2261156,
      "timestamp": "2012-04-12T19:34:01Z",
      "version": 1,
      "changeset": 11280043,
      "user": "warsheen",
      "uid": 454614,
      "tags": {
        "amenity": "bar"
      }
    },
    {
      "type": "node",
      "id": 3407876498,
      "lat": 36.2355588,
      "lon": 43.9966779,
      "timestamp": "2024-01-08T10:57:58Z",
      "version": 5,
      "changeset": 146024047,
      "user": "Mahmood_abdul",
      "uid": 12978592,
      "tags": {
        "addr:city": "Ø£Ø±Ø¨ÙŠÙ„",
        "addr:country": "IQ",
        "addr:district": "Ù‚Ø¶Ø§Ø¡ Ø£Ø±Ø¨ÙŠÙ„",
        "addr:postcode": "44003",
        "addr:state": "Ù…Ø­Ø§ÙØ¸Ø© Ø£Ø±Ø¨ÙŠÙ„",
        "addr:subdistrict": "Ù†Ø§Ø­ÙŠØ© Ø¹Ù†ÙƒØ§ÙˆØ§",
        "addr:town": "Ø¹Ù†ÙƒØ§ÙˆØ§",
        "amenity": "pub"
      }
    },
    {
      "type": "node",
      "id": 3502591341,
      "lat": 36.1959243,
      "lon": 43.9674521,
      "timestamp": "2021-09-02T00:07:11Z",
      "version": 2,
      "changeset": 110588310,
      "user": "Alii-eismail",
      "uid": 14037987,
      "tags": {
        "amenity": "bar",
        "name": "Ø³ØªØ§Ø±ÙƒÙˆ",
        "name:ar": "Ø³ØªØ§Ø±ÙƒÙˆ"
      }
    },
    {
      "type": "node",
      "id": 3710216324,
      "lat": 38.7799903,
      "lon": 48.4140057,
      "timestamp": "2015-08-23T08:18:14Z",
      "version": 1,
      "changeset": 33519475,
      "user": "filu",
      "uid": 675543,
      "tags": {
        "amenity": "bar"
      }
    },
    {
      "type": "node",
      "id": 3875112607,
      "lat": 34.3205222,
      "lon": 43.2672521,
      "timestamp": "2015-12-03T20:18:28Z",
      "version": 1,
      "changeset": 35734760,
      "user": "Scuba Tuba Dude",
      "uid": 2915632,
      "tags": {
        "amenity": "bar",
        "name": "jajkasdjklasd"
      }
    },
    {
      "type": "node",
      "id": 4113616792,
      "lat": 31.5337269,
      "lon": 45.1619373,
      "timestamp": "2016-04-11T08:42:26Z",
      "version": 1,
      "changeset": 38469493,
      "user": "Karar Adel",
      "uid": 3809578,
      "tags": {
        "amenity": "bar"
      }
    },
    {
      "type": "node",
      "id": 4163661409,
      "lat": 33.3790447,
      "lon": 44.7053325,
      "timestamp": "2016-05-03T17:42:50Z",
      "version": 1,
      "changeset": 39072369,
      "user": "Lafta Dakhil Hasan",
      "uid": 3784800,
      "tags": {
        "amenity": "bar",
        "name": "Ø­Ù„Ø§Ù‚Ø© Ø­Ø³ÙŠÙ†"
      }
    },
    {
      "type": "node",
      "id": 4194681453,
      "lat": 39.2069045,
      "lon": 46.404958,
      "timestamp": "2023-09-16T19:57:53Z",
      "version": 6,
      "changeset": 141357220,
      "user": "SMkrtich",
      "uid": 10984999,
      "tags": {
        "addr:city": "Ô¿Õ¡ÕºÕ¡Õ¶",
        "addr:country": "AM",
        "addr:housenumber": "4",
        "addr:postcode": "3301",
        "addr:street": "Õ‰Õ¡Ö€Õ¥Õ¶ÖÕ« ÖƒÕ¸Õ²Õ¸Ö",
        "amenity": "pub",
        "description": "Marley's Pub, Cafe, PlayHouse A place to relax and have fun with friends",
        "name": "Marley's Pub",
        "opening_hours": "Mo-Su 12:00-24:00",
        "smoking": "yes",
        "website": "https://www.facebook.com/Marleys.Pub.Cafe"
      }
    },
    {
      "type": "node",
      "id": 4209265994,
      "lat": 39.2071204,
      "lon": 46.403807,
      "timestamp": "2018-05-27T10:41:45Z",
      "version": 2,
      "changeset": 59310747,
      "user": "aslanosm",
      "uid": 2985213,
      "tags": {
        "amenity": "bar",
        "name": "Edem"
      }
    },
    {
      "type": "node",
      "id": 4209265995,
      "lat": 39.2073856,
      "lon": 46.4034987,
      "timestamp": "2018-05-27T10:41:45Z",
      "version": 2,
      "changeset": 59310747,
      "user": "aslanosm",
      "uid": 2985213,
      "tags": {
        "amenity": "bar"
      }
    },
    {
      "type": "node",
      "id": 4270910293,
      "lat": 33.3893379,
      "lon": 44.4056206,
      "timestamp": "2018-02-28T16:00:12Z",
      "version": 2,
      "changeset": 56760041,
      "user": "Ø³Ø§Ù…Ø¨Ø§",
      "uid": 4860517,
      "tags": {
        "amenity": "bar",
        "name": "ÙƒØ±Ø§Ø¬ Ø§Ù„Ø¨Ù†ÙˆÙƒ",
        "name:ar": "ÙƒØ±Ø§Ø¬ Ø§Ù„Ø¨Ù†ÙˆÙƒ"
      }
    },
    {
      "type": "node",
      "id": 4317281701,
      "lat": 33.2946802,
      "lon": 44.0463975,
      "timestamp": "2016-07-23T17:33:49Z",
      "version": 1,
      "changeset": 40976165,
      "user": "Duty iraq",
      "uid": 4301622,
      "tags": {
        "amenity": "bar"
      }
    },
    {
      "type": "node",
      "id": 4317281702,
      "lat": 33.2945953,
      "lon": 44.0476028,
      "timestamp": "2016-07-23T17:33:50Z",
      "version": 1,
      "changeset": 40976165,
      "user": "Duty iraq",
      "uid": 4301622,
      "tags": {
        "amenity": "bar"
      }
    },
    {
      "type": "node",
      "id": 4329614396,
      "lat": 36.2279461,
      "lon": 43.9907169,
      "timestamp": "2024-01-08T10:57:58Z",
      "version": 8,
      "changeset": 146024047,
      "user": "Mahmood_abdul",
      "uid": 12978592,
      "tags": {
        "addr:city": "Ø£Ø±Ø¨ÙŠÙ„",
        "addr:country": "IQ",
        "addr:district": "Ù‚Ø¶Ø§Ø¡ Ø£Ø±Ø¨ÙŠÙ„",
        "addr:postcode": "44003",
        "addr:state": "Ù…Ø­Ø§ÙØ¸Ø© Ø£Ø±Ø¨ÙŠÙ„",
        "addr:subdistrict": "Ù†Ø§Ø­ÙŠØ© Ø¹Ù†ÙƒØ§ÙˆØ§",
        "addr:town": "Ø¹Ù†ÙƒØ§ÙˆØ§",
        "amenity": "bar",
        "name": "Ù‚Ø§Ø¹ Ø­ÙÙ„Ø©",
        "name:ar": "Ø¬Ù…Ø¹ÙŠØ© Ø§Ù„Ø«Ù‚Ø§ÙØ© Ø§Ù„ÙƒÙ„Ø¯Ø§Ù†ÙŠØ©",
        "name:en": "Chaldean Cultural Society"
      }
    },
    {
      "type": "node",
      "id": 4335191019,
      "lat": 35.1192128,
      "lon": 45.6904414,
      "timestamp": "2016-08-07T22:37:46Z",
      "version": 2,
      "changeset": 41313258,
      "user": "Saiwan",
      "uid": 4364809,
      "tags": {
        "amenity": "bar"
      }
    },
    {
      "type": "node",
      "id": 4336816391,
      "lat": 35.102998,
      "lon": 45.7009283,
      "timestamp": "2024-07-07T12:26:13Z",
      "version": 2,
      "changeset": 153659896,
      "user": "zhiar590",
      "uid": 20942029,
      "tags": {
        "amenity": "bar"
      }
    },
    {
      "type": "node",
      "id": 4336816590,
      "lat": 35.1031682,
      "lon": 45.6882167,
      "timestamp": "2016-08-08T23:45:24Z",
      "version": 2,
      "changeset": 41335251,
      "user": "Saiwan",
      "uid": 4364809,
      "tags": {
        "amenity": "pub"
      }
    },
    {
      "type": "node",
      "id": 4357116593,
      "lat": 36.2122357,
      "lon": 43.9960743,
      "timestamp": "2024-01-08T11:59:38Z",
      "version": 5,
      "changeset": 146026109,
      "user": "Mahmood_abdul",
      "uid": 12978592,
      "tags": {
        "addr:city": "Ø£Ø±Ø¨ÙŠÙ„",
        "addr:country": "IQ",
        "addr:district": "Ù‚Ø¶Ø§Ø¡ Ø£Ø±Ø¨ÙŠÙ„",
        "addr:postcode": "44001",
        "addr:state": "Ù…Ø­Ø§ÙØ¸Ø© Ø£Ø±Ø¨ÙŠÙ„",
        "amenity": "bar",
        "name": "T Bar"
      }
    },
    {
      "type": "node",
      "id": 4360133204,
      "lat": 33.4190721,
      "lon": 44.347253,
      "timestamp": "2016-08-21T14:40:36Z",
      "version": 1,
      "changeset": 41595062,
      "user": "Batigol Al-Èœazzawi",
      "uid": 4453467,
      "tags": {
        "amenity": "bar",
        "name": "Ø§Ù„Ù…Ø®ØªØ¨Ø±",
        "name:ar": "Ø§Ù„Ù…Ø®ØªØ¨Ø±"
      }
    },
    {
      "type": "node",
      "id": 4396104889,
      "lat": 34.3786409,
      "lon": 44.1307165,
      "timestamp": "2016-09-11T12:22:00Z",
      "version": 1,
      "changeset": 42077483,
      "user": "9cp_",
      "uid": 4560905,
      "tags": {
        "amenity": "bar",
        "name": "Ù†ÙŠØ¬ ÙˆÙƒØªÙ„",
        "name:ar": "Ù†ÙŠØ¬ ÙˆÙƒØªÙ„"
      }
    },
    {
      "type": "node",
      "id": 4402542620,
      "lat": 36.244897,
      "lon": 43.9835491,
      "timestamp": "2017-04-17T13:13:42Z",
      "version": 4,
      "changeset": 47870708,
      "user": "Ikkehans",
      "uid": 4276384,
      "tags": {
        "amenity": "bar",
        "name": "Ù‚Ø§Ø¹Ø© Ø­ÙÙ„Ø©",
        "name:ar": "Ù‚Ø§Ø¹Ø© Ø­ÙÙ„Ø©",
        "name:en": "Wedding and concert hall"
      }
    },
    {
      "type": "node",
      "id": 4411401284,
      "lat": 39.7613955,
      "lon": 45.3286039,
      "timestamp": "2016-09-21T11:09:43Z",
      "version": 1,
      "changeset": 42321021,
      "user": "A_Ku",
      "uid": 3423733,
      "tags": {
        "amenity": "bar",
        "internet_access:type": "WiFi",
        "name": "Cafe Rai"
      }
    },
    {
      "type": "node",
      "id": 4415225289,
      "lat": 39.6914798,
      "lon": 45.4675366,
      "timestamp": "2023-06-15T14:52:27Z",
      "version": 2,
      "changeset": 137375261,
      "user": "esaulenka",
      "uid": 336354,
      "tags": {
        "amenity": "pub",
        "name": "mah tex",
        "name:hy": "mah tex"
      }
    },
    {
      "type": "node",
      "id": 4442568191,
      "lat": 35.579152,
      "lon": 45.4219333,
      "timestamp": "2016-10-11T18:29:27Z",
      "version": 1,
      "changeset": 42810025,
      "user": "Ù…ØµØ·ÙÙ‰ Ø§Ù„Ø±ÙŠØ³",
      "uid": 4647298,
      "tags": {
        "amenity": "pub"
      }
    },
    {
      "type": "node",
      "id": 4466491592,
      "lat": 37.0322568,
      "lon": 43.7698976,
      "timestamp": "2021-09-29T10:51:12Z",
      "version": 2,
      "changeset": 111859910,
      "user": "rudiruth",
      "uid": 1912793,
      "tags": {
        "amenity": "bar"
      }
    },
    {
      "type": "node",
      "id": 4470129600,
      "lat": 32.3483058,
      "lon": 44.8298044,
      "timestamp": "2017-12-31T02:12:10Z",
      "version": 2,
      "changeset": 55049114,
      "user": "Salam Alzerjawy",
      "uid": 7402336,
      "tags": {
        "amenity": "bar",
        "name": "Ø¬Ø³Ø± Ø§Ù„Ø³Ø±ÙŠØ¹ 0",
        "name:ar": "Ø¬Ø³Ø± Ø§Ù„Ø´ÙˆÙ…Ù„ÙŠ Ø§Ù„Ø³Ø±ÙŠØ¹"
      }
    },
    {
      "type": "node",
      "id": 4502815990,
      "lat": 32.585885,
      "lon": 44.034656,
      "timestamp": "2024-08-22T14:58:07Z",
      "version": 2,
      "changeset": 155610745,
      "user": "abdullah-abbas2070",
      "uid": 21872818,
      "tags": {
        "amenity": "pub",
        "name": "Ù…Ø±ÙƒØ² Ø§Ù„ØµØ¯ÙŠÙ‚Ø© Ø§Ù„Ø·Ø§Ù‡Ø±Ø© Ù„Ù„Ù†Ø´Ø§Ø·Ø§Øª Ø§Ù„Ù†Ø³ÙˆÙŠØ©",
        "name:ar": "Ù…Ø±ÙƒØ² Ø§Ù„ØµØ¯ÙŠÙ‚Ø© Ø§Ù„Ø·Ø§Ù‡Ø±Ø© Ù„Ù„Ù†Ø´Ø§Ø·Ø§Øª Ø§Ù„Ù†Ø³ÙˆÙŠØ©",
        "name:en": "Feminist Cultural Center"
      }
    },
    {
      "type": "node",
      "id": 4512688494,
      "lat": 36.2220699,
      "lon": 43.990965,
      "timestamp": "2024-01-08T10:57:58Z",
      "version": 5,
      "changeset": 146024047,
      "user": "Mahmood_abdul",
      "uid": 12978592,
      "tags": {
        "addr:city": "Ø£Ø±Ø¨ÙŠÙ„",
        "addr:country": "IQ",
        "addr:district": "Ù‚Ø¶Ø§Ø¡ Ø£Ø±Ø¨ÙŠÙ„",
        "addr:postcode": "44003",
        "addr:state": "Ù…Ø­Ø§ÙØ¸Ø© Ø£Ø±Ø¨ÙŠÙ„",
        "addr:street": "Ø´Û•Ù‚Ø§Ù…ÛŒ Ø¯Ú¾Û†Ú©",
        "addr:subdistrict": "Ù†Ø§Ø­ÙŠØ© Ø¹Ù†ÙƒØ§ÙˆØ§",
        "addr:town": "Ø¹Ù†ÙƒØ§ÙˆØ§",
        "amenity": "bar",
        "name": "ÛŒØ§Ù†Û•ÛŒ Ø¨ÛÙ„Ø§ Ú•Ø§Ù†ÛŒØ³ÛŒØ§",
        "name:en": "Bella Ranicia Club"
      }
    },
    {
      "type": "node",
      "id": 4534003095,
      "lat": 32.4851792,
      "lon": 44.425952,
      "timestamp": "2025-10-02T16:52:18Z",
      "version": 3,
      "changeset": 172758170,
      "user": "TAVEN_IQ",
      "uid": 23127305,
      "tags": {
        "addr:street": "Ø´Ø§Ø±Ø¹ 40",
        "amenity": "bar",
        "name": "Ù…Ø­Ù„ Ù„Ù…Ø³Ø§Øª",
        "name:ar": "Ù…Ø­Ù„ Ù„Ù…Ø³Ø§Øª"
      }
    },
    {
      "type": "node",
      "id": 4534989692,
      "lat": 36.1626728,
      "lon": 43.9652891,
      "timestamp": "2016-12-02T23:06:15Z",
      "version": 1,
      "changeset": 44126731,
      "user": "ploosik",
      "uid": 4915221,
      "tags": {
        "amenity": "pub",
        "email": "ploosik.company@gmail.com",
        "name": "Ú©Û†Ù…Ù¾Ø§Ù†ÛŒØ§ÛŒ Ù¾Ù„ÙˆØ³Ùƒ Ø¨Û† Ø¨Û•ÚµÛÙ†Ø¯Û•Ø±Ø§ÛŒÛ•ØªÛŒ",
        "name:ar": "Ø´Ø±ÙƒØ© Ø¨Ù„ÙˆØ³Ùƒ Ù„Ù„Ù…Ù‚Ø§ÙˆÙ„Ø§Øª",
        "name:en": "Ploosik Company for general contracting",
        "name:ku": "Ú©Û†Ù…Ù¾Ø§Ù†ÛŒØ§ÛŒ Ù¾Ù„ÙˆØ³Ùƒ Ø¨Û† Ø¨Û•ÚµÛÙ†Ø¯Û•Ø±Ø§ÛŒÛ•ØªÛŒ",
        "operator": "Dilshad & Mizafar",
        "phone": "+9647504459229"
      }
    },
    {
      "type": "node",
      "id": 4569110689,
      "lat": 36.8662834,
      "lon": 42.9867799,
      "timestamp": "2020-11-08T10:28:23Z",
      "version": 2,
      "changeset": 93733713,
      "user": "Hercules8484",
      "uid": 12137228,
      "tags": {
        "amenity": "pub",
        "name": "Yar Bar",
        "name:ar": "Yar Bar"
      }
    },
    {
      "type": "node",
      "id": 4571603291,
      "lat": 33.4598503,
      "lon": 44.160871,
      "timestamp": "2024-06-18T04:37:09Z",
      "version": 3,
      "changeset": 152828021,
      "user": "mavl",
      "uid": 564990,
      "tags": {
        "amenity": "bar",
        "name": "Ø±Ø¨ÙŠØªØ± Ø³Ø¨Ø¹ Ø§Ù„Ø¨ÙˆØ±",
        "name:ar": "Ø±Ø¨ÙŠØªØ± Ø³Ø¨Ø¹ Ø§Ù„Ø¨ÙˆØ±"
      }
    },
    {
      "type": "node",
      "id": 4583568992,
      "lat": 35.556221,
      "lon": 45.4332928,
      "timestamp": "2017-01-01T08:44:11Z",
      "version": 1,
      "changeset": 44818715,
      "user": "Yassir Rashow",
      "uid": 4544892,
      "tags": {
        "amenity": "pub"
      }
    },
    {
      "type": "node",
      "id": 4583595593,
      "lat": 31.0060812,
      "lon": 47.453636,
      "timestamp": "2017-01-01T10:22:24Z",
      "version": 1,
      "changeset": 44819803,
      "user": "Ù‚ØµÙŠ Ø§Ù„Ù…Ø§Ù„ÙƒÙŠ",
      "uid": 5025088,
      "tags": {
        "amenity": "pub"
      }
    },
    {
      "type": "node",
      "id": 4592219789,
      "lat": 37.9208735,
      "lon": 40.2189137,
      "timestamp": "2018-11-18T11:46:31Z",
      "version": 2,
      "changeset": 64617973,
      "user": "Ghybu",
      "uid": 560896,
      "tags": {
        "amenity": "pub",
        "internet_access": "wlan",
        "name": "Babel Teras",
        "name:en": "Babel Terrace",
        "name:tr": "Babel Teras",
        "opening_hours": "Mo-Su 15:00-02:00"
      }
    },
    {
      "type": "node",
      "id": 4650835789,
      "lat": 32.3969314,
      "lon": 44.3593948,
      "timestamp": "2017-02-01T06:26:59Z",
      "version": 1,
      "changeset": 45707577,
      "user": "Ehssan Alsfar",
      "uid": 5239106,
      "tags": {
        "amenity": "pub"
      }
    },
    {
      "type": "node",
      "id": 4705432191,
      "lat": 36.2145698,
      "lon": 44.0331614,
      "timestamp": "2023-07-31T18:59:02Z",
      "version": 3,
      "changeset": 139266891,
      "user": "SomeoneElse_Revert",
      "uid": 1778799,
      "tags": {
        "amenity": "pub",
        "name": "ÙƒØ±ÙˆÙ†Ø©"
      }
    },
    {
      "type": "node",
      "id": 4720905490,
      "lat": 35.3506498,
      "lon": 45.8612333,
      "timestamp": "2017-03-06T19:23:08Z",
      "version": 1,
      "changeset": 46632158,
      "user": "Falah Mstafa",
      "uid": 5440351,
      "tags": {
        "amenity": "bar"
      }
    },
    {
      "type": "node",
      "id": 4720916489,
      "lat": 35.3545062,
      "lon": 45.8606276,
      "timestamp": "2017-03-06T19:30:54Z",
      "version": 1,
      "changeset": 46632338,
      "user": "Falah Mstafa",
      "uid": 5440351,
      "tags": {
        "addr:street": "Ø³ÙŠØ¯ØµØ§Ø¯Ù‚",
        "amenity": "bar"
      }
    },
    {
      "type": "node",
      "id": 4741269975,
      "lat": 32.5017968,
      "lon": 44.2061829,
      "timestamp": "2017-03-18T10:43:24Z",
      "version": 1,
      "changeset": 46952518,
      "user": "Ø§Ù„Ø­Ø³Ù† Ù†ØµØ±Ø§Ù„Ù„Ù‡",
      "uid": 4272593,
      "tags": {
        "amenity": "bar"
      }
    },
    {
      "type": "node",
      "id": 4770140021,
      "lat": 33.2928483,
      "lon": 44.4261942,
      "timestamp": "2017-04-01T20:18:58Z",
      "version": 1,
      "changeset": 47366547,
      "user": "mostafa salim",
      "uid": 5598805,
      "tags": {
        "amenity": "bar",
        "name": "Ù†Ø¬Ù… Ø§Ù„Ø²Ø§ÙˆÙŠØ©",
        "name:ar": "Ù†Ø¬Ù… Ø§Ù„Ø²Ø§ÙˆÙŠØ©",
        "name:en": "Najm Al-Zawiya"
      }
    },
    {
      "type": "node",
      "id": 4780210921,
      "lat": 30.5930863,
      "lon": 49.5662292,
      "timestamp": "2017-04-07T02:30:49Z",
      "version": 1,
      "changeset": 47525434,
      "user": "Haidariali",
      "uid": 5611515,
      "tags": {
        "amenity": "bar"
      }
    },
    {
      "type": "node",
      "id": 4784308021,
      "lat": 33.2753024,
      "lon": 44.3379583,
      "timestamp": "2017-04-09T11:15:01Z",
      "version": 1,
      "changeset": 47590484,
      "user": "Ihsan Turfi",
      "uid": 5480457,
      "tags": {
        "amenity": "bar",
        "name": "Ø¨Ù†Ø§ÙŠØ© ÙÙŠ Ø­ÙŠ Ø§Ù„Ø¹Ø§Ù…Ù„ Ù„Ù„Ø¨ÙŠØ¹",
        "name:ar": "Ø¨Ù†Ø§ÙŠØ© ÙÙŠ Ø­ÙŠ Ø§Ù„Ø¹Ø§Ù…Ù„ Ù„Ù„Ø¨ÙŠØ¹"
      }
    },
    {
      "type": "node",
      "id": 4788596322,
      "lat": 36.245345,
      "lon": 43.9830661,
      "timestamp": "2017-04-11T16:23:05Z",
      "version": 1,
      "changeset": 47662671,
      "user": "Arteen Jam",
      "uid": 5169692,
      "tags": {
        "amenity": "bar",
        "internet_access": "wlan",
        "name": "Floria bar and rest",
        "name:ar": "ÙÙ„ÙˆØ±ÛŒØ§ Ù…Ø·Ø¹Ù… Ùˆ Ø¨Ø§Ø±",
        "name:en": "Floria bar and restaurant",
        "name:ku": "Floria bar and rest"
      }
    },
    {
      "type": "node",
      "id": 4819894421,
      "lat": 37.836535,
      "lon": 43.0274542,
      "timestamp": "2017-04-27T09:43:04Z",
      "version": 1,
      "changeset": 48188745,
      "user": "ZoltÃ¡n1008",
      "uid": 5495595,
      "tags": {
        "amenity": "bar"
      }
    },
    {
      "type": "node",
      "id": 4832553223,
      "lat": 36.8577618,
      "lon": 42.976865,
      "timestamp": "2023-04-07T20:23:09Z",
      "version": 2,
      "changeset": 134631639,
      "user": "Ú•Ø§Ø³ØªÛŒ",
      "uid": 4800812,
      "tags": {
        "addr:city": "Ø¯Ù‡Û†Ú©",
        "amenity": "bar",
        "name:en": "Ivanova bar"
      }
    },
    {
      "type": "node",
      "id": 4835436221,
      "lat": 33.5893981,
      "lon": 44.580222,
      "timestamp": "2017-05-04T20:17:45Z",
      "version": 1,
      "changeset": 48405246,
      "user": "Ø¹Ø¯Ù†Ø§Ù† Ø§Ù„Ø²ÙƒÙŠ",
      "uid": 5760300,
      "tags": {
        "amenity": "bar",
        "name": "Ø¬Ø§Ù…Ø¹ Ø§Ù„ÙˆÙ‡Ø§Ø¨ÙŠØ© Ø³Ø§Ø¨Ù‚Ø£",
        "name:ar": "Ø¬Ø§Ù…Ø¹ Ø§Ù„ÙˆÙ‡Ø§Ø¨ÙŠØ© Ø³Ø§Ø¨Ù‚Ø£"
      }
    },
    {
      "type": "node",
      "id": 4854430126,
      "lat": 37.0463699,
      "lon": 41.2271111,
      "timestamp": "2017-05-14T22:39:23Z",
      "version": 1,
      "changeset": 48685653,
      "user": "Ø¬ÙˆØ§Ù† Ø³Ù„ÙŠÙ…Ø§Ù† Ø§ÙˆØ³Ùˆ",
      "uid": 5914231,
      "tags": {
        "amenity": "bar",
        "cuisine": "buschenschank;friture;deli;heuriger;hotdog;pasta;coffee_shop;ice_cream;diner",
        "internet_access": "wlan",
        "name": "domino",
        "name:ar": "domino",
        "name:en": "domino",
        "opening_hours": "Mo-Su 09:00-18:00"
      }
    },
    {
      "type": "node",
      "id": 4854430222,
      "lat": 37.0463286,
      "lon": 41.2270407,
      "timestamp": "2017-05-14T22:39:22Z",
      "version": 1,
      "changeset": 48685653,
      "user": "Ø¬ÙˆØ§Ù† Ø³Ù„ÙŠÙ…Ø§Ù† Ø§ÙˆØ³Ùˆ",
      "uid": 5914231,
      "tags": {
        "addr:street": "Ø´Ø§Ø±Ø¹ Ø§Ù„Ù‚ÙˆØªÙ„ÙŠ",
        "amenity": "pub",
        "cuisine": "heuriger;buschenschank;coffee_shop;friture;ice_cream",
        "name": "ibar",
        "name:ar": "ibar",
        "name:en": "ibar",
        "opening_hours": "24/7"
      }
    },
    {
      "type": "node",
      "id": 4854430421,
      "lat": 37.0498982,
      "lon": 41.2258968,
      "timestamp": "2017-05-14T22:39:24Z",
      "version": 1,
      "changeset": 48685653,
      "user": "Ø¬ÙˆØ§Ù† Ø³Ù„ÙŠÙ…Ø§Ù† Ø§ÙˆØ³Ùˆ",
      "uid": 5914231,
      "tags": {
        "amenity": "bar",
        "name": "viola",
        "name:ar": "viola"
      }
    },
    {
      "type": "node",
      "id": 4869159221,
      "lat": 31.4126713,
      "lon": 46.1695957,
      "timestamp": "2018-02-12T15:24:47Z",
      "version": 2,
      "changeset": 56297669,
      "user": "Ph Alaa",
      "uid": 5893526,
      "tags": {
        "amenity": "bar",
        "name": "Ø§Ù„Ø³ÙŠÙ†Ù…Ø§",
        "name:ar": "Ø§Ù„Ø³ÙŠÙ†Ù…Ø§",
        "name:en": "cinema"
      }
    },
    {
      "type": "node",
      "id": 4872760826,
      "lat": 36.3378911,
      "lon": 43.1190455,
      "timestamp": "2017-05-23T19:48:01Z",
      "version": 1,
      "changeset": 48926710,
      "user": "Abdaljabbar Jabbar",
      "uid": 6061067,
      "tags": {
        "amenity": "bar",
        "name": "Ù…Ø­Ù„Ø§Øª Ø¨ÙŠØ¹ Ø§Ù„Ù„Ø­ÙˆÙ…"
      }
    },
    {
      "type": "node",
      "id": 4896495921,
      "lat": 36.1808823,
      "lon": 43.8825622,
      "timestamp": "2017-06-05T05:52:14Z",
      "version": 1,
      "changeset": 49258031,
      "user": "Araz Kurdish",
      "uid": 4772423,
      "tags": {
        "amenity": "bar",
        "name": "Ù…Ø®Ø§Ø²Ù† Ø²Ù‡ÙŠØ±",
        "name:ar": "Ù…Ø®Ø§Ø²Ù† Ø²Ù‡ÙŠØ±"
      }
    },
    {
      "type": "node",
      "id": 4897033021,
      "lat": 35.1918725,
      "lon": 45.9761207,
      "timestamp": "2017-06-05T10:02:22Z",
      "version": 1,
      "changeset": 49264760,
      "user": "Jaafer Hayder",
      "uid": 6125240,
      "tags": {
        "amenity": "pub",
        "name": "Ø­Ù„Ø¨Ø¬Ø© Ø¨Ø§Ø±",
        "name:ar": "Ø­Ù„Ø¨Ø¬Ø© Ø¨Ø§Ø±"
      }
    },
    {
      "type": "node",
      "id": 4904688821,
      "lat": 36.6748624,
      "lon": 44.5605148,
      "timestamp": "2019-10-18T20:34:14Z",
      "version": 2,
      "changeset": 75913076,
      "user": "SadqSofi",
      "uid": 10392882,
      "tags": {
        "amenity": "pub",
        "name": "awi saruchawa",
        "name:ar": "Ø¦Ø§ÙˆÛŒ Ø³Ø©Ø±ÙˆÚ†Ø§ÙˆÛ•",
        "name:en": "Awi Saruchawa",
        "name:ku": "awi saruchawa"
      }
    },
    {
      "type": "node",
      "id": 4942385328,
      "lat": 34.1850974,
      "lon": 45.1191845,
      "timestamp": "2017-06-29T14:52:41Z",
      "version": 1,
      "changeset": 49921313,
      "user": "Ù…ØµØ·ÙÙ‰ Ø§Ù„Ù‚Ø²Ù„Ø±Ø¨Ø§ØªÙŠ",
      "uid": 6240011,
      "tags": {
        "amenity": "bar",
        "name": "Ø³Ø©Ø±Ø¯Ù…Ù‰ Ø­Ù‡ Ø³ÙˆÙ†",
        "name:ar": "Ù…Ø±Ø·Ø¨Ø§Øª Ø­Ø³ÙˆÙ†Ø©",
        "name:en": "ice karem Jason",
        "name:ku": "Ø³Ø©Ø±Ø¯Ù…Ù‰ Ø­Ù‡ Ø³ÙˆÙ†"
      }
    },
    {
      "type": "node",
      "id": 4952478235,
      "lat": 34.6055736,
      "lon": 45.3103853,
      "timestamp": "2019-07-16T16:16:36Z",
      "version": 2,
      "changeset": 72313353,
      "user": "Renas Azad",
      "uid": 5663583,
      "tags": {
        "amenity": "bar",
        "name": "Ù…Û•ÛŒØ®Ø§Ù†Û•",
        "name:ku": "Ù…Û•ÛŒØ®Ø§Ù†Û•"
      }
    },
    {
      "type": "node",
      "id": 4952880921,
      "lat": 38.9061963,
      "lon": 43.0170856,
      "timestamp": "2017-07-05T15:51:31Z",
      "version": 1,
      "changeset": 50062460,
      "user": "Celine Escalaire",
      "uid": 6130029,
      "tags": {
        "amenity": "bar"
      }
    },
    {
      "type": "node",
      "id": 4962864921,
      "lat": 36.7312051,
      "lon": 47.6979089,
      "timestamp": "2017-07-13T19:06:03Z",
      "version": 2,
      "changeset": 50265790,
      "user": "Khalil Laleh",
      "uid": 4449060,
      "tags": {
        "amenity": "bar",
        "name": "Ø¹Ù„ÛŒ ØµÛŒØ§Ø¯ÛŒ"
      }
    },
    {
      "type": "node",
      "id": 5032646636,
      "lat": 36.3894698,
      "lon": 44.3475897,
      "timestamp": "2022-05-20T21:01:10Z",
      "version": 5,
      "changeset": 121260282,
      "user": "SomeoneElse_Revert",
      "uid": 1778799,
      "tags": {
        "amenity": "biergarten"
      }
    },
    {
      "type": "node",
      "id": 5032664224,
      "lat": 36.4135091,
      "lon": 44.3216423,
      "timestamp": "2020-09-14T21:51:01Z",
      "version": 5,
      "changeset": 90887195,
      "user": "Mahmoodzada96",
      "uid": 6215063,
      "tags": {
        "amenity": "pub",
        "name": "Ù†Ø§Ø¯ÙŠ Ø§Ù„Ù…ÙˆØ¸ÙÙŠÙ†",
        "name:en": "nady farmanbaran",
        "name:ku": "ÛŒØ§Ù†Û•ÛŒ ÙÛ•Ø±Ù…Ø§Ù†Ø¨Û•Ø±Ø§Ù†"
      }
    },
    {
      "type": "node",
      "id": 5041197925,
      "lat": 33.2910412,
      "lon": 44.4124202,
      "timestamp": "2017-08-17T14:04:31Z",
      "version": 1,
      "changeset": 51206679,
      "user": "akrm alkabi",
      "uid": 5265280,
      "tags": {
        "amenity": "pub"
      }
    },
    {
      "type": "node",
      "id": 5072621222,
      "lat": 35.5031369,
      "lon": 44.2921208,
      "timestamp": "2017-09-01T03:55:12Z",
      "version": 1,
      "changeset": 51632194,
      "user": "Yakop Galib",
      "uid": 6520402,
      "tags": {
        "addr:housenumber": "78",
        "addr:postcode": "138",
        "addr:street": "45",
        "amenity": "bar",
        "email": "jesiqa55trumiy@gmail.com",
        "internet_access": "wlan",
        "name": "Ø¨Ø§Ø±",
        "name:ar": "Ø¨Ø§Ø±",
        "name:en": "Bar",
        "name:ku": "Ø¨Ø§Ø±"
      }
    },
    {
      "type": "node",
      "id": 5094397922,
      "lat": 33.2402731,
      "lon": 44.3944724,
      "timestamp": "2020-09-18T07:59:56Z",
      "version": 2,
      "changeset": 91095089,
      "user": "Ø¬ÛÙˆÙƒÙ°ÛÙ°Ø± 'Û¦ØŒ Û¦ØŒ",
      "uid": 10949212,
      "tags": {
        "amenity": "bar",
        "internet_access": "wlan",
        "name": "Ø§Ø¨Ùˆ Ø§Ø­Ù…Ø¯ Ù„Ù„ØªÙ…ØªØ¹ ğŸ”",
        "name:ar": "Ø§Ø¨Ùˆ Ø§Ø­Ù…Ø¯ Ù„Ù„ØªÙ…ØªØ¹ ğŸ”",
        "opening_hours": "24/7"
      }
    },
    {
      "type": "node",
      "id": 5173454757,
      "lat": 37.1402612,
      "lon": 42.6557665,
      "timestamp": "2017-12-11T01:27:48Z",
      "version": 2,
      "changeset": 54526243,
      "user": "Ø³Ø§Ù…Ø¨Ø§",
      "uid": 4860517,
      "tags": {
        "addr:city": "Ø²Ø§Ø®Ùˆ",
        "addr:housenumber": "12",
        "addr:postcode": "255",
        "addr:street": "Ø·Ø±ÙŠÙ‚ Ø¥Ø¨Ø±Ø§Ù‡ÙŠÙ… Ø§Ù„Ø®Ù„ÙŠÙ„",
        "amenity": "bar",
        "internet_access": "wlan",
        "name": "Ø¨Ø§",
        "name:ar": "Ø¨Ø§",
        "name:en": "Ba",
        "name:ku": "Ba"
      }
    },
    {
      "type": "node",
      "id": 5181475321,
      "lat": 31.0719856,
      "lon": 46.2539371,
      "timestamp": "2017-10-22T10:44:39Z",
      "version": 1,
      "changeset": 53148369,
      "user": "Aqeel Alazraqi",
      "uid": 4821664,
      "tags": {
        "amenity": "bar",
        "name": "Ø­ÙŠ Ø§Ù„Ù…Ø¹Ù„Ù…ÙŠÙ†",
        "name:ar": "Ø­ÙŠ Ø§Ù„Ù…Ø¹Ù„Ù…ÙŠÙ†"
      }
    },
    {
      "type": "node",
      "id": 5219362221,
      "lat": 33.7785669,
      "lon": 44.5963613,
      "timestamp": "2017-11-09T08:38:56Z",
      "version": 1,
      "changeset": 53632333,
      "user": "AhMeD TuRKi",
      "uid": 6814820,
      "tags": {
        "amenity": "pub",
        "name": "Ø¹Ø±Ú¯ Ø¬Ù„Ù†Ø§Ø±"
      }
    },
    {
      "type": "node",
      "id": 5229811021,
      "lat": 36.6152918,
      "lon": 44.5219916,
      "timestamp": "2017-11-15T07:51:08Z",
      "version": 1,
      "changeset": 53793808,
      "user": "Rebaz Muhammad Ibrahim",
      "uid": 6989414,
      "tags": {
        "amenity": "pub",
        "name": "Ø±ÛØ¨Ø§Ø²"
      }
    },
    {
      "type": "node",
      "id": 5241009422,
      "lat": 35.7459112,
      "lon": 43.9083374,
      "timestamp": "2017-11-21T12:53:04Z",
      "version": 1,
      "changeset": 53975153,
      "user": "Ã„hmÃ«d MÃ«rkhÃ¤n",
      "uid": 6988841,
      "tags": {
        "amenity": "pub"
      }
    },
    {
      "type": "node",
      "id": 5242741124,
      "lat": 32.0457141,
      "lon": 44.3612998,
      "timestamp": "2017-11-22T13:49:17Z",
      "version": 1,
      "changeset": 54001968,
      "user": "mostafa kassm",
      "uid": 7042109,
      "tags": {
        "amenity": "pub",
        "name": "Ù…Ù„ØªÙ‚Ù‰ Ø§Ù„Ø§ØµØ¯Ù‚Ø§Ø¡"
      }
    },
    {
      "type": "node",
      "id": 5247662524,
      "lat": 32.0416258,
      "lon": 44.4087466,
      "timestamp": "2017-11-25T19:13:02Z",
      "version": 1,
      "changeset": 54079994,
      "user": "Khalid AB",
      "uid": 6955031,
      "tags": {
        "amenity": "biergarten",
        "name": "Ù…Ø¬Ù…Ø¹ Ø¨ÙŠØ¨Ø³Ù‰ Ø¨ØºØ¯Ø§Ø¯ /Ø§Ù„ÙƒÙˆÙØ©"
      }
    },
    {
      "type": "node",
      "id": 5258283421,
      "lat": 35.3190886,
      "lon": 45.6954217,
      "timestamp": "2017-12-01T19:52:58Z",
      "version": 1,
      "changeset": 54247572,
      "user": "Halgwrd Hawramy",
      "uid": 7126886,
      "tags": {
        "amenity": "bar"
      }
    },
    {
      "type": "node",
      "id": 5273653822,
      "lat": 35.5794865,
      "lon": 45.3824107,
      "timestamp": "2020-08-03T09:06:51Z",
      "version": 3,
      "changeset": 88867280,
      "user": "Renas Azad",
      "uid": 5663583,
      "tags": {
        "amenity": "bar",
        "internet_access": "wlan",
        "name:en": "latona cafe bistro"
      }
    },
    {
      "type": "node",
      "id": 5292959542,
      "lat": 30.3183487,
      "lon": 48.2710187,
      "timestamp": "2017-12-19T06:17:08Z",
      "version": 1,
      "changeset": 54749775,
      "user": "iraq11",
      "uid": 7285956,
      "tags": {
        "amenity": "pub",
        "name": "Ø§Ù… Ø§Ù„Ø®Ø²ÙˆÙ…"
      }
    },
    {
      "type": "node",
      "id": 5301064322,
      "lat": 33.9932661,
      "lon": 44.3495411,
      "timestamp": "2024-03-12T10:56:41Z",
      "version": 2,
      "changeset": 148543930,
      "user": "matthewsheffield",
      "uid": 347944,
      "tags": {
        "amenity": "bar",
        "name": "ÙŠØ«Ø±Ø¨"
      }
    },
    {
      "type": "node",
      "id": 5306169821,
      "lat": 32.6070575,
      "lon": 43.9504838,
      "timestamp": "2017-12-27T09:55:49Z",
      "version": 1,
      "changeset": 54950809,
      "user": "Ø³Ø¹Ø¯ Ù†Ø­Ù… Ø§Ù„Ø´Ø¨Ù„ÙŠ",
      "uid": 7237816,
      "tags": {
        "amenity": "pub"
      }
    },
    {
      "type": "node",
      "id": 5307971023,
      "lat": 36.8256519,
      "lon": 42.3830684,
      "timestamp": "2017-12-28T07:56:14Z",
      "version": 1,
      "changeset": 54975845,
      "user": "akram-alsafe",
      "uid": 6617259,
      "tags": {
        "amenity": "pub",
        "name": "Ù…ÙˆÙ‚Ø¹ÙŠ"
      }
    },
    {
      "type": "node",
      "id": 5329559921,
      "lat": 33.3253277,
      "lon": 44.3459329,
      "timestamp": "2020-10-06T00:34:09Z",
      "version": 3,
      "changeset": 92010998,
      "user": "TobiasFischer00",
      "uid": 11418917,
      "tags": {
        "amenity": "bar",
        "name": "Ø±Ø§Ø¨ÙŠØ© Ø¹Ø²ÙŠØ² Ø§Ù„Ù…Ù†ØµÙˆØ±",
        "name:ar": "Ø±Ø§Ø¨ÙŠØ© Ø¹Ø²ÙŠØ² Ø§Ù„Ù…Ù†ØµÙˆØ±"
      }
    },
    {
      "type": "node",
      "id": 5332872621,
      "lat": 33.1611716,
      "lon": 44.5085854,
      "timestamp": "2018-01-11T09:13:00Z",
      "version": 1,
      "changeset": 55346272,
      "user": "Hazem Hamed",
      "uid": 7341199,
      "tags": {
        "amenity": "pub",
        "name": "Ø±Ø´ÙŠØ¯ ÙƒÙˆØ±ÙŠ"
      }
    },
    {
      "type": "node",
      "id": 5345204621,
      "lat": 37.0365883,
      "lon": 43.0929986,
      "timestamp": "2021-07-19T17:15:34Z",
      "version": 3,
      "changeset": 108267377,
      "user": "Ghybu",
      "uid": 560896,
      "tags": {
        "addr:street": "Ø´Ø§Ø±Ø¹ Ø§Ù„ÙƒÙ†ÙŠØ³Ù‡",
        "amenity": "pub",
        "internet_access": "wlan",
        "name": "Ù…Ø§Ø±ÙƒÙŠØª Ø¨Ø§Ø¨Ù‰ ØªÙˆÙ…Ø§Ø³",
        "name:en": "Abo tomas market",
        "opening_hours": "Mo-Su 10:00-22:00",
        "phone": "07504311588"
      }
    },
    {
      "type": "node",
      "id": 5375845621,
      "lat": 32.6008082,
      "lon": 44.023372,
      "timestamp": "2023-09-16T16:01:53Z",
      "version": 4,
      "changeset": 141349463,
      "user": "Nawfal85",
      "uid": 3047442,
      "tags": {
        "amenity": "pub"
      }
    },
    {
      "type": "node",
      "id": 5396384825,
      "lat": 38.4239251,
      "lon": 45.7775819,
      "timestamp": "2023-03-28T03:33:33Z",
      "version": 2,
      "changeset": 134200564,
      "user": "mrash14",
      "uid": 2350452,
      "tags": {
        "addr:street": "Ú†Ø§ÛŒÚ©Ù†Ø§Ø± Ø´Ø±Ù‚ÛŒ",
        "amenity": "biergarten",
        "name": "ØºØ°Ø§ Ø®ÙˆØ±ÛŒ Ø¢ØªØ§",
        "name:en": "Ata",
        "phone": "+98 41 4226 4300"
      }
    },
    {
      "type": "node",
      "id": 5400395124,
      "lat": 31.9864878,
      "lon": 44.9123857,
      "timestamp": "2019-11-16T12:51:36Z",
      "version": 2,
      "changeset": 77163858,
      "user": "Drghamhsn",
      "uid": 10410871,
      "tags": {
        "amenity": "pub",
        "name": "Ù…ÙƒØ§Ù† Ø§Ù„Ø³Ø±Ø§Ù‚",
        "name:ar": "Ù…Ø¨Ù†Ù‰ Ø§Ù„Ù…Ø­Ø§ÙØ¸Ù‡"
      }
    },
    {
      "type": "node",
      "id": 5416001222,
      "lat": 38.4989427,
      "lon": 43.3909791,
      "timestamp": "2018-02-16T09:07:24Z",
      "version": 1,
      "changeset": 56407250,
      "user": "cermos",
      "uid": 2806171,
      "tags": {
        "amenity": "bar",
        "name": "leylek bar"
      }
    },
    {
      "type": "node",
      "id": 5416001223,
      "lat": 38.4983348,
      "lon": 43.3932498,
      "timestamp": "2024-05-04T12:23:54Z",
      "version": 2,
      "changeset": 150877430,
      "user": "evgenykatyshev",
      "uid": 98099,
      "tags": {
        "addr:housenumber": "67",
        "addr:postcode": "65030",
        "addr:street": "bahÃ§ivan mahallesi, Karim karabekir blv.3",
        "amenity": "bar",
        "internet_access": "wlan",
        "name": "Nice bar"
      }
    },
    {
      "type": "node",
      "id": 5425672521,
      "lat": 31.8592986,
      "lon": 47.1354517,
      "timestamp": "2018-02-20T23:40:23Z",
      "version": 1,
      "changeset": 56535246,
      "user": "Ø§Ø¨Ùˆ Ø§Ø²Ù„",
      "uid": 7647787,
      "tags": {
        "amenity": "bar",
        "name": "ÙƒÙˆÙÙŠ",
        "name:en": "Kofi"
      }
    },
    {
      "type": "node",
      "id": 5435544837,
      "lat": 36.4386417,
      "lon": 42.765732,
      "timestamp": "2018-02-25T16:04:23Z",
      "version": 1,
      "changeset": 56664573,
      "user": "ÙØ§Ø±Ø³ Ø§Ù„Ø´Ù…Ø±Ù‰",
      "uid": 7666480,
      "tags": {
        "amenity": "pub",
        "name": "Ø·Ø±ÙŠÙ‚ Ù…Ù‚Ø·ÙˆØ¹"
      }
    },
    {
      "type": "node",
      "id": 5435562627,
      "lat": 36.3713919,
      "lon": 43.0138548,
      "timestamp": "2018-02-25T16:04:24Z",
      "version": 1,
      "changeset": 56664573,
      "user": "ÙØ§Ø±Ø³ Ø§Ù„Ø´Ù…Ø±Ù‰",
      "uid": 7666480,
      "tags": {
        "amenity": "pub",
        "name": "Ø­ÙØ±ÙŠØ§Øª"
      }
    },
    {
      "type": "node",
      "id": 5466504421,
      "lat": 32.4572661,
      "lon": 46.0746073,
      "timestamp": "2018-03-09T09:05:23Z",
      "version": 1,
      "changeset": 57024915,
      "user": "Ø­ÙŠØ¯Ø± Ø§Ù„Ø­Ù„Ø§Ù‚",
      "uid": 7509527,
      "tags": {
        "amenity": "pub",
        "name": "ÙƒÙŠÙ„Ùˆ Ù©Ù¢ Ø§Ù„Ø¯Ø¬ÙŠÙ„ÙŠ"
      }
    },
    {
      "type": "node",
      "id": 5469386221,
      "lat": 31.8354181,
      "lon": 45.9001275,
      "timestamp": "2018-03-10T15:44:42Z",
      "version": 1,
      "changeset": 57060934,
      "user": "Waked Farhan",
      "uid": 6882866,
      "tags": {
        "amenity": "pub",
        "name": "Ø·Ø±ÙŠÙ‚ Ø¨ØªØ±ÙˆÙ†Ø§Ø³1"
      }
    },
    {
      "type": "node",
      "id": 5480559721,
      "lat": 38.4976698,
      "lon": 43.3926382,
      "timestamp": "2018-03-15T14:02:55Z",
      "version": 1,
      "changeset": 57213092,
      "user": "cermos",
      "uid": 2806171,
      "tags": {
        "amenity": "bar",
        "name:en": "rythme"
      }
    },
    {
      "type": "node",
      "id": 5483052624,
      "lat": 36.3714279,
      "lon": 43.013991,
      "timestamp": "2018-03-16T16:51:52Z",
      "version": 1,
      "changeset": 57247132,
      "user": "ÙØ§Ø±Ø³ Ø§Ù„Ø´Ù…Ø±Ù‰",
      "uid": 7666480,
      "tags": {
        "amenity": "pub",
        "name": "Ø­ÙØ±ÙŠØ§Øª"
      }
    },
    {
      "type": "node",
      "id": 5486260021,
      "lat": 36.2278697,
      "lon": 43.9939217,
      "timestamp": "2018-03-18T11:45:33Z",
      "version": 1,
      "changeset": 57288531,
      "user": "WDl Ibrahim",
      "uid": 5491387,
      "tags": {
        "amenity": "bar"
      }
    },
    {
      "type": "node",
      "id": 5506388223,
      "lat": 36.4108847,
      "lon": 42.9164233,
      "timestamp": "2018-03-26T18:24:45Z",
      "version": 1,
      "changeset": 57544523,
      "user": "ÙØ§Ø±Ø³ Ø§Ù„Ø´Ù…Ø±Ù‰",
      "uid": 7666480,
      "tags": {
        "amenity": "pub",
        "name": "Ø­ÙØ±ÙŠØ§Øª"
      }
    },
    {
      "type": "node",
      "id": 5506388224,
      "lat": 36.4103048,
      "lon": 42.9182663,
      "timestamp": "2018-03-26T18:24:46Z",
      "version": 1,
      "changeset": 57544523,
      "user": "ÙØ§Ø±Ø³ Ø§Ù„Ø´Ù…Ø±Ù‰",
      "uid": 7666480,
      "tags": {
        "amenity": "pub",
        "name": "Ø­ÙØ±ÙŠØ§Øª Ø®Ø·ÙŠØ±Ù‡"
      }
    },
    {
      "type": "node",
      "id": 5506417221,
      "lat": 36.3763653,
      "lon": 43.00757,
      "timestamp": "2018-03-26T18:25:22Z",
      "version": 1,
      "changeset": 57544534,
      "user": "ÙØ§Ø±Ø³ Ø§Ù„Ø´Ù…Ø±Ù‰",
      "uid": 7666480,
      "tags": {
        "amenity": "pub",
        "name": "Ø­ÙØ±ÙŠØ§Øª"
      }
    },
    {
      "type": "node",
      "id": 5517120121,
      "lat": 35.5370757,
      "lon": 45.44322,
      "timestamp": "2018-03-30T19:46:11Z",
      "version": 1,
      "changeset": 57671418,
      "user": "Muhammed Mustafaa",
      "uid": 6538890,
      "tags": {
        "amenity": "pub",
        "name": "Ø´Ø±ÛŒÚ©Ø© ØªØ¯Ù…ÙŠØ±",
        "name:en": "Mafia",
        "name:ku": "Ú©Û†Ù…Ù¾Ø§Ù†ÛŒØ§ÛŒ ØªØ§Ù†Ø¬ÛŒ"
      }
    },
    {
      "type": "node",
      "id": 5528596824,
      "lat": 32.5559446,
      "lon": 45.417258,
      "timestamp": "2018-10-31T11:44:06Z",
      "version": 2,
      "changeset": 64043351,
      "user": "A110SHI Alwaeli",
      "uid": 6966029,
      "tags": {
        "amenity": "pub",
        "name": "Ø§Ù„ÙƒØ§Ø²ÙŠÙ†Ùˆ Ø§Ù„Ù‚Ø¯ÙŠÙ…Ø© Ù‡Ø³Ù‡ Ù…ØµØ±Ù",
        "name:ar": "Ù…ØµØ±Ù Ø§Ù„Ø±Ø´ÙŠØ¯"
      }
    },
    {
      "type": "node",
      "id": 5536774921,
      "lat": 34.6327572,
      "lon": 45.311316,
      "timestamp": "2019-02-23T17:16:03Z",
      "version": 3,
      "changeset": 67498785,
      "user": "geoaria",
      "uid": 1858958,
      "tags": {
        "addr:street": "pvc",
        "amenity": "pub",
        "internet_access": "wlan",
        "name": "ÙƒÙˆØ±Ø¯Ø³ØªØ§Ù†",
        "opening_hours": "24/7",
        "phone": "07701941674"
      }
    },
    {
      "type": "node",
      "id": 5545909725,
      "lat": 36.8926173,
      "lon": 49.9548131,
      "timestamp": "2018-04-12T07:35:03Z",
      "version": 2,
      "changeset": 58027065,
      "user": "Khalil Laleh",
      "uid": 4449060,
      "tags": {
        "amenity": "pub",
        "name": "Ø¹Ø§Ø´ÙˆØ± Ø§Ø¨Ø§Ø¯"
      }
    },
    {
      "type": "node",
      "id": 5583332721,
      "lat": 32.3465523,
      "lon": 44.9726505,
      "timestamp": "2018-04-27T22:53:35Z",
      "version": 1,
      "changeset": 58491520,
      "user": "Ø§Ø¨Ùˆ Ø´Ù…Ø³ Ø§Ù„Ø¨Ø¯ÙŠØ±ÙŠ",
      "uid": 8186766,
      "tags": {
        "amenity": "bar",
        "name": "HØ§Ù„Ø´Ø±ÙŠÙØ©ÙŠÙ†Øª Ø§Ù„Ø­Ø³Ù†",
        "name:ar": "HØ§Ù„Ø´Ø±ÙŠÙØ©ÙŠÙ†Øª Ø§Ù„Ø­Ø³Ù†"
      }
    },
    {
      "type": "node",
      "id": 5594305325,
      "lat": 34.6088689,
      "lon": 43.690338,
      "timestamp": "2018-05-03T10:31:14Z",
      "version": 1,
      "changeset": 58643219,
      "user": "Taha Abdalsalam",
      "uid": 6655549,
      "tags": {
        "amenity": "bar"
      }
    },
    {
      "type": "node",
      "id": 5609882421,
      "lat": 36.2407427,
      "lon": 43.9840939,
      "timestamp": "2018-05-10T17:22:26Z",
      "version": 1,
      "changeset": 58856558,
      "user": "Rojdar1232",
      "uid": 8221273,
      "tags": {
        "amenity": "bar",
        "name": "ØªØ§ÙÙƒÙ‡",
        "name:en": "jwani tavga"
      }
    },
    {
      "type": "node",
      "id": 5613607021,
      "lat": 32.0195918,
      "lon": 44.5464309,
      "timestamp": "2018-05-12T13:52:32Z",
      "version": 1,
      "changeset": 58903061,
      "user": "Ahmed Adnan",
      "uid": 5232613,
      "tags": {
        "amenity": "pub"
      }
    },
    {
      "type": "node",
      "id": 5627664123,
      "lat": 35.178559,
      "lon": 43.4038533,
      "timestamp": "2018-05-18T22:28:18Z",
      "version": 1,
      "changeset": 59092417,
      "user": "Awwad Algepory",
      "uid": 6556420,
      "tags": {
        "addr:housenumber": "07704059527",
        "addr:street": "ÙØ±Ø¹ Ø§Ù„Ø·Ø±Ø´Ø§Ù†",
        "amenity": "bar",
        "name": "Ø§Ù„Ø±ÙˆÙØ© Ø§Ù„Ø¹Ø§Ù„ÙŠØ©"
      }
    },
    {
      "type": "node",
      "id": 5630260122,
      "lat": 34.446732,
      "lon": 44.9011822,
      "timestamp": "2024-06-18T04:37:09Z",
      "version": 3,
      "changeset": 152828021,
      "user": "mavl",
      "uid": 564990,
      "tags": {
        "amenity": "pub",
        "name": "Ù…Ù‚Ø± ÙÙˆØ¬ Ø§Ù„Ø§ÙˆÙ„"
      }
    },
    {
      "type": "node",
      "id": 5740605922,
      "lat": 33.3599494,
      "lon": 44.3740545,
      "timestamp": "2018-07-05T07:57:44Z",
      "version": 1,
      "changeset": 60428040,
      "user": "Aqeel Ali 1992",
      "uid": 8151036,
      "tags": {
        "amenity": "bar",
        "name": "Ù…Ø­Ù„Ø§Øª Ø¨ÙŠØ¹ Ø§Ù„Ø®Ù…ÙˆØ±",
        "name:ar": "Ù…Ø­Ù„Ø§Øª Ø¨ÙŠØ¹ Ø§Ù„Ø®Ù…ÙˆØ±"
      }
    },
    {
      "type": "node",
      "id": 5747435922,
      "lat": 38.431011,
      "lon": 45.7759562,
      "timestamp": "2020-01-05T15:39:31Z",
      "version": 3,
      "changeset": 79215723,
      "user": "Takogin",
      "uid": 8650725,
      "tags": {
        "amenity": "pub",
        "name": "Ø¢Ø±Ø§ÛŒØ´ÛŒ Ø±ÙˆÛŒØ§Ù„",
        "name:en": "Royal Department Store"
      }
    },
    {
      "type": "node",
      "id": 5786405853,
      "lat": 36.7311714,
      "lon": 43.8780478,
      "timestamp": "2018-07-26T07:57:36Z",
      "version": 1,
      "changeset": 61079017,
      "user": "Marios Toraia",
      "uid": 4900413,
      "tags": {
        "amenity": "pub"
      }
    },
    {
      "type": "node",
      "id": 5787139857,
      "lat": 30.4842184,
      "lon": 47.8050999,
      "timestamp": "2018-07-26T12:30:09Z",
      "version": 1,
      "changeset": 61087237,
      "user": "Ø¹Ù„ÙŠ Ø§Ù„Ø±ÙƒØ§Ø¨ÙŠ",
      "uid": 8124866,
      "tags": {
        "amenity": "bar",
        "name": "hgg",
        "name:en": "cvc",
        "name:ku": "vvc"
      }
    },
    {
      "type": "node",
      "id": 5810182853,
      "lat": 30.5371077,
      "lon": 47.8080444,
      "timestamp": "2018-08-05T11:53:09Z",
      "version": 2,
      "changeset": 61372286,
      "user": "â€«ÙŠØ§ Ø­Ø´Ø¯Ù†Ø§ â€â€ªalâ€¬â€â€œ ØªØ³Ù„Ù…â€¬â€",
      "uid": 8647463,
      "tags": {
        "amenity": "bar",
        "name": "Ø²Ù‡Ø±Ø© Ø§Ù„Ø¨Ú†Ø§Ø±ÙŠ",
        "name:en": "zahra albachary"
      }
    },
    {
      "type": "node",
      "id": 5810537553,
      "lat": 38.8848908,
      "lon": 48.8922887,
      "timestamp": "2018-08-05T16:10:54Z",
      "version": 1,
      "changeset": 61377777,
      "user": "Alexander  Rusakov",
      "uid": 7436805,
      "tags": {
        "amenity": "biergarten",
        "name:en": "Muller",
        "name:ru": "ĞŸĞ»ÑĞ¶Ğ½Ğ°Ñ Ğ·Ğ¾Ğ½Ğ° Ñ Ğ¼Ğ°Ğ»ĞµĞ½ÑŒĞºĞ¸Ğ¼ ĞºĞ°Ñ„Ğµ Ğ¸ Ğ¿Ğ¸Ğ²Ğ¾Ğ¼, ÑĞ²ĞµĞ¶Ğ°Ñ Ñ€Ñ‹Ğ±Ğ°"
      }
    },
    {
      "type": "node",
      "id": 5810709553,
      "lat": 36.3900233,
      "lon": 43.1684774,
      "timestamp": "2018-08-05T18:22:12Z",
      "version": 1,
      "changeset": 61380289,
      "user": "Zandbuga",
      "uid": 8392148,
      "tags": {
        "amenity": "pub",
        "name": "Ø¨Ø§Ø± Ø§Ù…ÙŠØ±Ø©"
      }
    },
    {
      "type": "node",
      "id": 5811532453,
      "lat": 31.3817943,
      "lon": 45.2540783,
      "timestamp": "2018-08-06T04:09:03Z",
      "version": 1,
      "changeset": 61388806,
      "user": "Ø­ÙŠØ¯Ø± Ø§Ù„Ø²ÙŠØ§Ø¯ÙŠ",
      "uid": 7886521,
      "tags": {
        "amenity": "bar",
        "name": "Ø´Ø§ÙƒØ±"
      }
    },
    {
      "type": "node",
      "id": 5814564354,
      "lat": 36.3757192,
      "lon": 43.1488365,
      "timestamp": "2018-08-07T10:11:43Z",
      "version": 1,
      "changeset": 61429703,
      "user": "Baraa Younis",
      "uid": 7750626,
      "tags": {
        "amenity": "bar",
        "name": "Ù‚Ø³Ù… Ø§Ù„ÙÙŠØ²ÙŠØ§Ø¡ Ø§Ù„Ø­ÙŠØ§ØªÙŠØ©"
      }
    },
    {
      "type": "node",
      "id": 5871694985,
      "lat": 32.297217,
      "lon": 44.7013135,
      "timestamp": "2018-08-31T17:05:26Z",
      "version": 1,
      "changeset": 62178908,
      "user": "Mohand79",
      "uid": 8742793,
      "tags": {
        "amenity": "bar",
        "name": "Ø­ÙŠ Ø§Ù„Ø²Ù‡Ø±Ø§Ø¡ Ø§Ù„Ø«Ø§Ù†ÙŠ"
      }
    },
    {
      "type": "node",
      "id": 5871710386,
      "lat": 32.2944629,
      "lon": 44.6977899,
      "timestamp": "2018-08-31T17:15:24Z",
      "version": 1,
      "changeset": 62179163,
      "user": "Mohand79",
      "uid": 8742793,
      "tags": {
        "amenity": "bar",
        "name": "Ø­ÙŠ Ø§Ù„Ø²Ù‡Ø±Ø§Ø¡ Ø§Ù„Ø£ÙˆÙ„ ( ÙƒÙ…ÙˆÙ†Ø© )"
      }
    },
    {
      "type": "node",
      "id": 5879396685,
      "lat": 36.2210534,
      "lon": 43.9918621,
      "timestamp": "2024-01-08T10:57:58Z",
      "version": 6,
      "changeset": 146024047,
      "user": "Mahmood_abdul",
      "uid": 12978592,
      "tags": {
        "addr:city": "Ø£Ø±Ø¨ÙŠÙ„",
        "addr:country": "IQ",
        "addr:district": "Ù‚Ø¶Ø§Ø¡ Ø£Ø±Ø¨ÙŠÙ„",
        "addr:postcode": "44003",
        "addr:state": "Ù…Ø­Ø§ÙØ¸Ø© Ø£Ø±Ø¨ÙŠÙ„",
        "addr:street": "Ø´Û•Ù‚Ø§Ù…ÛŒ Ù¾ÛØ´Û•ÙˆØ§ Ù‚Ø§Ø²ÛŒ",
        "addr:subdistrict": "Ù†Ø§Ø­ÙŠØ© Ø¹Ù†ÙƒØ§ÙˆØ§",
        "addr:town": "Ø¹Ù†ÙƒØ§ÙˆØ§",
        "amenity": "bar"
      }
    },
    {
      "type": "node",
      "id": 5888995085,
      "lat": 33.2833485,
      "lon": 44.3958915,
      "timestamp": "2021-05-07T13:05:10Z",
      "version": 2,
      "changeset": 104320498,
      "user": "Casiio",
      "uid": 10217599,
      "tags": {
        "addr:street": "Ø´Ø§Ø±Ø¹ Ø§Ù„Ø¬Ø§Ù…Ø¹Ø©",
        "amenity": "bar",
        "name": "Ù…Ø¬Ù…Ø¹ Ø§Ù„Ø§Ø¨Ø±Ø§Ø± Ù„Ù„Ù…Ø¤ØªÙ…Ø±Ø§Øª"
      }
    },
    {
      "type": "node",
      "id": 5905055566,
      "lat": 35.576105,
      "lon": 45.3769684,
      "timestamp": "2023-05-15T13:04:29Z",
      "version": 2,
      "changeset": 136125908,
      "user": "Moh4mmedHad1",
      "uid": 19273095,
      "tags": {
        "addr:city": "Ø§Ù„Ø³Ù„ÙŠÙ…Ø§Ù†ÙŠØ©",
        "addr:country": "IQ",
        "addr:housenumber": "128",
        "addr:postcode": "46001",
        "addr:state": "Ù…Ø­Ø§ÙØ¸Ø© Ø§Ù„Ø³Ù„ÙŠÙ…Ø§Ù†ÙŠØ©",
        "addr:street": "71 Nawroz",
        "amenity": "bar",
        "bar": "yes",
        "brewery": "yes",
        "cuisine": "international",
        "diet:vegetarian": "yes",
        "facebook": "https://www.facebook.com/thegrillsulaimanyah/",
        "min_age": "18",
        "name": "NUMBER ONE SULI",
        "opening_hours": "24/7",
        "outdoor_seating": "yes",
        "phone": "+9647700101818"
      }
    },
    {
      "type": "node",
      "id": 5909680190,
      "lat": 34.3093031,
      "lon": 48.8043685,
      "timestamp": "2018-09-16T11:30:02Z",
      "version": 1,
      "changeset": 62632974,
      "user": "iran map 28",
      "uid": 6081216,
      "tags": {
        "amenity": "biergarten",
        "name": "ØªÙ‡ÛŒÙ‡ ØºØ°Ø§ Ù†Ø¨ÙˆØª"
      }
    },
    {
      "type": "node",
      "id": 5911154589,
      "lat": 30.2576411,
      "lon": 47.3805833,
      "timestamp": "2018-09-17T07:58:41Z",
      "version": 1,
      "changeset": 62655693,
      "user": "ÙØ§Ø±Ø³ Ø§Ø¨ÙˆØ³Ø¹Ø¯",
      "uid": 8833155,
      "tags": {
        "amenity": "pub",
        "name": "Ru149",
        "name:ar": "Ru149",
        "name:en": "Ru149",
        "name:ku": "Ru149"
      }
    },
    {
      "type": "node",
      "id": 5911155287,
      "lat": 30.4070446,
      "lon": 47.3418816,
      "timestamp": "2018-09-17T07:58:39Z",
      "version": 1,
      "changeset": 62655693,
      "user": "ÙØ§Ø±Ø³ Ø§Ø¨ÙˆØ³Ø¹Ø¯",
      "uid": 8833155,
      "tags": {
        "amenity": "pub",
        "name": "Ru450",
        "name:ar": "Ru450"
      }
    },
    {
      "type": "node",
      "id": 5911156086,
      "lat": 30.4248855,
      "lon": 47.2852527,
      "timestamp": "2024-06-18T04:37:09Z",
      "version": 3,
      "changeset": 152828021,
      "user": "mavl",
      "uid": 564990,
      "tags": {
        "amenity": "pub",
        "name": "Ù…Ù‚Ø± Ø§Ù„Ø¹Ù…Ù„ Ø§Ø±ÙƒÙ„",
        "name:ar": "Ù…Ù‚Ø± Ø§Ù„Ø¹Ù…Ù„ Ø§Ø±ÙƒÙ„"
      }
    },
    {
      "type": "node",
      "id": 5911156087,
      "lat": 30.2215172,
      "lon": 47.3523628,
      "timestamp": "2018-09-17T07:58:37Z",
      "version": 1,
      "changeset": 62655693,
      "user": "ÙØ§Ø±Ø³ Ø§Ø¨ÙˆØ³Ø¹Ø¯",
      "uid": 8833155,
      "tags": {
        "amenity": "pub",
        "name": "Ru224",
        "name:ar": "Ru224"
      }
    },
    {
      "type": "node",
      "id": 5911156090,
      "lat": 30.2215026,
      "lon": 47.3523779,
      "timestamp": "2018-09-17T08:06:16Z",
      "version": 1,
      "changeset": 62655912,
      "user": "ÙØ§Ø±Ø³ Ø§Ø¨ÙˆØ³Ø¹Ø¯",
      "uid": 8833155,
      "tags": {
        "amenity": "pub",
        "name": "Ù…ÙˆÙ„Ø¯ Ru224",
        "name:en": "Ø§Ù„ÙˆÙ…ÙŠÙ„Ø© Ø§Ù„Ø¬Ù†ÙˆØ¨ÙŠØ©",
        "name:ku": "Ù…ÙˆÙ„Ø¯Ru224"
      }
    },
    {
      "type": "node",
      "id": 5911723787,
      "lat": 30.2281755,
      "lon": 47.4054071,
      "timestamp": "2018-09-17T12:21:32Z",
      "version": 1,
      "changeset": 62663196,
      "user": "ÙØ§Ø±Ø³ Ø§Ø¨ÙˆØ³Ø¹Ø¯",
      "uid": 8833155,
      "tags": {
        "amenity": "pub",
        "name": "Ø¨Ø§Ø± 412"
      }
    },
    {
      "type": "node",
      "id": 5927560785,
      "lat": 31.4108997,
      "lon": 46.1673468,
      "timestamp": "2020-11-05T16:42:50Z",
      "version": 2,
      "changeset": 93614435,
      "user": "progali",
      "uid": 8866653,
      "tags": {
        "addr:street": "Ø´Ø§Ø±Ø¹ Ø§Ù„Ø¹Ø¯Ù„",
        "amenity": "pub",
        "email": "alialabady63@gmil.com",
        "internet_access": "wlan",
        "name": "Ù…ÙƒØªØ¨ Ø§ÙŠØ§Ø¯ Ù„Ù„ØµÙŠØ§Ù†Ø© +Ù…Ù‡Ù†Ø¯Ø³ Ø¹Ù„ÙŠ Ø§Ù„Ø¹Ø¨Ø§Ø¯ÙŠ",
        "name:ar": "Ù…ÙƒØªØ¨ Ø§ÙŠØ§Ø¯ Ù„Ù„ØµÙŠØ§Ù†Ø© + Ø§Ù„Ù…Ù‡Ù†Ø¯Ø³ Ø¹Ù„ÙŠ Ø§Ù„Ø¹Ø¨Ø§Ø¯ÙŠ",
        "name:en": "ayad+ali",
        "opening_hours": "24/7",
        "operator": "ØµÙŠØ§Ù†Ø© Ù…Ø¨Ø§ÙŠÙ„",
        "phone": "07802227862",
        "shop": "mobile_phone",
        "website": "http://alialabady63@gmil.com"
      }
    },
    {
      "type": "node",
      "id": 5936864690,
      "lat": 30.564608,
      "lon": 47.248054,
      "timestamp": "2019-02-23T17:25:30Z",
      "version": 3,
      "changeset": 67499002,
      "user": "geoaria",
      "uid": 1858958,
      "tags": {
        "addr:street": "Bu Shams",
        "amenity": "bar",
        "internet_access": "wlan",
        "name": "Ø¨ÙˆØ´Ù…Ø³",
        "name:en": "Bu Shams",
        "opening_hours": "24/7"
      }
    },
    {
      "type": "node",
      "id": 5994256107,
      "lat": 32.5885366,
      "lon": 44.1269239,
      "timestamp": "2018-10-17T22:02:46Z",
      "version": 1,
      "changeset": 63626664,
      "user": "smhmh",
      "uid": 8967094,
      "tags": {
        "amenity": "pub",
        "name": "Ø§"
      }
    },
    {
      "type": "node",
      "id": 5994803785,
      "lat": 32.0140205,
      "lon": 44.3465693,
      "timestamp": "2018-10-18T07:09:39Z",
      "version": 1,
      "changeset": 63634356,
      "user": "Haidar Abbas",
      "uid": 8893874,
      "tags": {
        "amenity": "pub",
        "name": "Ù…ÙƒØ§Ù† Ø§Ù…ØªØ­Ø§Ù† Ø·Ù„Ø§Ø¨ Ø¨Ø§Ø¨ÙŠÙ‚ÙŠØ§ Ø§Ù„Ø¯ÙˆØ± Ø§Ù„Ø«Ø§Ù„Ø« Ù„Ø³Ù†Ù‡2018"
      }
    },
    {
      "type": "node",
      "id": 5997406586,
      "lat": 38.8649075,
      "lon": 46.1967257,
      "timestamp": "2024-10-06T08:57:14Z",
      "version": 4,
      "changeset": 157529559,
      "user": "Claudius Henrichs",
      "uid": 18069,
      "tags": {
        "amenity": "pub",
        "internet_access": "wlan",
        "name": "Caravan pub"
      }
    },
    {
      "type": "node",
      "id": 6001590288,
      "lat": 33.3202875,
      "lon": 44.4803541,
      "timestamp": "2020-09-18T19:18:28Z",
      "version": 2,
      "changeset": 91128985,
      "user": "TobiasFischer00",
      "uid": 11418917,
      "tags": {
        "amenity": "bar",
        "name": "Ø¬Ù…Ù„Ø© Ù…Ø­Ù…Ø¯ Ø§Ù„Ø§Ø³Ø¯ÙŠ"
      }
    },
    {
      "type": "node",
      "id": 6052867885,
      "lat": 32.1266473,
      "lon": 47.5423948,
      "timestamp": "2018-11-11T15:39:58Z",
      "version": 1,
      "changeset": 64377682,
      "user": "Karrar Bio",
      "uid": 4711682,
      "tags": {
        "amenity": "pub",
        "name": "BHDC 36"
      }
    },
    {
      "type": "node",
      "id": 6127624685,
      "lat": 36.2431841,
      "lon": 43.9917451,
      "timestamp": "2018-12-10T06:39:57Z",
      "version": 1,
      "changeset": 65333327,
      "user": "Benarim pikatt",
      "uid": 5754941,
      "tags": {
        "amenity": "bar",
        "name": "Ø·Ø±ÙŠÙ‚ Ø¹ÙŠÙ† ÙƒØ§ÙˆØ§",
        "name:en": "ain kawa street"
      }
    },
    {
      "type": "node",
      "id": 6129757786,
      "lat": 35.4396199,
      "lon": 44.3874375,
      "timestamp": "2018-12-11T04:13:27Z",
      "version": 1,
      "changeset": 65362722,
      "user": "Ø³ÙÙŠØ§Ù† Ø¹Ø«Ù…Ø§Ù†",
      "uid": 9220027,
      "tags": {
        "amenity": "bar",
        "name": "Ù…Ø®Ø²Ù† ØºØ±Ù†Ø§Ø·Ø© Ù„Ù„Ù…Ø´Ø±ÙˆØ¨Ø§Øª Ø§Ù„ÙƒØ­ÙˆÙ„ÙŠØ©"
      }
    },
    {
      "type": "node",
      "id": 6151818286,
      "lat": 32.0036477,
      "lon": 44.3593014,
      "timestamp": "2018-12-21T14:46:26Z",
      "version": 1,
      "changeset": 65671025,
      "user": "889ammar",
      "uid": 8653548,
      "tags": {
        "amenity": "pub",
        "name": "Ø´Ø±ÙƒÙ‡ Ø§Ø³ÙŠØ§Ø³ÙŠÙ„"
      }
    },
    {
      "type": "node",
      "id": 6153201188,
      "lat": 30.6304251,
      "lon": 45.5679067,
      "timestamp": "2018-12-22T11:03:03Z",
      "version": 1,
      "changeset": 65690388,
      "user": "Ahmed Al Razzaq",
      "uid": 9272796,
      "tags": {
        "amenity": "pub"
      }
    },
    {
      "type": "node",
      "id": 6173620691,
      "lat": 37.0051318,
      "lon": 43.8613042,
      "timestamp": "2018-12-30T21:11:14Z",
      "version": 1,
      "changeset": 65898104,
      "user": "Imran haji",
      "uid": 9299496,
      "tags": {
        "amenity": "pub",
        "name": "Ø´Ù†Ù†Ú¯ÛŒÙ„"
      }
    },
    {
      "type": "node",
      "id": 6178327189,
      "lat": 36.1983683,
      "lon": 44.0918651,
      "timestamp": "2019-01-02T11:57:30Z",
      "version": 1,
      "changeset": 65956038,
      "user": "TheAhmed",
      "uid": 6455324,
      "tags": {
        "amenity": "bar",
        "name": "Mr.Johnny",
        "name:en": "Johnny Sins",
        "name:ku": "ÙƒÙˆØ±Ø¦ ÙƒØ©ÙˆØ§Ø¯ÙŠ"
      }
    },
    {
      "type": "node",
      "id": 6184902086,
      "lat": 33.383396,
      "lon": 44.373958,
      "timestamp": "2019-01-04T22:04:55Z",
      "version": 1,
      "changeset": 66035667,
      "user": "Ø¹Ù…Ø± Ø§Ù„Ø¹Ø¸Ù…Ø§ÙˆÙŠ",
      "uid": 9329488,
      "tags": {
        "amenity": "pub",
        "name": "Ø§Ù„Ø´ÙŠØ®Ù‡ Ø§Ù… Ø¹Ù…Ø±"
      }
    },
    {
      "type": "node",
      "id": 6185429387,
      "lat": 33.3525156,
      "lon": 44.3700522,
      "timestamp": "2019-01-05T09:24:26Z",
      "version": 1,
      "changeset": 66042400,
      "user": "Aqeel Ali 1992",
      "uid": 8151036,
      "tags": {
        "amenity": "bar",
        "name": "Greenbark"
      }
    },
    {
      "type": "node",
      "id": 6189996486,
      "lat": 36.2703576,
      "lon": 43.3729263,
      "timestamp": "2023-11-06T11:44:42Z",
      "version": 3,
      "changeset": 143689493,
      "user": "theroad",
      "uid": 20464207,
      "tags": {
        "addr:street": "Shoqa Street",
        "amenity": "pub",
        "check_date:opening_hours": "2023-11-06",
        "cuisine": "coffee_shop;friture;fine_dining;barbecue;seafood;kebab;grill;steak_house;fish;soba;chicken;diner;buschenschank;heuriger;deli",
        "internet_access": "wlan",
        "name": "Ù…Ø·Ø¹Ù… Ø§Ù„Ø¨Ù†Ø¯Ù‚ÙŠØ©",
        "name:en": "venice restorant",
        "opening_hours": "Mo-Su 12:00-24:00"
      }
    },
    {
      "type": "node",
      "id": 6191635285,
      "lat": 36.0849206,
      "lon": 44.6214161,
      "timestamp": "2019-01-08T07:31:33Z",
      "version": 1,
      "changeset": 66119687,
      "user": "Ayman jwamer",
      "uid": 9338052,
      "tags": {
        "amenity": "bar",
        "internet_access": "wlan",
        "name": "Ù†Ø§Ø¯ÛŒ ÙÙ‡ Ø± Ù…Ø§Ù†Ø¨Ù‡ Ø±Ø§Ù†",
        "name:en": "Farmanbaran"
      }
    },
    {
      "type": "node",
      "id": 6205306985,
      "lat": 32.0418773,
      "lon": 44.3156639,
      "timestamp": "2019-01-13T12:30:40Z",
      "version": 1,
      "changeset": 66272586,
      "user": "889ammar",
      "uid": 8653548,
      "tags": {
        "amenity": "pub",
        "name": "Ø´Ø§Ø±Ø¹ Ø§Ù„Ø¨Ø§Ù†Ø²ÙŠÙ† Ø®Ø§Ù†Ù‡ Ø§Ù„Ù†ØµØ±"
      }
    },
    {
      "type": "node",
      "id": 6246646886,
      "lat": 33.3149652,
      "lon": 44.4318503,
      "timestamp": "2019-01-30T11:40:32Z",
      "version": 1,
      "changeset": 66767338,
      "user": "Ø§Ø¨Ùˆ Ø¹Ù„ÙŠ Ø§Ù„Ø¹Ù‚Ø¨ÙŠ",
      "uid": 6874533,
      "tags": {
        "amenity": "bar",
        "internet_access": "wlan",
        "name": "Ù…Ø·Ø¹Ù… Ø·ÙŠØ¨Ù‡",
        "name:ku": "Ø¨Ø§Ø¯Ø§Ø±Ù‡ Ø§Ø¨Ùˆ Ø«Ø±Ø¨",
        "opening_hours": "Sa-Th 09:00-18:00"
      }
    },
    {
      "type": "node",
      "id": 6248168985,
      "lat": 32.5915749,
      "lon": 44.0469622,
      "timestamp": "2019-01-30T22:46:26Z",
      "version": 1,
      "changeset": 66785863,
      "user": "Ø¬Ø¹ÙØ± Ø§Ù„ÙØ­Ø§Ù…",
      "uid": 8271556,
      "tags": {
        "amenity": "pub",
        "name": "Ø§Ù„Ø­Ù„Ø§Ù‚ ØµØ¯ÙŠÙ‚ Ø¹Ù„ÙŠ"
      }
    },
    {
      "type": "node",
      "id": 6258404329,
      "lat": 33.30113,
      "lon": 44.8051579,
      "timestamp": "2019-02-04T18:13:39Z",
      "version": 1,
      "changeset": 66911476,
      "user": "rubenredal",
      "uid": 9414536,
      "tags": {
        "amenity": "bar"
      }
    },
    {
      "type": "node",
      "id": 6307899785,
      "lat": 35.2543512,
      "lon": 46.2569913,
      "timestamp": "2019-02-28T10:58:40Z",
      "version": 1,
      "changeset": 67646927,
      "user": "Quentin Talon",
      "uid": 9137346,
      "tags": {
        "amenity": "bar",
        "name:en": "Chicha bar"
      }
    },
    {
      "type": "node",
      "id": 6321102186,
      "lat": 36.2398715,
      "lon": 43.9953689,
      "timestamp": "2019-03-06T15:33:25Z",
      "version": 1,
      "changeset": 67848811,
      "user": "Obiwan10g",
      "uid": 3167146,
      "tags": {
        "amenity": "bar",
        "name:en": "Dusk Rooftop"
      }
    },
    {
      "type": "node",
      "id": 6325433835,
      "lat": 35.5911977,
      "lon": 45.3761036,
      "timestamp": "2019-03-08T14:04:14Z",
      "version": 1,
      "changeset": 67923845,
      "user": "Renas Azad",
      "uid": 5663583,
      "tags": {
        "amenity": "bar"
      }
    },
    {
      "type": "node",
      "id": 6325438285,
      "lat": 35.5835992,
      "lon": 45.3736712,
      "timestamp": "2019-03-08T14:07:27Z",
      "version": 1,
      "changeset": 67923943,
      "user": "Renas Azad",
      "uid": 5663583,
      "tags": {
        "amenity": "bar"
      }
    },
    {
      "type": "node",
      "id": 6326805285,
      "lat": 33.2382151,
      "lon": 44.5645613,
      "timestamp": "2020-10-08T02:39:08Z",
      "version": 2,
      "changeset": 92137749,
      "user": "Ahmed Fareed",
      "uid": 4280156,
      "tags": {
        "amenity": "pub",
        "name": "Ø´Ø±ÙƒØ© Ù…ÙŠØ§Ù‡ ÙˆØ¹Ù‚Ø§Ø¦Ø± Ù†Ø¨Ø¹ Ø§Ù„ÙØ±Ø§ØªÙŠÙ†",
        "name:ar": "Ø´Ø±ÙƒØ© Ù†Ø¨Ø¹ Ø§Ù„ÙØ±Ø§ØªÙŠÙ† Ù„Ù„Ù…Ø´Ø±ÙˆØ¨Ø§Øª Ø§Ù„ØºØ§Ø²ÙŠØ© Ùˆ Ø§Ù„Ø¹ØµØ§Ø¦Ø±"
      }
    },
    {
      "type": "node",
      "id": 6328551841,
      "lat": 37.2980394,
      "lon": 49.5967221,
      "timestamp": "2019-03-10T10:36:40Z",
      "version": 1,
      "changeset": 67984517,
      "user": "TheLynkx",
      "uid": 9516537,
      "tags": {
        "addr:city": "Ø±Ø´Øª",
        "addr:postcode": "41639",
        "addr:street": "Ø¨Ù„ÙˆØ§Ø± Ù†Ù…Ø§Ø²",
        "amenity": "bar",
        "name": "Lynks"
      }
    },
    {
      "type": "node",
      "id": 6369699085,
      "lat": 33.4054597,
      "lon": 44.3920961,
      "timestamp": "2019-03-29T07:53:57Z",
      "version": 1,
      "changeset": 68655041,
      "user": "Ø§Ø­Ù…Ø¯ Ø¬Ø§Ø³Ù… Ø§Ù„Ø²Ø±ÙƒØ§Ù†ÙŠ",
      "uid": 9561707,
      "tags": {
        "amenity": "pub",
        "name": "Ù…ÙˆÙ„Ø¯Ø© Ø³Ø­Ø¨ Ø£Ù‡Ù„ÙŠØ©"
      }
    },
    {
      "type": "node",
      "id": 6401073085,
      "lat": 36.7301232,
      "lon": 43.0968293,
      "timestamp": "2019-04-12T18:02:40Z",
      "version": 1,
      "changeset": 69157872,
      "user": "Danny hawk",
      "uid": 9595716,
      "tags": {
        "amenity": "bar",
        "name": "Ø¬Ù…Ø¹ÙŠÙ‡ Ø§Ù„Ù‚ÙˆØ´ Ø§Ù„Ø«Ù‚Ø§ÙÙŠÙ‡"
      }
    },
    {
      "type": "node",
      "id": 6406193485,
      "lat": 35.5693864,
      "lon": 45.4265065,
      "timestamp": "2019-04-15T09:59:40Z",
      "version": 1,
      "changeset": 69228671,
      "user": "Diare",
      "uid": 8951254,
      "tags": {
        "addr:street": "104-65",
        "amenity": "bar",
        "name": "Ù…Ø´Ø±ÙˆØ¨Ø§Øª Ø±Ø²ÙƒØ§Ø±",
        "name:en": "Rzgar shop alkhol",
        "name:ku": "Ù…Ø´Ø±ÙˆØ¨Ø§ØªÛŒ Ú•Ø²Ú¯Ø§Ø±",
        "phone": "07702524343"
      }
    },
    {
      "type": "node",
      "id": 6429920786,
      "lat": 36.8636637,
      "lon": 42.9937339,
      "timestamp": "2022-12-12T21:20:00Z",
      "version": 2,
      "changeset": 130013231,
      "user": "Ú•Ø§Ø³ØªÛŒ",
      "uid": 4800812,
      "tags": {
        "addr:city": "Ø¯Ù‡Û†Ú©",
        "amenity": "pub",
        "name": "Ø§Ù„Ø¹Ø´ Ø§Ù„Ø°Ù‡Ø¨ÙŠ"
      }
    },
    {
      "type": "node",
      "id": 6435796486,
      "lat": 36.730541,
      "lon": 43.0869643,
      "timestamp": "2019-04-29T11:10:12Z",
      "version": 1,
      "changeset": 69691304,
      "user": "Danny hawk",
      "uid": 9595716,
      "tags": {
        "amenity": "bar",
        "internet_access": "wlan",
        "name": "ÙƒØ§Ø²ÙŠÙ†Ùˆ Ø¬Ø¨Ù„ Ø§Ù„Ù‚ÙˆØ´",
        "name:en": "Alqosh Muontian Bar",
        "opening_hours": "Mo-Su 19:00-01:05"
      }
    },
    {
      "type": "node",
      "id": 6450000885,
      "lat": 38.6079404,
      "lon": 48.8200945,
      "timestamp": "2019-05-05T16:06:41Z",
      "version": 1,
      "changeset": 69908654,
      "user": "HzSalman",
      "uid": 9629635,
      "tags": {
        "amenity": "pub",
        "name:en": "Ã‡ayxana"
      }
    },
    {
      "type": "node",
      "id": 6450000985,
      "lat": 38.6077726,
      "lon": 48.8227109,
      "timestamp": "2019-05-05T16:06:44Z",
      "version": 1,
      "changeset": 69908654,
      "user": "HzSalman",
      "uid": 9629635,
      "tags": {
        "addr:housenumber": "210",
        "addr:postcode": "Az0717",
        "addr:street": "PensÉ™r yolu",
        "amenity": "bar",
        "name:en": "Ã‡ayxana"
      }
    },
    {
      "type": "node",
      "id": 6498982489,
      "lat": 30.5430949,
      "lon": 47.7607321,
      "timestamp": "2019-05-25T00:52:37Z",
      "version": 1,
      "changeset": 70602235,
      "user": "Ù…Ù‡Ù†Ø¯ Ø¹Ù„ÙŠ Ø­Ø³ÙŠÙ†",
      "uid": 8230783,
      "tags": {
        "amenity": "biergarten",
        "name": "Ù…ÙƒØªØ¨ Ù„Ø²ÙˆØ§Ø¬ Ø§Ù„Ø±Ø§Ù‚ØµØ§Øª Ø§Ù„ØªØ§Ø¦Ø¨Ø§Øª"
      }
    },
    {
      "type": "node",
      "id": 6567194485,
      "lat": 35.1769715,
      "lon": 45.9777025,
      "timestamp": "2019-06-24T07:30:23Z",
      "version": 1,
      "changeset": 71550616,
      "user": "Ahmedmala88",
      "uid": 8730172,
      "tags": {
        "addr:street": "Ø¬Ø§Ø¯Û•ÛŒ Ù†Û•ÙˆØ±Û†ÚµÛŒ",
        "amenity": "pub",
        "name": "Ù…Ø³Ø¬Ø¯ Ø§Ø¨ÙˆØ¨ÙƒØ± ØµØ¯ÙŠÙ‚",
        "name:en": "Abubakr Sddiq mosque",
        "name:ku": "Ù…Ø²Ú¯Û•ÙˆØªÛŒ Ø¦Û•Ø¨ÙˆØ¨Û•Ú©Ø±ÛŒ ØµØ¯ÛŒÙ‚"
      }
    },
    {
      "type": "node",
      "id": 6569417387,
      "lat": 35.8746013,
      "lon": 47.5972978,
      "timestamp": "2019-06-25T07:10:11Z",
      "version": 1,
      "changeset": 71587652,
      "user": "mehdiyesil",
      "uid": 8838927,
      "tags": {
        "amenity": "biergarten",
        "name": "ØªØ§Ù„Ø§Ø± Ø¹Ø±ÙˆØ³ÛŒ"
      }
    },
    {
      "type": "node",
      "id": 6573077308,
      "lat": 36.2027316,
      "lon": 44.0446786,
      "timestamp": "2019-06-26T17:52:33Z",
      "version": 1,
      "changeset": 71646867,
      "user": "Mohammedallaf",
      "uid": 2150621,
      "tags": {
        "amenity": "pub",
        "name": "ÙØ±Û†Ø´Ú¯Ø§ÛŒ Ø¦Û•Ù†Ù‡Ø§Ø± Ú©ÙˆØ¨Ø§"
      }
    },
    {
      "type": "node",
      "id": 6573127530,
      "lat": 36.2047424,
      "lon": 44.0451532,
      "timestamp": "2019-06-26T18:28:53Z",
      "version": 1,
      "changeset": 71647994,
      "user": "Mohammedallaf",
      "uid": 2150621,
      "tags": {
        "amenity": "pub",
        "name": "JACK DANIELS."
      }
    },
    {
      "type": "node",
      "id": 6598513007,
      "lat": 31.990231,
      "lon": 44.3269248,
      "timestamp": "2019-07-09T09:23:02Z",
      "version": 1,
      "changeset": 72045739,
      "user": "Ø¹Ù„ÙŠ Ø³Ø¹Ø¯ Ø­Ø³ÙŠÙ†",
      "uid": 8730759,
      "tags": {
        "amenity": "bar",
        "name": "Ù†Ø¬Ø§Ø±ÙŠØ© Ø§Ø¨Ùˆ Ø¨Ø¯Ø±"
      }
    },
    {
      "type": "node",
      "id": 6641700085,
      "lat": 36.7345218,
      "lon": 43.0953056,
      "timestamp": "2019-07-23T19:51:59Z",
      "version": 1,
      "changeset": 72574116,
      "user": "Danny hawk",
      "uid": 9595716,
      "tags": {
        "amenity": "bar",
        "internet_access": "wlan",
        "name": "Ù†Ø§Ø¯ÙŠ Ø§Ù„Ù‚ÙˆØ´ Ø§Ù„Ø¹Ø§Ø¦Ù„ÙŠ",
        "opening_hours": "Mo-Su 18:00-02:00"
      }
    },
    {
      "type": "node",
      "id": 6688225985,
      "lat": 36.8636781,
      "lon": 42.9000842,
      "timestamp": "2019-08-06T14:36:59Z",
      "version": 1,
      "changeset": 73070671,
      "user": "Wahabtw",
      "uid": 10194508,
      "tags": {
        "addr:street": "TENAHÄ°",
        "amenity": "biergarten",
        "name": "ÙˆÙ‡Ø¨",
        "name:en": "Wahab",
        "name:ku": "ÙˆÙ‡ Ù‡Ù‡ Ø¨"
      }
    },
    {
      "type": "node",
      "id": 6709559085,
      "lat": 32.5959926,
      "lon": 44.0079711,
      "timestamp": "2019-08-14T09:12:05Z",
      "version": 1,
      "changeset": 73338886,
      "user": "hashim2000",
      "uid": 10224286,
      "tags": {
        "amenity": "bar",
        "name": "ÙƒÙˆÙÙŠ"
      }
    },
    {
      "type": "node",
      "id": 6728787385,
      "lat": 33.3360565,
      "lon": 44.3951802,
      "timestamp": "2019-08-21T05:47:50Z",
      "version": 1,
      "changeset": 73563968,
      "user": "Ø¨Ø§Ø± Ù‡Ø§Ø¯ÙŠ Ø§Ù„Ø´Ø§Ù…ÙŠ",
      "uid": 10240065,
      "tags": {
        "addr:street": "Ø³ÙˆÙ‚ Ø§Ù„Ø´ÙˆØ±Ø¬Ø©",
        "amenity": "pub",
        "name": "Ø¨Ø§Ø± Ù‡Ø§Ø¯ÙŠ Ø§Ù„Ø´Ø§Ù…ÙŠ",
        "opening_hours": "24/7"
      }
    },
    {
      "type": "node",
      "id": 6731355285,
      "lat": 33.2901275,
      "lon": 44.4569155,
      "timestamp": "2019-08-21T09:56:03Z",
      "version": 1,
      "changeset": 73572104,
      "user": "Ø¹Ù„ÙŠ Ø§Ù„Ø³Ø¬Ø§Ø¯",
      "uid": 10236325,
      "tags": {
        "amenity": "bar",
        "name": "Ø¯Ø§Ø±Ù‡ Ø¬Ù†ÙˆØ¨ Ø¨ØºØ¯Ø§Ø¯"
      }
    },
    {
      "type": "node",
      "id": 6732379185,
      "lat": 32.8515403,
      "lon": 45.1196464,
      "timestamp": "2019-08-21T16:06:51Z",
      "version": 1,
      "changeset": 73588198,
      "user": "Sajjad94",
      "uid": 6801063,
      "tags": {
        "amenity": "bar",
        "name": "Ù…Ø·Ø¹Ù…"
      }
    },
    {
      "type": "node",
      "id": 6747017795,
      "lat": 30.3589357,
      "lon": 47.3335086,
      "timestamp": "2019-08-26T19:13:47Z",
      "version": 1,
      "changeset": 73767405,
      "user": "Eng ameen",
      "uid": 10130152,
      "tags": {
        "amenity": "pub",
        "name": "Ø¨ÙŠØ± Ù†ÙØ·"
      }
    },
    {
      "type": "node",
      "id": 6754139859,
      "lat": 38.4982208,
      "lon": 43.3932789,
      "timestamp": "2024-05-04T12:23:54Z",
      "version": 2,
      "changeset": 150877430,
      "user": "evgenykatyshev",
      "uid": 98099,
      "tags": {
        "amenity": "bar",
        "name:en": "HINAR CAFE & BAR"
      }
    },
    {
      "type": "node",
      "id": 6754140792,
      "lat": 38.4981359,
      "lon": 43.3932825,
      "timestamp": "2024-05-04T12:23:54Z",
      "version": 2,
      "changeset": 150877430,
      "user": "evgenykatyshev",
      "uid": 98099,
      "tags": {
        "amenity": "bar",
        "name:en": "Yeni & Eski Cafe Bar"
      }
    },
    {
      "type": "node",
      "id": 6783962985,
      "lat": 33.3087245,
      "lon": 44.4417443,
      "timestamp": "2019-09-09T23:06:25Z",
      "version": 1,
      "changeset": 74283604,
      "user": "ÙˆÙ„ÙŠØ¯ Ø§Ù„Ø¹Ø±Ø§Ù‚ÙŠ",
      "uid": 4310740,
      "tags": {
        "amenity": "pub",
        "name": "Ø·Ø¨Ø§Ø®"
      }
    },
    {
      "type": "node",
      "id": 6790317287,
      "lat": 36.2604196,
      "lon": 43.6590052,
      "timestamp": "2019-09-12T12:33:09Z",
      "version": 1,
      "changeset": 74391649,
      "user": "Hussein Hrbs",
      "uid": 9439823,
      "tags": {
        "amenity": "bar",
        "name": "ÙƒØ¨Ø§Ù† Ø²Ù…Ù†"
      }
    },
    {
      "type": "node",
      "id": 6795955585,
      "lat": 36.1976944,
      "lon": 44.0859977,
      "timestamp": "2019-09-14T20:28:01Z",
      "version": 1,
      "changeset": 74483855,
      "user": "moatazaday",
      "uid": 10300312,
      "tags": {
        "amenity": "pub",
        "name": "Ù„Ø§Ø³ ÙÙŠÙƒØ§Ø³"
      }
    },
    {
      "type": "node",
      "id": 6817164685,
      "lat": 32.6188022,
      "lon": 44.0454058,
      "timestamp": "2019-09-23T10:34:58Z",
      "version": 1,
      "changeset": 74799597,
      "user": "Ø§Ø­Ù…Ø¯ Ø®Ø§Ù„Ø¯ Ø§Ù„Ø§Ø³Ø¯ÙŠ",
      "uid": 8971425,
      "tags": {
        "amenity": "bar",
        "name": "Ø§Ø­Ù…Ø¯ Ø§Ù„Ø§Ø³Ø¯ÙŠ ÙƒØ±Ø¨Ù„Ø§Ø¡"
      }
    },
    {
      "type": "node",
      "id": 6821065185,
      "lat": 33.3823832,
      "lon": 44.3279003,
      "timestamp": "2019-09-24T19:11:18Z",
      "version": 1,
      "changeset": 74874448,
      "user": "Ø­Ø³ÙŠÙ† Ø§Ù„Ø¹Ø¨Ø¯ÙŠ",
      "uid": 10184989,
      "tags": {
        "amenity": "pub",
        "name": "Ø³Ù„Ø§Ù… Ù…ÙˆØ¨Ø§ÙŠÙ„"
      }
    },
    {
      "type": "node",
      "id": 6852665088,
      "lat": 36.3953268,
      "lon": 44.3417964,
      "timestamp": "2022-05-20T20:59:34Z",
      "version": 3,
      "changeset": 121260282,
      "user": "SomeoneElse_Revert",
      "uid": 1778799,
      "tags": {
        "addr:street": "Shaqrawa",
        "amenity": "bar",
        "name": "Ù…Ø´Ø±ÙˆØ¨Ø§Øª Ø´ÙˆÙ‚ÙŠ",
        "name:en": "Shawqii drinks",
        "name:ku": "Tuborg"
      }
    },
    {
      "type": "node",
      "id": 6854451785,
      "lat": 33.2900919,
      "lon": 44.4121726,
      "timestamp": "2021-06-18T16:47:53Z",
      "version": 2,
      "changeset": 106600007,
      "user": "Haider Mohsen",
      "uid": 13589426,
      "tags": {
        "addr:housenumber": "1",
        "addr:postcode": "10070",
        "addr:street": "ÙƒØ±Ø§Ø¯Ø© Ø®Ø§Ø±Ø¬",
        "amenity": "pub",
        "cuisine": "buschenschank",
        "internet_access": "wlan",
        "name": "Ù…Ø­Ù„",
        "opening_hours": "24/7",
        "operator": "Ø®Ø¨Ø±Ù‡ ÙÙŠ Ù…Ø¬Ø§Ù„ Ø§Ù„Ø¯Ø¹Ø§Ø±Ù‡ Ùˆ Ø§Ù„Ø±Ø°ÙŠÙ„Ù‡"
      }
    },
    {
      "type": "node",
      "id": 6870986086,
      "lat": 37.7223219,
      "lon": 45.0621256,
      "timestamp": "2019-10-11T14:12:47Z",
      "version": 1,
      "changeset": 75569376,
      "user": "Reza Ahanghi",
      "uid": 9548291,
      "tags": {
        "amenity": "bar",
        "name:en": "Ø¨Ø§Øº"
      }
    },
    {
      "type": "node",
      "id": 6871164785,
      "lat": 37.7233844,
      "lon": 45.062933,
      "timestamp": "2019-10-11T15:03:08Z",
      "version": 1,
      "changeset": 75572647,
      "user": "Reza Ahanghi",
      "uid": 9548291,
      "tags": {
        "amenity": "bar",
        "name:en": "Ø¨Ø§ØºÛŒ"
      }
    },
    {
      "type": "node",
      "id": 6872643191,
      "lat": 33.3221198,
      "lon": 44.4146346,
      "timestamp": "2019-10-12T06:22:48Z",
      "version": 1,
      "changeset": 75592754,
      "user": "Anmar21",
      "uid": 10372988,
      "tags": {
        "amenity": "bar"
      }
    },
    {
      "type": "node",
      "id": 6896678186,
      "lat": 31.3181994,
      "lon": 45.1917816,
      "timestamp": "2019-10-18T18:47:36Z",
      "version": 1,
      "changeset": 75910175,
      "user": "HATEM707ham",
      "uid": 10392654,
      "tags": {
        "amenity": "pub",
        "name": "Ø§Ù…Ø¬Ø¯ Ø§Ø¨Ùˆ Ø§Ù„Ù†Ø¹ÙˆØ³ÙŠ",
        "phone": "07811014998"
      }
    },
    {
      "type": "node",
      "id": 6901763385,
      "lat": 33.0752255,
      "lon": 46.0159205,
      "timestamp": "2019-10-21T06:08:02Z",
      "version": 1,
      "changeset": 75974957,
      "user": "Ahmed Abdulhadi",
      "uid": 10398171,
      "tags": {
        "amenity": "pub",
        "name": "B 25"
      }
    },
    {
      "type": "node",
      "id": 6901763386,
      "lat": 33.0752128,
      "lon": 46.0159249,
      "timestamp": "2019-10-21T06:08:03Z",
      "version": 1,
      "changeset": 75974957,
      "user": "Ahmed Abdulhadi",
      "uid": 10398171,
      "tags": {
        "amenity": "pub",
        "name": "B0 25"
      }
    },
    {
      "type": "node",
      "id": 6934341285,
      "lat": 32.7180136,
      "lon": 44.2709066,
      "timestamp": "2019-10-31T09:06:48Z",
      "version": 1,
      "changeset": 76436947,
      "user": "Coolbaro",
      "uid": 6602417,
      "tags": {
        "amenity": "pub",
        "name": "Ù‚Ø·Ø¹ Ø¬Ø§Ø±Ø¬Ø±"
      }
    },
    {
      "type": "node",
      "id": 6938759094,
      "lat": 36.1805847,
      "lon": 44.0125492,
      "timestamp": "2019-11-02T06:45:12Z",
      "version": 1,
      "changeset": 76520757,
      "user": "aram-soft",
      "uid": 10430902,
      "tags": {
        "amenity": "bar",
        "name": "Masaj"
      }
    },
    {
      "type": "node",
      "id": 6978764385,
      "lat": 34.4191086,
      "lon": 43.8282555,
      "timestamp": "2024-06-18T04:37:09Z",
      "version": 3,
      "changeset": 152828021,
      "user": "mavl",
      "uid": 564990,
      "tags": {
        "amenity": "pub",
        "name": "Ø§Ù„ÙÙˆØ¬ Ø§Ù„Ø£ÙˆÙ„ Ù„ÙˆØ§Ø¡ Ù¡Ù§"
      }
    },
    {
      "type": "node",
      "id": 6985067785,
      "lat": 33.3249033,
      "lon": 44.4123042,
      "timestamp": "2021-02-04T21:03:54Z",
      "version": 2,
      "changeset": 98726967,
      "user": "TobiasFischer00",
      "uid": 11418917,
      "tags": {
        "amenity": "pub",
        "name": "Ù…Ø§Ù†ÙˆÙŠÙ„"
      }
    },
    {
      "type": "node",
      "id": 7023871986,
      "lat": 36.2548389,
      "lon": 43.9905292,
      "timestamp": "2019-12-01T17:07:17Z",
      "version": 1,
      "changeset": 77786759,
      "user": "86Ahmed",
      "uid": 6092608,
      "tags": {
        "amenity": "pub",
        "name": "Ù…Ù„Ù‡Ù‰ ØªØ§ÙŠÙ…"
      }
    },
    {
      "type": "node",
      "id": 7033665585,
      "lat": 35.5881493,
      "lon": 45.3838595,
      "timestamp": "2020-06-06T20:25:13Z",
      "version": 2,
      "changeset": 86290140,
      "user": "Renas Azad",
      "uid": 5663583,
      "tags": {
        "amenity": "bar",
        "name": "Ø¯Ù‡Û†Ú© Ø¨Ø§Ø±",
        "name:ar": "Ù…Ø·Ø¹Ù… ÙˆÙ…Ø´Ø±Ø¨ Ø¯Ù‡ÙˆÙƒ",
        "name:en": "Duhok bar",
        "name:ku": "Ø¯Ù‡ÙˆÙƒ Ø¨Ø§Ø±"
      }
    },
    {
      "type": "node",
      "id": 7037190085,
      "lat": 35.5589468,
      "lon": 45.4234936,
      "timestamp": "2019-12-05T23:24:03Z",
      "version": 1,
      "changeset": 78019364,
      "user": "Mohammed Algburi",
      "uid": 4361568,
      "tags": {
        "amenity": "bar",
        "name": "Ù…Ù„Ù‡Ù‰ Ø±ÙˆØ¯ÙˆØ³"
      }
    },
    {
      "type": "node",
      "id": 7038959890,
      "lat": 30.6344425,
      "lon": 45.8909793,
      "timestamp": "2019-12-06T16:28:22Z",
      "version": 1,
      "changeset": 78063700,
      "user": "AhmedLaw",
      "uid": 10528622,
      "tags": {
        "amenity": "pub",
        "name": "Ù…Ø²Ø±Ø¹Ø© Ø­ÙŠØ¯Ø± Ø§Ù„Ù…Ø±ÙˆØ±"
      }
    },
    {
      "type": "node",
      "id": 7048424685,
      "lat": 33.3536403,
      "lon": 44.3621112,
      "timestamp": "2019-12-11T05:39:51Z",
      "version": 1,
      "changeset": 78240053,
      "user": "Ù‡Ø´ÛØ§Ù… Ø§Ù„ÛØ¹ÛØ¨ÙˆØ¯ÙŠÛ",
      "uid": 6897557,
      "tags": {
        "amenity": "pub",
        "name": "Ù…Ø­Ù…Ø¯ Ø¯Ø¹Ø¨ÙˆÙ„"
      }
    },
    {
      "type": "node",
      "id": 7054225587,
      "lat": 36.3156131,
      "lon": 43.1936083,
      "timestamp": "2019-12-13T10:13:39Z",
      "version": 1,
      "changeset": 78365603,
      "user": "Starzuhairi",
      "uid": 9082835,
      "tags": {
        "amenity": "pub",
        "name": "Ø´Ø§ÙŠ Ø®Ø§Ù†Ù‡"
      }
    },
    {
      "type": "node",
      "id": 7072670885,
      "lat": 33.307014,
      "lon": 44.4240688,
      "timestamp": "2021-04-18T20:54:34Z",
      "version": 2,
      "changeset": 103153950,
      "user": "TobiasFischer00",
      "uid": 11418917,
      "tags": {
        "amenity": "pub",
        "name": "Ù…Ù‚Ù‡Ù‰ Ø§Ø¨Ùˆ Ø²Ù‡Ø±Ø§Ø¡"
      }
    },
    {
      "type": "node",
      "id": 7076448785,
      "lat": 33.3016789,
      "lon": 44.4383221,
      "timestamp": "2019-12-21T22:51:27Z",
      "version": 1,
      "changeset": 78723056,
      "user": "Saif Al-Bayati",
      "uid": 10269950,
      "tags": {
        "addr:street": "Ø³Ø§Ø­Ø© Ø¹Ù‚Ø¨Ø© Ø¨Ù† Ù†Ø§ÙØ¹",
        "amenity": "pub",
        "name": "Ø¯Ù…Ø¨Ù„Ù‡"
      }
    },
    {
      "type": "node",
      "id": 7120930585,
      "lat": 31.7146818,
      "lon": 46.1183469,
      "timestamp": "2020-01-10T03:11:21Z",
      "version": 1,
      "changeset": 79399671,
      "user": "Ø¹Ù„ÙŠ Ø§Ù„Ø¨Ø¯Ø±ÙŠ",
      "uid": 8980618,
      "tags": {
        "amenity": "bar",
        "name": "Ø¹Ù„ÙŠ",
        "name:en": "alialbadry",
        "name:ku": "Ø§Ù„Ø¨Ø¯Ø±ÙŠ",
        "phone": "07811881011"
      }
    },
    {
      "type": "node",
      "id": 7122207685,
      "lat": 32.5860512,
      "lon": 44.0392136,
      "timestamp": "2025-01-11T10:14:43Z",
      "version": 3,
      "changeset": 161233189,
      "user": "Nawfal85",
      "uid": 3047442,
      "tags": {
        "amenity": "pub",
        "internet_access": "wlan",
        "name": "Ø´Ø±ÙƒØ© Ø¶Ø±ØºØ§Ù… SpeedNet"
      }
    },
    {
      "type": "node",
      "id": 7142838587,
      "lat": 30.7871172,
      "lon": 44.971145,
      "timestamp": "2020-01-19T14:50:48Z",
      "version": 1,
      "changeset": 79756829,
      "user": "Alimunther12",
      "uid": 10492521,
      "tags": {
        "amenity": "pub",
        "name": "Ø§Ø¨Ùˆ Ø³ÙŠÙ"
      }
    },
    {
      "type": "node",
      "id": 7142968685,
      "lat": 39.1141339,
      "lon": 45.3044438,
      "timestamp": "2023-03-28T08:26:24Z",
      "version": 2,
      "changeset": 134208882,
      "user": "mrash14",
      "uid": 2350452,
      "tags": {
        "addr:street": "Ø¢Ø°Ø±Ø¨Ø§ÛŒØ¬Ø§Ù† ØºØ±Ø¨ÛŒ Ù¾Ù„Ø¯Ø´Øª Ø¨Ø®Ø´ Ø§Ø±Ø³ Ø­Ø³Ù† Ú©Ù†Ø¯ÛŒ",
        "amenity": "biergarten",
        "name": "ØºØ°Ø§Ø®ÙˆØ±ÛŒ ØºÙ„Ø§Ù… Ø¢Ø´Ù¾Ø²",
        "phone": "+98 914 962 7892"
      }
    },
    {
      "type": "node",
      "id": 7226614985,
      "lat": 34.3839275,
      "lon": 45.3032631,
      "timestamp": "2020-02-19T07:09:26Z",
      "version": 1,
      "changeset": 81206519,
      "user": "Ø§Ø¨Ùˆ Ù†ÙˆØ± Ø§Ù„Ù†ÙŠØ§Ø²ÙŠ",
      "uid": 6135771,
      "tags": {
        "amenity": "pub"
      }
    },
    {
      "type": "node",
      "id": 7230076586,
      "lat": 38.0712698,
      "lon": 46.3805686,
      "timestamp": "2023-03-28T08:26:24Z",
      "version": 2,
      "changeset": 134208882,
      "user": "mrash14",
      "uid": 2350452,
      "tags": {
        "addr:street": "Ú©Ø§Ø¬",
        "amenity": "biergarten",
        "name": "Ø±Ø³ØªÙˆØ±Ø§Ù† Ú©Ø§Ø¬",
        "name:en": "Kaj restoran",
        "phone": "+98 41 3669 5987"
      }
    },
    {
      "type": "node",
      "id": 7231221085,
      "lat": 33.3991827,
      "lon": 44.4314269,
      "timestamp": "2020-02-20T18:40:32Z",
      "version": 1,
      "changeset": 81287033,
      "user": "Ibrahim77",
      "uid": 10806507,
      "tags": {
        "amenity": "biergarten"
      }
    },
    {
      "type": "node",
      "id": 7254797785,
      "lat": 30.517166,
      "lon": 47.8138174,
      "timestamp": "2020-03-01T08:41:42Z",
      "version": 1,
      "changeset": 81637684,
      "user": "Ù„Ø¨ÙŠÙƒ ÙŠØ§Ø­Ø³ÙŠÙ†",
      "uid": 7707962,
      "tags": {
        "amenity": "bar"
      }
    },
    {
      "type": "node",
      "id": 7255144186,
      "lat": 31.9962214,
      "lon": 44.9037054,
      "timestamp": "2024-06-18T04:37:09Z",
      "version": 3,
      "changeset": 152828021,
      "user": "mavl",
      "uid": 564990,
      "tags": {
        "amenity": "pub",
        "name": "Ø±Ø¨ÙŠØªØ± Ø¹Ø¨Ø§Ø³ Ø§Ù… Ø§Ù„Ø®ÙŠÙ„"
      }
    },
    {
      "type": "node",
      "id": 7264861485,
      "lat": 33.4368956,
      "lon": 43.2810175,
      "timestamp": "2020-03-04T21:39:03Z",
      "version": 1,
      "changeset": 81793552,
      "user": "Ahmet Koylu",
      "uid": 3903137,
      "tags": {
        "amenity": "pub"
      }
    },
    {
      "type": "node",
      "id": 7289390788,
      "lat": 36.2355607,
      "lon": 44.0015982,
      "timestamp": "2020-03-12T19:14:07Z",
      "version": 1,
      "changeset": 82127252,
      "user": "Sxor",
      "uid": 10880019,
      "tags": {
        "amenity": "bar",
        "name": "nothing important"
      }
    },
    {
      "type": "node",
      "id": 7299754885,
      "lat": 35.0213439,
      "lon": 43.5500228,
      "timestamp": "2020-03-16T17:02:40Z",
      "version": 1,
      "changeset": 82267282,
      "user": "Omar Hmood",
      "uid": 10287162,
      "tags": {
        "addr:street": "Bayji-Kirkuk Road",
        "amenity": "pub",
        "name": "ØªÙ‚Ø§Ø·Ø¹ Ù…Ø¹Ù‡Ø¯ Ù†ÙØ· Ø¨ÙŠØ¬ÙŠ Ø§Ù„Ù‚Ø¯ÙŠÙ…"
      }
    },
    {
      "type": "node",
      "id": 7430174385,
      "lat": 33.2517285,
      "lon": 44.1699135,
      "timestamp": "2020-04-21T13:21:15Z",
      "version": 1,
      "changeset": 83883646,
      "user": "Ali 197312",
      "uid": 10592850,
      "tags": {
        "amenity": "pub",
        "name": "Ø¹Ø²Ø§Ù…"
      }
    },
    {
      "type": "node",
      "id": 7528078186,
      "lat": 39.7403683,
      "lon": 47.0280909,
      "timestamp": "2024-11-06T08:22:46Z",
      "version": 2,
      "changeset": 158807399,
      "user": "cybermapper",
      "uid": 20663926,
      "tags": {
        "addr:postcode": "375000",
        "amenity": "bar",
        "internet_access": "wlan",
        "phone": "097515651"
      }
    },
    {
      "type": "node",
      "id": 7581329085,
      "lat": 37.0295684,
      "lon": 43.0877074,
      "timestamp": "2020-08-28T20:23:35Z",
      "version": 2,
      "changeset": 90098910,
      "user": "Adeel hanna",
      "uid": 7621414,
      "tags": {
        "addr:street": "Ù…Ø·Ø¹Ù… Ùˆ Ù…Ø´Ø±Ø¨ Ú¯Ù„ÙŠ Ø²Ø±Ùˆ",
        "amenity": "pub",
        "name": "Ù…Ø·Ø¹Ù… Ùˆ Ù…Ø´Ø±Ø¨ Ú¯Ù„ÙŠ Ø²Ø±Ùˆ",
        "name:ar": "ÙƒØ±Ù…Ø§Ù†ÙŠ"
      }
    },
    {
      "type": "node",
      "id": 7616440289,
      "lat": 36.2238865,
      "lon": 43.9963735,
      "timestamp": "2024-01-08T10:57:58Z",
      "version": 5,
      "changeset": 146024047,
      "user": "Mahmood_abdul",
      "uid": 12978592,
      "tags": {
        "addr:city": "Ø£Ø±Ø¨ÙŠÙ„",
        "addr:country": "IQ",
        "addr:district": "Ù‚Ø¶Ø§Ø¡ Ø£Ø±Ø¨ÙŠÙ„",
        "addr:postcode": "44003",
        "addr:state": "Ù…Ø­Ø§ÙØ¸Ø© Ø£Ø±Ø¨ÙŠÙ„",
        "addr:subdistrict": "Ù†Ø§Ø­ÙŠØ© Ø¹Ù†ÙƒØ§ÙˆØ§",
        "addr:town": "Ø¹Ù†ÙƒØ§ÙˆØ§",
        "amenity": "bar",
        "name": "Ú¯ÛÚ•Ù…Û•Ù† Ø¨Ø§Ú•",
        "name:ar": "Ø¬ÛŒØ±Ù…Ø§Ù† Ø¨Ø§Ø± Ùˆ Ø±ÛŒØ³ØªÙˆØ±Ø§Ù†Øª",
        "name:en": "German Bar and restaurant",
        "name:ku": "Ø¬ÛØ±Ù…Ø§Ù† Ø¨Ø§Ú• Ùˆ Ú•ÛØ³ØªÙˆØ±Ø§Ù†Øª"
      }
    },
    {
      "type": "node",
      "id": 7627143285,
      "lat": 37.0313261,
      "lon": 43.0880617,
      "timestamp": "2020-06-16T21:00:30Z",
      "version": 1,
      "changeset": 86740523,
      "user": "Adeel hanna",
      "uid": 7621414,
      "tags": {
        "amenity": "pub",
        "name": "Ù…Ø·Ø¹Ù… Ùˆ Ù…Ø´Ø±Ø¨ ÙƒÙ„ÙŠ Ø²Ø±Ùˆ"
      }
    },
    {
      "type": "node",
      "id": 7644533385,
      "lat": 36.1785242,
      "lon": 44.085003,
      "timestamp": "2020-06-22T21:16:48Z",
      "version": 1,
      "changeset": 86999189,
      "user": "Nondeska",
      "uid": 11386887,
      "tags": {
        "addr:housenumber": "000000",
        "addr:postcode": "44001",
        "addr:street": "332-264",
        "amenity": "bar",
        "email": "kawaydeska@gmail.com",
        "internet_access": "wlan",
        "name": "Shbz",
        "name:en": "sHerr",
        "name:ku": "Sherr",
        "opening_hours": "Mo-Su 09:00-18:00",
        "website": "http://nony@gmail.com"
      }
    },
    {
      "type": "node",
      "id": 7728655185,
      "lat": 34.605299,
      "lon": 43.6775712,
      "timestamp": "2020-07-19T15:29:41Z",
      "version": 1,
      "changeset": 88203758,
      "user": "solder",
      "uid": 11361912,
      "tags": {
        "addr:street": "Ø´Ø§Ø±Ø¹ Ø§Ù„Ø¹ØµØ±ÙŠ",
        "amenity": "pub",
        "cuisine": "diner",
        "internet_access": "wlan",
        "name": "Ø¨Ø§Ø±",
        "opening_hours": "24/7"
      }
    },
    {
      "type": "node",
      "id": 7728655286,
      "lat": 34.6099607,
      "lon": 43.6655287,
      "timestamp": "2020-07-19T15:29:42Z",
      "version": 1,
      "changeset": 88203758,
      "user": "solder",
      "uid": 11361912,
      "tags": {
        "amenity": "pub",
        "name": "Ø¨Ø§Ø±"
      }
    },
    {
      "type": "node",
      "id": 7774033585,
      "lat": 35.5839643,
      "lon": 45.4259011,
      "timestamp": "2020-07-31T20:21:58Z",
      "version": 1,
      "changeset": 88797592,
      "user": "Ø§Ù„Ù…Ø´Ø§ØºØ¨ ÙÙƒØªÙˆØ±",
      "uid": 11580461,
      "tags": {
        "amenity": "bar",
        "name": "Ø¨Ø§ØªØ±ÙŠ"
      }
    },
    {
      "type": "node",
      "id": 7803501085,
      "lat": 36.8653455,
      "lon": 42.9438471,
      "timestamp": "2020-08-11T10:00:01Z",
      "version": 1,
      "changeset": 89243443,
      "user": "Yaser Kh",
      "uid": 6285666,
      "tags": {
        "amenity": "pub",
        "name": "Ø´Ø±Ø¨ Ø´Ø±Ø¨"
      }
    },
    {
      "type": "node",
      "id": 7814577385,
      "lat": 36.3047174,
      "lon": 43.7057796,
      "timestamp": "2020-08-15T07:51:02Z",
      "version": 1,
      "changeset": 89438403,
      "user": "Sdeq",
      "uid": 3784070,
      "tags": {
        "amenity": "bar"
      }
    },
    {
      "type": "node",
      "id": 7853381386,
      "lat": 33.2625731,
      "lon": 44.3428141,
      "timestamp": "2020-08-28T12:15:24Z",
      "version": 1,
      "changeset": 90081111,
      "user": "97Waleed",
      "uid": 11722881,
      "tags": {
        "amenity": "biergarten",
        "name": "Ù…ØªÙ†Ø²Ù‡ Ø§Ù„Ø¨ÙŠØ§Ø¹ 3"
      }
    },
    {
      "type": "node",
      "id": 7875418485,
      "lat": 31.0376271,
      "lon": 47.4305332,
      "timestamp": "2020-09-04T11:21:04Z",
      "version": 1,
      "changeset": 90411697,
      "user": "Samer1v1",
      "uid": 11758897,
      "tags": {
        "amenity": "pub",
        "name": "Ø·Ø±ÙŠÙ‚"
      }
    },
    {
      "type": "node",
      "id": 7898772785,
      "lat": 31.3988243,
      "lon": 45.2535606,
      "timestamp": "2020-09-11T22:05:37Z",
      "version": 1,
      "changeset": 90779119,
      "user": "Ameer123409",
      "uid": 5329392,
      "tags": {
        "addr:street": "Ø´Ø§Ø±Ø¹ Ø§Ù…ÙŠØ±",
        "amenity": "pub",
        "email": "ameer123409@gmail.com",
        "internet_access": "wlan",
        "name": "Ø­Ø³ÙˆÙ† Ù…Ø­Ù…Ø¯",
        "opening_hours": "24/7",
        "phone": "07824501171"
      }
    },
    {
      "type": "node",
      "id": 7930836785,
      "lat": 35.3618091,
      "lon": 45.8713655,
      "timestamp": "2020-09-22T09:42:56Z",
      "version": 1,
      "changeset": 91281736,
      "user": "Shadyarrashid",
      "uid": 11144594,
      "tags": {
        "amenity": "bar"
      }
    },
    {
      "type": "node",
      "id": 7972986186,
      "lat": 35.5588429,
      "lon": 45.4288528,
      "timestamp": "2023-10-23T18:50:18Z",
      "version": 2,
      "changeset": 143031158,
      "user": "b-jazz-bot",
      "uid": 9451067,
      "tags": {
        "addr:housenumber": "15",
        "addr:street": "101-35",
        "amenity": "bar",
        "cuisine": "barbecue;italian;italian_pizza;steak_house",
        "email": "info@cafe11.pub",
        "internet_access": "wlan",
        "name": "ÙƒØ§ÙÛ Ù¡Ù¡",
        "name:ar": "Ú©Ø§ÙÙŠ Ù¡Ù¡",
        "name:en": "Cafe 11",
        "name:ku": "Ú©Ø§ÙÛ Ù¡Ù¡",
        "opening_hours": "Mo-Su 14:00-01:00",
        "phone": "+9647714131111",
        "website": "https://www.cafe11.pub/"
      }
    },
    {
      "type": "node",
      "id": 7986828385,
      "lat": 31.9976242,
      "lon": 44.8748172,
      "timestamp": "2020-10-08T05:35:12Z",
      "version": 1,
      "changeset": 92144869,
      "user": "Ø§Ù„Ø¯ÙƒØªÙˆØ± Ø¹Ø¨Ø¯ Ø§Ù„Ø±Ø²Ø§Ù‚ Ø§Ù„Ø­Ø§Ø¬Ù…",
      "uid": 11949259,
      "tags": {
        "addr:housenumber": "07826546188",
        "addr:postcode": "00964",
        "addr:street": "Ø´Ø§Ø±Ø¹ Ø¹Ø´Ø±ÙŠÙ†",
        "amenity": "pub",
        "name": "Ø§Ù„Ø¯ÙƒØªÙˆØ± Ø¹Ø¨Ø¯ Ø§Ù„Ø±Ø²Ø§Ù‚",
        "opening_hours": "24/7",
        "phone": "07826546188"
      }
    },
    {
      "type": "node",
      "id": 7993546385,
      "lat": 30.997929,
      "lon": 47.2601558,
      "timestamp": "2020-10-09T22:01:28Z",
      "version": 1,
      "changeset": 92257400,
      "user": "Adelajeel",
      "uid": 11960491,
      "tags": {
        "addr:housenumber": "2019",
        "addr:postcode": "2019",
        "addr:street": "Ø´Ø§Ø±Ø¹ Ø§Ù… Ø§Ù„Ø´ÙˆÙŠÚ†",
        "amenity": "bar",
        "name": "Ø§Ù… Ø§Ù„Ø´ÙˆÙŠÚ†. Ø­ÙŠ Ø§Ù„Ù‚Ø¨Ù„Ø©",
        "name:en": "Umm al-Shuwaikh. Al-Qibla neighborhood",
        "name:ku": "Umm el-Shuwaikh. Taxa Al-Qibla",
        "opening_hours": "24/7",
        "phone": "99999999"
      }
    },
    {
      "type": "node",
      "id": 8006361689,
      "lat": 33.3649495,
      "lon": 44.2556382,
      "timestamp": "2020-10-14T11:06:46Z",
      "version": 1,
      "changeset": 92468275,
      "user": "Ø­ÙŠØ¯Ø± Ø­Ø³Ù† Ø¹Ù„ÙŠ Ø§Ù„Ù…Ù„Ø§",
      "uid": 5258725,
      "tags": {
        "amenity": "pub",
        "name": "Ù‚Ø·Ø§Ø¹14"
      }
    },
    {
      "type": "node",
      "id": 8011265314,
      "lat": 36.1893705,
      "lon": 44.0061386,
      "timestamp": "2020-10-15T21:55:13Z",
      "version": 1,
      "changeset": 92545067,
      "user": "ÙˆØ³Ø§Ù… Ø·Ù„Ø§Ù„",
      "uid": 10413916,
      "tags": {
        "amenity": "bar",
        "name": "ÙƒØ±Ø§Ø¬ Ø³ÙŠØ§Ø±Ø©"
      }
    },
    {
      "type": "node",
      "id": 8065246585,
      "lat": 35.588496,
      "lon": 45.3837771,
      "timestamp": "2020-10-30T10:53:16Z",
      "version": 1,
      "changeset": 93285199,
      "user": "Soso Kirkuk",
      "uid": 9437343,
      "tags": {
        "amenity": "bar",
        "name": "Ù‚Ø§Ø¹Ù‡ Ø³Ø±Ø¬Ù†Ø§Ø±"
      }
    },
    {
      "type": "node",
      "id": 8071156885,
      "lat": 36.2213381,
      "lon": 43.9932286,
      "timestamp": "2024-01-08T10:57:58Z",
      "version": 4,
      "changeset": 146024047,
      "user": "Mahmood_abdul",
      "uid": 12978592,
      "tags": {
        "addr:city": "Ø£Ø±Ø¨ÙŠÙ„",
        "addr:country": "IQ",
        "addr:district": "Ù‚Ø¶Ø§Ø¡ Ø£Ø±Ø¨ÙŠÙ„",
        "addr:postcode": "44003",
        "addr:state": "Ù…Ø­Ø§ÙØ¸Ø© Ø£Ø±Ø¨ÙŠÙ„",
        "addr:subdistrict": "Ù†Ø§Ø­ÙŠØ© Ø¹Ù†ÙƒØ§ÙˆØ§",
        "addr:town": "Ø¹Ù†ÙƒØ§ÙˆØ§",
        "amenity": "pub",
        "name": "Ø¹ÙŠÙ† ÙƒØ§ÙˆÙ‡",
        "name:en": "ein kawah"
      }
    },
    {
      "type": "node",
      "id": 8127065917,
      "lat": 36.2199546,
      "lon": 43.988996,
      "timestamp": "2024-01-08T10:57:58Z",
      "version": 4,
      "changeset": 146024047,
      "user": "Mahmood_abdul",
      "uid": 12978592,
      "tags": {
        "addr:city": "Ø£Ø±Ø¨ÙŠÙ„",
        "addr:country": "IQ",
        "addr:district": "Ù‚Ø¶Ø§Ø¡ Ø£Ø±Ø¨ÙŠÙ„",
        "addr:postcode": "44003",
        "addr:state": "Ù…Ø­Ø§ÙØ¸Ø© Ø£Ø±Ø¨ÙŠÙ„",
        "addr:subdistrict": "Ù†Ø§Ø­ÙŠØ© Ø¹Ù†ÙƒØ§ÙˆØ§",
        "addr:town": "Ø¹Ù†ÙƒØ§ÙˆØ§",
        "amenity": "pub",
        "name": "Ø±Ø³ÙŠÙ†ÙŠØ§"
      }
    },
    {
      "type": "node",
      "id": 8138519157,
      "lat": 35.6076179,
      "lon": 45.4106895,
      "timestamp": "2020-11-18T18:06:54Z",
      "version": 1,
      "changeset": 94385531,
      "user": "Shadyarrashid",
      "uid": 11144594,
      "tags": {
        "amenity": "bar"
      }
    },
    {
      "type": "node",
      "id": 8148490417,
      "lat": 30.4367447,
      "lon": 47.3165104,
      "timestamp": "2020-11-21T10:31:24Z",
      "version": 1,
      "changeset": 94538593,
      "user": "Ø´Ø±Ø·Ù‡ Ø§Ù„Ù†ÙØ·",
      "uid": 12213323,
      "tags": {
        "amenity": "pub",
        "name": "Ø¨ÙŠØ± Ù¡Ù¦Ù£"
      }
    },
    {
      "type": "node",
      "id": 8151187818,
      "lat": 32.5210086,
      "lon": 46.5592491,
      "timestamp": "2020-11-22T13:36:19Z",
      "version": 1,
      "changeset": 94580312,
      "user": "Ø¹Ù„ÙŠ Ø³Ø¹Ø¯12",
      "uid": 11133930,
      "tags": {
        "amenity": "pub",
        "name": "ÙƒØ³ Ø§Ù…ÙƒÙ…"
      }
    },
    {
      "type": "node",
      "id": 8192083539,
      "lat": 32.5609401,
      "lon": 44.2686858,
      "timestamp": "2020-12-03T21:37:35Z",
      "version": 2,
      "changeset": 95250153,
      "user": "Zahir Alaboodi",
      "uid": 12281315,
      "tags": {
        "addr:street": "Ù‚Ø¨Ø± Ø§Ø¨ÙˆÙŠÙ‡",
        "amenity": "bar"
      }
    },
    {
      "type": "node",
      "id": 8202984818,
      "lat": 37.5077695,
      "lon": 45.027279,
      "timestamp": "2020-12-07T19:10:29Z",
      "version": 1,
      "changeset": 95441612,
      "user": "AMIN SEPEHR",
      "uid": 8819063,
      "tags": {
        "addr:street": "Ø¬Ø§Ù†ÙˆÛŒØ³Ù„Ùˆ",
        "amenity": "bar"
      }
    },
    {
      "type": "node",
      "id": 8226591324,
      "lat": 36.1919716,
      "lon": 43.9592545,
      "timestamp": "2025-08-06T02:04:29Z",
      "version": 4,
      "changeset": 170033850,
      "user": "Ú•Ø§Ø³ØªÛŒ",
      "uid": 4800812,
      "tags": {
        "addr:city": "Ù‡Û•ÙˆÙ„ÛØ±",
        "addr:district": "Ø´Ø§Ø±Û†Ú†Ú©Û•ÛŒ Ù†Ø§ÙˆÛ•Ù†Ø¯ÛŒ Ù‡Û•ÙˆÙ„ÛØ±",
        "addr:region": "Ú©ÙˆØ±Ø¯Ø³ØªØ§Ù†",
        "addr:state": "Ù¾Ø§Ø±ÛØ²Ú¯Ø§ÛŒ Ù‡Û•ÙˆÙ„ÛØ±",
        "amenity": "biergarten",
        "shop": "supermarket"
      }
    },
    {
      "type": "node",
      "id": 8231439365,
      "lat": 31.8594728,
      "lon": 46.0770382,
      "timestamp": "2020-12-15T15:18:32Z",
      "version": 1,
      "changeset": 95884525,
      "user": "Ù…Ù‡Ø¯ÙŠ Ø³Ø¹Ø¯ÙŠ Ø§Ù„Ø³Ø§Ø¹Ø¯ÙŠ",
      "uid": 11692588,
      "tags": {
        "amenity": "bar",
        "name": "ØµÙˆØ±Ø© Ù…Ù‚ØªØ¯Ø©"
      }
    },
    {
      "type": "node",
      "id": 8238579417,
      "lat": 33.3171789,
      "lon": 44.4813985,
      "timestamp": "2020-12-17T20:50:32Z",
      "version": 1,
      "changeset": 96027621,
      "user": "Ø§Ø¨Ùˆ ÙŠÙˆØ³Ù(Ø§Ø­Ù…Ø¯)",
      "uid": 12188503,
      "tags": {
        "amenity": "pub",
        "name": "Ù…Ø´Ø±ÙˆØ¨Ø§Øª ÙƒØ­ÙˆÙ„ÙŠÙ‡"
      }
    },
    {
      "type": "node",
      "id": 8242850217,
      "lat": 33.3880487,
      "lon": 44.4850842,
      "timestamp": "2020-12-19T14:38:48Z",
      "version": 1,
      "changeset": 96110738,
      "user": "Ø§Ø¨Ùˆ ÙŠÙˆØ³Ù(Ø§Ø­Ù…Ø¯)",
      "uid": 12188503,
      "tags": {
        "amenity": "bar",
        "name": "Ø´Ø±ÙƒØ© Ø§Ù„Ø§Ù†ÙˆØ§Ø±"
      }
    },
    {
      "type": "node",
      "id": 8245071317,
      "lat": 30.5014335,
      "lon": 47.8542388,
      "timestamp": "2020-12-20T14:59:49Z",
      "version": 1,
      "changeset": 96142990,
      "user": "ibrahem07",
      "uid": 8428617,
      "tags": {
        "amenity": "pub",
        "name": "Ø§Ø¨Ùˆ Ø¨Ø´ÙŠØ±"
      }
    },
    {
      "type": "node",
      "id": 8272547817,
      "lat": 33.3008128,
      "lon": 44.4345339,
      "timestamp": "2020-12-30T01:07:55Z",
      "version": 1,
      "changeset": 96630846,
      "user": "Aseelxp",
      "uid": 11254645,
      "tags": {
        "amenity": "bar",
        "name:en": "ishory club"
      }
    },
    {
      "type": "node",
      "id": 8283182717,
      "lat": 33.3820497,
      "lon": 44.4309492,
      "timestamp": "2021-01-02T10:28:06Z",
      "version": 1,
      "changeset": 96800685,
      "user": "Ø§Ø¨Ùˆ ÙŠÙˆØ³Ù(Ø§Ø­Ù…Ø¯)",
      "uid": 12188503,
      "tags": {
        "amenity": "pub",
        "name": "Ø§ÙØ±Ø§Ù† ÙˆÙ…Ø¹Ø¬Ù†Ø§Øª ÙÙ„Ø³"
      }
    },
    {
      "type": "node",
      "id": 8288586921,
      "lat": 32.4909164,
      "lon": 44.44935,
      "timestamp": "2021-01-04T06:43:18Z",
      "version": 1,
      "changeset": 96882898,
      "user": "Manar Al Soltany",
      "uid": 6809031,
      "tags": {
        "amenity": "bar",
        "name": "Ø§Ù… Ø³Ø¹Ø¯ Ø­Ø§Ù†ÙˆØª Ø§Ù„Ø®Ø¯Ù…Ø§Øª Ø¬Ø§ÙŠ ÙˆØ±ÙŠÙˆÙƒ"
      }
    },
    {
      "type": "node",
      "id": 8290090418,
      "lat": 32.3006255,
      "lon": 44.6743386,
      "timestamp": "2021-01-04T16:06:52Z",
      "version": 1,
      "changeset": 96920858,
      "user": "@hmaaade",
      "uid": 12432617,
      "tags": {
        "amenity": "pub",
        "name": "Ø¨Ø§Ø± Ù‚Ø§Ø³Ù…"
      }
    },
    {
      "type": "node",
      "id": 8290450417,
      "lat": 33.2516389,
      "lon": 44.3969476,
      "timestamp": "2021-01-04T17:28:59Z",
      "version": 1,
      "changeset": 96924947,
      "user": "Ø¨ÙŠØª Ø§Ù„Ø­Ø§Ø¬ Ø­ÙŠØ¯Ø± Ø§Ù„Ø´Ù…Ø±ÙŠ",
      "uid": 12022307,
      "tags": {
        "amenity": "pub",
        "internet_access": "wlan",
        "name": "Ø¹Ù…Ø§Ø±10"
      }
    },
    {
      "type": "node",
      "id": 8300408200,
      "lat": 33.3758206,
      "lon": 44.3656454,
      "timestamp": "2021-01-07T16:00:37Z",
      "version": 1,
      "changeset": 97119506,
      "user": "Adnan Alzyadi",
      "uid": 12448460,
      "tags": {
        "amenity": "bar",
        "name": "Ù…Ø¹Ø¬Ù†Ø§Øª Ø¯Ø§Ù†ÙŠÙ‡ Ø§Ù„Ø¬Ø¯ÙŠØ¯"
      }
    },
    {
      "type": "node",
      "id": 8307711418,
      "lat": 33.2913957,
      "lon": 44.4215759,
      "timestamp": "2021-01-10T02:54:04Z",
      "version": 1,
      "changeset": 97234606,
      "user": "Morri56",
      "uid": 12459859,
      "tags": {
        "addr:street": "Ø´Ø§Ø±Ø¹ Ø¹Ø±ØµØ§Øª Ø§Ù„Ù‡Ù†Ø¯ÙŠØ©",
        "amenity": "pub",
        "internet_access": "wlan",
        "name": "Ù…Ø®Ø²Ù† Ø±ÙƒÙ† Ø§Ù„Ø¹Ø±ØµØ§Øª",
        "opening_hours": "Mo-Su 10:00-22:00"
      }
    },
    {
      "type": "node",
      "id": 8308101420,
      "lat": 33.2844585,
      "lon": 44.2810873,
      "timestamp": "2022-03-31T12:08:58Z",
      "version": 2,
      "changeset": 119157137,
      "user": "Hamoodi",
      "uid": 9409985,
      "tags": {
        "amenity": "pub",
        "name": "Ø§Ù„Ø¨ÙŠØ§Ù†"
      }
    },
    {
      "type": "node",
      "id": 8329695219,
      "lat": 32.5706285,
      "lon": 44.4297971,
      "timestamp": "2021-01-17T08:45:19Z",
      "version": 1,
      "changeset": 97629061,
      "user": "mram145a",
      "uid": 12478052,
      "tags": {
        "amenity": "pub",
        "name": "ØµÙ…Ø§Ù… Ø§Ù„Ø§Ø«Ø§Ø±"
      }
    },
    {
      "type": "node",
      "id": 8336030717,
      "lat": 32.0277037,
      "lon": 44.3812242,
      "timestamp": "2021-01-18T22:46:20Z",
      "version": 1,
      "changeset": 97724460,
      "user": "DrHussein Alkaaby",
      "uid": 12507671,
      "tags": {
        "amenity": "pub",
        "name": "Ø¨Ø§Ø± Ø¨ÙˆØ§Ù„Ø¯ÙŠÙ‡"
      }
    },
    {
      "type": "node",
      "id": 8354113417,
      "lat": 33.3126026,
      "lon": 44.4883236,
      "timestamp": "2021-01-23T08:45:42Z",
      "version": 1,
      "changeset": 98010192,
      "user": "ÙˆØ³Ø§Ù… Ø§Ù„Ø­Ù„ÙˆØ§Ù†ÙŠ",
      "uid": 12534179,
      "tags": {
        "amenity": "pub"
      }
    },
    {
      "type": "node",
      "id": 8373143617,
      "lat": 33.3035853,
      "lon": 44.4717303,
      "timestamp": "2021-01-28T20:02:13Z",
      "version": 1,
      "changeset": 98317993,
      "user": "ØµØ·Ù",
      "uid": 10598746,
      "tags": {
        "amenity": "bar",
        "name": "ÙƒÙ‡ÙˆØ© Ø³Ù…Ø§Ø±Ø©"
      }
    },
    {
      "type": "node",
      "id": 8403714218,
      "lat": 33.313401,
      "lon": 44.4258197,
      "timestamp": "2021-02-08T04:34:15Z",
      "version": 1,
      "changeset": 98876891,
      "user": "Ø¹Ø¨Ø¯Ø§Ù„Ø¹Ø²ÙŠØ² Ø§Ù„Ø²Ù‡ÙŠØ±ÙŠ",
      "uid": 5337650,
      "tags": {
        "amenity": "pub",
        "name": "Ù†Ø§Ø¯ÙŠ Ø§Ù„ÙƒÙˆØ®"
      }
    },
    {
      "type": "node",
      "id": 8461154624,
      "lat": 36.392977,
      "lon": 43.6548329,
      "timestamp": "2021-02-26T13:09:11Z",
      "version": 1,
      "changeset": 100053050,
      "user": "Mohammad Shamsaxri",
      "uid": 11136956,
      "tags": {
        "addr:street": "Duhok-Hawler road",
        "amenity": "bar",
        "name": "Ú¯Û•Ù„ÛŒ Ù…Ø§Ø±",
        "name:en": "Gali Mar"
      }
    },
    {
      "type": "node",
      "id": 8462229317,
      "lat": 32.3791274,
      "lon": 44.4432609,
      "timestamp": "2021-02-26T20:40:48Z",
      "version": 1,
      "changeset": 100073953,
      "user": "Ø³Ø¬Ø§Ø¯ ÙƒØ§Ø¸Ù…",
      "uid": 12749851,
      "tags": {
        "amenity": "pub",
        "internet_access": "wlan",
        "name": "Ø­Ø³ÙˆÙ†ÙŠ Ø§Ù„Ù…Ø´Ø§ÙƒØ³"
      }
    },
    {
      "type": "node",
      "id": 8506374518,
      "lat": 32.3694748,
      "lon": 44.5934644,
      "timestamp": "2021-03-11T09:27:34Z",
      "version": 1,
      "changeset": 100830498,
      "user": "Ù…Ø­Ù…Ø¯ Ø§Ù„Ù…ÙŠØ§Ù„ÙŠ Ø§Ù„Ù…ÙŠØ§Ù„ÙŠ Ø§Ù„Ù…ÙŠØ§Ù„ÙŠ",
      "uid": 12779693,
      "tags": {
        "amenity": "pub",
        "name": "Ù…Ø­Ù…Ø¯ Ø¹Ø§Ù…Ø± Ø«Ø¹Ø¨Ø§Ù†"
      }
    },
    {
      "type": "node",
      "id": 8548053717,
      "lat": 33.3213761,
      "lon": 44.2964705,
      "timestamp": "2024-01-17T23:18:06Z",
      "version": 2,
      "changeset": 146384219,
      "user": "Hesh1414",
      "uid": 14624826,
      "tags": {
        "amenity": "bar",
        "name": "Ù…ÙƒØªØ¨ Ø§Ù„Ø¬Ø²ÙŠØ±Ø© Ù„Ù„Ù…Ø¹Ø³Ù„Ø§Øª",
        "name:ar": "Ù…ÙƒØªØ¨ Ø§Ù„Ø¬Ø²ÙŠØ±Ø© Ù„Ù„Ø³ÙƒØ§Ø¦Ø± Ùˆ Ø§Ù„Ù…Ø¹Ø³Ù„Ø§Øª",
        "name:en": "Aljazeera office for cigarettes and liqueurs"
      }
    },
    {
      "type": "node",
      "id": 8568644317,
      "lat": 38.0365538,
      "lon": 46.2075457,
      "timestamp": "2021-03-28T08:39:52Z",
      "version": 1,
      "changeset": 101864395,
      "user": "Siiinaaa",
      "uid": 12940531,
      "tags": {
        "addr:street": "Ø§ÙˆÚ†Ù…Ø§Ù†",
        "amenity": "biergarten",
        "name": "Ø±Ø³ØªÙˆØ±Ø§Ù† Ø§Ø¨Ø±Ø§Ù‡ÛŒÙ…"
      }
    },
    {
      "type": "node",
      "id": 8594462372,
      "lat": 37.93465,
      "lon": 40.1551403,
      "timestamp": "2023-09-09T16:44:41Z",
      "version": 2,
      "changeset": 141032065,
      "user": "Mateusz Konieczny - bot account",
      "uid": 3199858,
      "tags": {
        "addr:city": "KayapÄ±nar/DiyarbakÄ±r",
        "addr:district": "KayapÄ±nar",
        "addr:neighbourhood": "Mezopotamya Mahallesi",
        "addr:postcode": "21070",
        "addr:street": "Mahabad BulvarÄ±",
        "amenity": "bar",
        "min_age": "18",
        "name": "BabelTerrace 75",
        "opening_hours": "24/7"
      }
    },
    {
      "type": "node",
      "id": 8595385817,
      "lat": 38.0042104,
      "lon": 46.355739,
      "timestamp": "2023-03-28T08:36:38Z",
      "version": 2,
      "changeset": 134209316,
      "user": "mrash14",
      "uid": 2350452,
      "tags": {
        "addr:street": "Ø¨Ø¹Ø¯ Ø§Ø² ØªØ§Ø¨Ù„Ùˆ Ø¯Ø³Øª Ø±Ø§Ø³Øª Ø¬Ø§Ø¯Ù‡ Ø®Ø§Ú©ÛŒ",
        "amenity": "bar",
        "name": "Ø¨Ø§Ø´Ú¯Ø§Ù‡ Ø³ÙˆØ§Ø±Ú©Ø§Ø±ÛŒ Ø§ÛŒÙ„ Ú¯Ù„ÛŒ Ø¢Ø°Ø±Ø¨Ø§ÛŒØ¬Ø§Ù†",
        "name:en": "Gym horse",
        "opening_hours": "Mo-Su 09:00-23:10",
        "phone": "+98 914 316 2001"
      }
    },
    {
      "type": "node",
      "id": 8688049217,
      "lat": 33.2760338,
      "lon": 44.3066269,
      "timestamp": "2021-05-01T13:54:51Z",
      "version": 1,
      "changeset": 103958203,
      "user": "Salam Yousif",
      "uid": 12362701,
      "tags": {
        "amenity": "bar",
        "name": "Ø­Ù„Ø§Ù‚",
        "name:en": "barbar"
      }
    },
    {
      "type": "node",
      "id": 8700422029,
      "lat": 35.6416621,
      "lon": 44.9797131,
      "timestamp": "2021-05-05T06:12:37Z",
      "version": 1,
      "changeset": 104161605,
      "user": "Renas Azad",
      "uid": 5663583,
      "tags": {
        "amenity": "bar",
        "name": "Ù…Û•ÛŒØ®Ø§Ù†Û•"
      }
    },
    {
      "type": "node",
      "id": 8712824118,
      "lat": 36.2297586,
      "lon": 43.9922715,
      "timestamp": "2021-05-08T19:02:18Z",
      "version": 1,
      "changeset": 104375958,
      "user": "alimtx",
      "uid": 8667151,
      "tags": {
        "amenity": "bar",
        "name": "ÙÙ†Ø¯Ù‚ ÙˆÙ„ØªÙˆÙ† Ø®Ø§Øµ"
      }
    },
    {
      "type": "node",
      "id": 8778539119,
      "lat": 35.5419915,
      "lon": 45.4747939,
      "timestamp": "2021-05-29T08:46:48Z",
      "version": 1,
      "changeset": 105524731,
      "user": "ary muhamad",
      "uid": 13435994,
      "tags": {
        "amenity": "bar",
        "name:en": "eng.ary.house"
      }
    },
    {
      "type": "node",
      "id": 8781193817,
      "lat": 32.0382716,
      "lon": 44.3803869,
      "timestamp": "2021-05-30T14:47:44Z",
      "version": 2,
      "changeset": 105571112,
      "user": "Jaafar Al-janaby",
      "uid": 13443725,
      "tags": {
        "addr:street": "Ø´Ø§Ø±Ø¹ Ø§Ù„Ø³Ù‡Ù„Ø©",
        "amenity": "biergarten",
        "name": "Ù…Ø±ÙƒØ² Ø§Ù„ÙƒÙÙŠÙ„ 149",
        "name:ar": "Ù…Ø±ÙƒØ² Ø§Ù„ÙƒÙÙŠÙ„ 139"
      }
    },
    {
      "type": "node",
      "id": 8787183017,
      "lat": 31.6765517,
      "lon": 44.4788321,
      "timestamp": "2021-05-31T20:40:57Z",
      "version": 1,
      "changeset": 105643945,
      "user": "ÙŠØ¹Ù‚ÙˆØ¨ Ø§Ù„ØºØ²Ø§Ù„ÙŠ",
      "uid": 12927586,
      "tags": {
        "amenity": "bar",
        "name": "Ù†Ø§ÙŠÙ„ÙŠ Ø³ØªÙŠ"
      }
    },
    {
      "type": "node",
      "id": 8790184017,
      "lat": 34.3429456,
      "lon": 47.0892726,
      "timestamp": "2025-01-10T11:18:51Z",
      "version": 2,
      "changeset": 161201216,
      "user": "NotAvailable",
      "uid": 14227497,
      "tags": {
        "amenity": "bar",
        "name": "Ø´Ø§Ø±Ø¹ Ù†ÙˆØ¨Ù‡Ø§Ø±"
      }
    },
    {
      "type": "node",
      "id": 8792927317,
      "lat": 32.1147806,
      "lon": 44.5345281,
      "timestamp": "2021-06-02T19:52:55Z",
      "version": 1,
      "changeset": 105738757,
      "user": "ØµØ§Ø¦Ø¨ Ø§Ù„ÙƒØ±Ø¹Ø§ÙˆÙŠ",
      "uid": 5359735,
      "tags": {
        "amenity": "pub"
      }
    },
    {
      "type": "node",
      "id": 8818333617,
      "lat": 33.3932661,
      "lon": 44.3462885,
      "timestamp": "2021-06-09T16:04:45Z",
      "version": 1,
      "changeset": 106106014,
      "user": "Ø­ÙŠØ¯Ø±_Ø§Ù„Ø®ÙØ§Ø¬ÙŠ",
      "uid": 13524277,
      "tags": {
        "amenity": "pub",
        "name": "Ø¨Ø§Ø±"
      }
    },
    {
      "type": "node",
      "id": 8818333618,
      "lat": 31.5977859,
      "lon": 45.4253512,
      "timestamp": "2021-06-09T16:04:45Z",
      "version": 1,
      "changeset": 106106014,
      "user": "Ø­ÙŠØ¯Ø±_Ø§Ù„Ø®ÙØ§Ø¬ÙŠ",
      "uid": 13524277,
      "tags": {
        "amenity": "bar",
        "name": "ÙØ±Ø¹ Ø§Ù„ÙˆØ±ÙƒØ§Ø¡"
      }
    },
    {
      "type": "node",
      "id": 8837250917,
      "lat": 34.3879441,
      "lon": 40.9910942,
      "timestamp": "2021-06-16T01:27:37Z",
      "version": 1,
      "changeset": 106428331,
      "user": "Omar Alheyile",
      "uid": 6954863,
      "tags": {
        "amenity": "bar"
      }
    },
    {
      "type": "node",
      "id": 8840319917,
      "lat": 32.3644614,
      "lon": 44.6496833,
      "timestamp": "2021-06-16T22:10:09Z",
      "version": 1,
      "changeset": 106492045,
      "user": "Ali59",
      "uid": 13382618,
      "tags": {
        "addr:street": "Ø­ÙŠ Ø§Ù„Ø¬Ù…Ø¹ÙŠØ©",
        "amenity": "pub",
        "name": "Ù…ÙŠØ±Ø²Ø§ Ø¹Ù„ÙŠ ÙƒÙŠÙˆ"
      }
    },
    {
      "type": "node",
      "id": 8863219818,
      "lat": 35.5795489,
      "lon": 45.3990085,
      "timestamp": "2021-06-24T13:32:03Z",
      "version": 1,
      "changeset": 106903598,
      "user": "Lawko",
      "uid": 9492667,
      "tags": {
        "amenity": "bar",
        "name:en": "Froshgay ganjan"
      }
    },
    {
      "type": "node",
      "id": 8866741617,
      "lat": 35.5599673,
      "lon": 45.4278426,
      "timestamp": "2021-06-25T20:28:30Z",
      "version": 1,
      "changeset": 106982925,
      "user": "Ù…ØµØ·ÙÙ‰ Ø­Ù…ÙˆØ¯ÙŠ Ø§Ù„Ø§Ø³Ø¯ÙŠ",
      "uid": 12138098,
      "tags": {
        "amenity": "pub",
        "name": "Ø§Ù„Ø¹Ù‚Ø§Ø±ÙŠ"
      }
    },
    {
      "type": "node",
      "id": 8867297617,
      "lat": 33.3671034,
      "lon": 44.3188955,
      "timestamp": "2024-06-18T04:37:09Z",
      "version": 3,
      "changeset": 152828021,
      "user": "mavl",
      "uid": 564990,
      "tags": {
        "amenity": "bar",
        "name": "Ù…Ù‚Ø± Ù‚Ø§Ø·Ø¹ Ø§Ù„Ø´Ø¹Ù„Ø© Ø­Ù…Ø§ÙŠØ© Ø§Ù„Ù…Ù†Ø´Ø£Øª"
      }
    },
    {
      "type": "node",
      "id": 8900509425,
      "lat": 35.568713,
      "lon": 45.4256481,
      "timestamp": "2021-07-07T09:39:51Z",
      "version": 1,
      "changeset": 107550864,
      "user": "Lawko",
      "uid": 9492667,
      "tags": {
        "amenity": "bar",
        "name:en": "Froshgay masty"
      }
    },
    {
      "type": "node",
      "id": 8953564418,
      "lat": 35.0210694,
      "lon": 40.4550174,
      "timestamp": "2024-10-04T15:22:50Z",
      "version": 2,
      "changeset": 157466532,
      "user": "ASMapper",
      "uid": 18520081,
      "tags": {
        "amenity": "pub"
      }
    },
    {
      "type": "node",
      "id": 8953565518,
      "lat": 34.4139793,
      "lon": 40.9501976,
      "timestamp": "2021-07-27T09:16:19Z",
      "version": 1,
      "changeset": 108674679,
      "user": "Eng danial",
      "uid": 11546245,
      "tags": {
        "amenity": "pub",
        "name": "Ø§Ù„Ù‡Ø±ÙŠ"
      }
    },
    {
      "type": "node",
      "id": 8953595417,
      "lat": 34.9243689,
      "lon": 40.5578539,
      "timestamp": "2021-07-27T09:16:12Z",
      "version": 1,
      "changeset": 108674679,
      "user": "Eng danial",
      "uid": 11546245,
      "tags": {
        "amenity": "pub",
        "name": "Ø§Ù„Ø¹Ø´Ø§Ø±Ø©"
      }
    },
    {
      "type": "node",
      "id": 8953595617,
      "lat": 35.0153674,
      "lon": 40.4482047,
      "timestamp": "2024-10-04T15:22:50Z",
      "version": 2,
      "changeset": 157466532,
      "user": "ASMapper",
      "uid": 18520081,
      "tags": {
        "amenity": "pub"
      }
    },
    {
      "type": "node",
      "id": 8959714617,
      "lat": 31.0644127,
      "lon": 46.2564087,
      "timestamp": "2021-07-29T10:46:11Z",
      "version": 1,
      "changeset": 108817979,
      "user": "Ø£Ù…ÙŠØ± Ø§Ù„Ø­ÙŠØ¯Ø±ÙŠ",
      "uid": 6323957,
      "tags": {
        "amenity": "bar",
        "name": "Ø·Ø§Ø±Ù‚ Ø¹Ø²ÙŠØ²"
      }
    },
    {
      "type": "node",
      "id": 8986503018,
      "lat": 32.0570946,
      "lon": 44.3103793,
      "timestamp": "2021-08-06T18:46:54Z",
      "version": 1,
      "changeset": 109279372,
      "user": "Aqeelmuslim96",
      "uid": 13253412,
      "tags": {
        "amenity": "bar",
        "name": "Ø¹Ø¯ÙŠ Ø´Ø±Ø¨Ù‡"
      }
    },
    {
      "type": "node",
      "id": 9079680519,
      "lat": 33.3051813,
      "lon": 44.4240332,
      "timestamp": "2021-09-10T14:10:21Z",
      "version": 1,
      "changeset": 111026413,
      "user": "Anwer shakir",
      "uid": 13657000,
      "tags": {
        "amenity": "bar",
        "name": "Ù‚Ù‡ÙˆØ© Ø±Ø¶Ø§ Ø¹Ù„ÙˆØ§Ù†"
      }
    },
    {
      "type": "node",
      "id": 9132886817,
      "lat": 33.552176,
      "lon": 44.372283,
      "timestamp": "2021-09-29T17:44:33Z",
      "version": 1,
      "changeset": 111879241,
      "user": "El capitano90",
      "uid": 13552094,
      "tags": {
        "amenity": "bar",
        "name": "Ø¨Ø±Ø§Ø¯ Ø§Ù„ÙƒÙˆØ«Ø±"
      }
    },
    {
      "type": "node",
      "id": 9168240517,
      "lat": 35.5874339,
      "lon": 45.3836199,
      "timestamp": "2021-10-12T19:41:29Z",
      "version": 1,
      "changeset": 112432716,
      "user": "Sajad_Dody",
      "uid": 4026919,
      "tags": {
        "amenity": "pub",
        "name": "Ø²ÙŠÙƒÙˆ ØªÙ„ÙˆØ«"
      }
    },
    {
      "type": "node",
      "id": 9202905817,
      "lat": 31.6495214,
      "lon": 45.546919,
      "timestamp": "2021-10-26T16:40:15Z",
      "version": 1,
      "changeset": 113002686,
      "user": "Hasanein Haqi",
      "uid": 11889335,
      "tags": {
        "amenity": "bar",
        "name": "Ø§Ù„Ø´ÙˆÙÙ‡"
      }
    },
    {
      "type": "node",
      "id": 9220470917,
      "lat": 33.7553779,
      "lon": 45.7587375,
      "timestamp": "2021-11-03T05:54:18Z",
      "version": 1,
      "changeset": 113313590,
      "user": "Vahid Razmjouee",
      "uid": 10059112,
      "tags": {
        "amenity": "bar",
        "name": "Bar"
      }
    },
    {
      "type": "node",
      "id": 9221742317,
      "lat": 33.3225756,
      "lon": 44.4634867,
      "timestamp": "2021-11-03T17:03:14Z",
      "version": 1,
      "changeset": 113341423,
      "user": "Ø§Ø­Ù…Ø¯ Ù…Ø­Ù…Ø¯ Ø¬Ø§Ø³Ù…",
      "uid": 10318055,
      "tags": {
        "amenity": "bar",
        "name": "Ø§Ù„Ù‚Ø§Ø¹Ø©"
      }
    },
    {
      "type": "node",
      "id": 9346544717,
      "lat": 32.5456951,
      "lon": 44.4177335,
      "timestamp": "2021-12-17T14:37:08Z",
      "version": 1,
      "changeset": 115059321,
      "user": "Muhand22",
      "uid": 10154836,
      "tags": {
        "amenity": "pub",
        "name": "Ø¬ÙˆØ²ÙŠÙ"
      }
    },
    {
      "type": "node",
      "id": 9458235417,
      "lat": 33.3840169,
      "lon": 44.26628,
      "timestamp": "2022-01-29T15:40:48Z",
      "version": 1,
      "changeset": 116749210,
      "user": "Hassanalassdi96",
      "uid": 12258098,
      "tags": {
        "amenity": "bar",
        "cuisine": "barbecue;buschenschank",
        "internet_access": "wlan",
        "name": "Ø­Ø§Ù†Ù‡ Ø§Ø¨Ùˆ Ø´Ø±ÙŠØ³Ø©",
        "opening_hours": "24/7",
        "phone": "07832033105"
      }
    },
    {
      "type": "node",
      "id": 9468809817,
      "lat": 30.5040653,
      "lon": 44.5402848,
      "timestamp": "2022-02-02T14:14:59Z",
      "version": 1,
      "changeset": 116915612,
      "user": "Look9",
      "uid": 11895508,
      "tags": {
        "amenity": "pub",
        "name": "Ø­Ø³ÙŠÙ† ÙØ±Ø¬"
      }
    },
    {
      "type": "node",
      "id": 9487932117,
      "lat": 32.7833034,
      "lon": 46.5999813,
      "timestamp": "2022-02-07T21:02:58Z",
      "version": 1,
      "changeset": 117135970,
      "user": "5444Aboarab",
      "uid": 12398642,
      "tags": {
        "amenity": "pub",
        "name": "Ø®Ø²ÙŠÙ†Ù‡"
      }
    },
    {
      "type": "node",
      "id": 9487932217,
      "lat": 32.6893713,
      "lon": 46.6633444,
      "timestamp": "2022-02-07T21:02:59Z",
      "version": 1,
      "changeset": 117135970,
      "user": "5444Aboarab",
      "uid": 12398642,
      "tags": {
        "amenity": "pub",
        "name": "ÙˆØ§Ø¯ÙŠ Ø¬ÙØªÙ‡"
      }
    },
    {
      "type": "node",
      "id": 9536305017,
      "lat": 35.5886225,
      "lon": 45.3838737,
      "timestamp": "2022-02-26T06:42:50Z",
      "version": 1,
      "changeset": 117870515,
      "user": "Younis San",
      "uid": 8334089,
      "tags": {
        "amenity": "bar",
        "name:en": "vip"
      }
    },
    {
      "type": "node",
      "id": 9549189617,
      "lat": 35.5884419,
      "lon": 45.3838633,
      "timestamp": "2022-03-02T09:32:58Z",
      "version": 1,
      "changeset": 118010888,
      "user": "Hamza al aamree",
      "uid": 12295296,
      "tags": {
        "amenity": "pub"
      }
    },
    {
      "type": "node",
      "id": 9589977917,
      "lat": 32.6355462,
      "lon": 44.0442234,
      "timestamp": "2022-03-19T13:38:11Z",
      "version": 1,
      "changeset": 118666233,
      "user": "Kaisarmu",
      "uid": 9387408,
      "tags": {
        "amenity": "bar",
        "name": "Ù…Ø¯ÙŠØ±ÙŠØ© Ø§Ø³ ÙƒØ±Ø¨Ù„Ø§Ø¡"
      }
    },
    {
      "type": "node",
      "id": 9603902317,
      "lat": 36.2194353,
      "lon": 43.9907096,
      "timestamp": "2022-03-24T18:26:00Z",
      "version": 1,
      "changeset": 118876725,
      "user": "Alizlucifer",
      "uid": 13392709,
      "tags": {
        "amenity": "bar"
      }
    },
    {
      "type": "node",
      "id": 9631219817,
      "lat": 31.9959078,
      "lon": 44.3334028,
      "timestamp": "2022-04-02T11:14:30Z",
      "version": 1,
      "changeset": 119231184,
      "user": "5444Aboarab",
      "uid": 12398642,
      "tags": {
        "amenity": "pub",
        "name": "ÙØ¨Ø± ØµØ¨Ø±ÙŠÙ‡"
      }
    },
    {
      "type": "node",
      "id": 9682218817,
      "lat": 32.931356,
      "lon": 44.7789958,
      "timestamp": "2022-04-21T09:34:01Z",
      "version": 1,
      "changeset": 119991364,
      "user": "Ù…Ù‡Ù†Ø¯Ø³ Ø§Ø­Ù…Ø¯",
      "uid": 6835481,
      "tags": {
        "amenity": "bar",
        "name": "Ø´Ø¹Ø¨Ø© Ø²Ø±Ø§Ø¹Ø© Ø§Ù„ØµÙˆÙŠØ±Ø©",
        "phone": "07723863007"
      }
    },
    {
      "type": "node",
      "id": 9799095418,
      "lat": 33.3005034,
      "lon": 44.434929,
      "timestamp": "2022-06-06T15:58:26Z",
      "version": 1,
      "changeset": 122032964,
      "user": "Ø§Ø­Ù…Ø¯ ØªØ§ØªÙˆ",
      "uid": 16216897,
      "tags": {
        "amenity": "bar",
        "name": "Ù†Ø§Ø¯ÙŠ Ø§Ù„Ø§Ø´ÙˆØ±ÙŠ"
      }
    },
    {
      "type": "node",
      "id": 9799098217,
      "lat": 33.321323,
      "lon": 44.4139452,
      "timestamp": "2022-06-06T15:58:27Z",
      "version": 1,
      "changeset": 122032964,
      "user": "Ø§Ø­Ù…Ø¯ ØªØ§ØªÙˆ",
      "uid": 16216897,
      "tags": {
        "amenity": "bar",
        "name": "Ø§Ø¨Ø§Ø±ÙŠ Ø¨ØºØ¯Ø§Ø¯"
      }
    },
    {
      "type": "node",
      "id": 9799167118,
      "lat": 33.3133363,
      "lon": 44.4940331,
      "timestamp": "2022-06-06T16:30:48Z",
      "version": 1,
      "changeset": 122034268,
      "user": "Ø§Ø­Ù…Ø¯ ØªØ§ØªÙˆ",
      "uid": 16216897,
      "tags": {
        "amenity": "bar"
      }
    },
    {
      "type": "node",
      "id": 9858054417,
      "lat": 33.3285025,
      "lon": 44.4676542,
      "timestamp": "2022-06-30T12:26:12Z",
      "version": 1,
      "changeset": 123043327,
      "user": "Hamoodi",
      "uid": 9409985,
      "tags": {
        "amenity": "pub",
        "name": "Ø­Ù…ÙˆØ¯ÙŠ Ø§Ù„Ø­Ù„Ø§Ù‚"
      }
    },
    {
      "type": "node",
      "id": 9877648619,
      "lat": 38.4997802,
      "lon": 43.3915945,
      "timestamp": "2022-07-09T23:01:01Z",
      "version": 1,
      "changeset": 123415946,
      "user": "Shahram1988",
      "uid": 16499594,
      "tags": {
        "addr:street": "BahÃ§Ä±van Mah.",
        "amenity": "pub",
        "name": "the north shield"
      }
    },
    {
      "type": "node",
      "id": 9894840820,
      "lat": 35.9920288,
      "lon": 45.8899023,
      "timestamp": "2022-07-18T09:08:42Z",
      "version": 1,
      "changeset": 123752758,
      "user": "Ali frm",
      "uid": 14742779,
      "tags": {
        "addr:street": "ØµÙ„Ø§Ø­ Ø§Ù„Ø¯ÛŒÙ† Ø§ÛŒÙˆØ¨ÛŒ",
        "amenity": "biergarten",
        "name": "ØºØ°Ø§Ø®ÙˆØ±ÛŒ Ú©Ø±Ø¯Ø³ØªØ§Ù† Ø¨Ø§Ù†",
        "name:en": "Kordastan food"
      }
    },
    {
      "type": "node",
      "id": 9894841017,
      "lat": 37.5377536,
      "lon": 45.0722979,
      "timestamp": "2022-07-18T09:08:37Z",
      "version": 1,
      "changeset": 123752758,
      "user": "Ali frm",
      "uid": 14742779,
      "tags": {
        "addr:street": "Ø®ÛŒØ§Ø¨Ø§Ù† Ú©Ø§Ø´Ø§Ù†ÛŒ",
        "amenity": "biergarten",
        "name": "Ù†Ø§Ù† Ø³Ø§Ù†Ø¯ÙˆÛŒÚ†ÛŒ",
        "name:en": "Nan sandwich"
      }
    },
    {
      "type": "node",
      "id": 9925486117,
      "lat": 36.8702053,
      "lon": 42.8918769,
      "timestamp": "2022-08-01T20:05:47Z",
      "version": 1,
      "changeset": 124363059,
      "user": "alexanderso",
      "uid": 11098540,
      "tags": {
        "amenity": "bar",
        "name:en": "SHQET GANA"
      }
    },
    {
      "type": "node",
      "id": 9926983417,
      "lat": 36.347917,
      "lon": 44.627555,
      "timestamp": "2022-08-02T12:38:06Z",
      "version": 1,
      "changeset": 124390590,
      "user": "Muhamadshakir",
      "uid": 16678364,
      "tags": {
        "amenity": "bar",
        "name:ku": "Ø³Ù„Ù…Ø§Ù† Ú¯Û•Ø±Û•ÙˆÛ•ÛŒÛŒ"
      }
    },
    {
      "type": "node",
      "id": 9926983517,
      "lat": 36.6053245,
      "lon": 44.525883,
      "timestamp": "2022-08-02T12:38:06Z",
      "version": 1,
      "changeset": 124390590,
      "user": "Muhamadshakir",
      "uid": 16678364,
      "tags": {
        "amenity": "bar",
        "name:ku": "Ù…Ø­Ù…Ø¯"
      }
    },
    {
      "type": "node",
      "id": 9955757110,
      "lat": 37.0294965,
      "lon": 43.7843717,
      "timestamp": "2024-02-10T18:11:10Z",
      "version": 3,
      "changeset": 147303057,
      "user": "Yildirim33",
      "uid": 13405608,
      "tags": {
        "amenity": "bar",
        "name": "Chrani",
        "name:fa": "Ú†Ø±Ø§Ù†ÛŒ"
      }
    },
    {
      "type": "node",
      "id": 9990774617,
      "lat": 37.0700527,
      "lon": 42.4233235,
      "timestamp": "2022-08-31T14:19:52Z",
      "version": 2,
      "changeset": 125615037,
      "user": "Twanafaqe",
      "uid": 16253747,
      "tags": {
        "amenity": "bar",
        "name": "Ú©Û†Ù…Ù¾Ø§Ù†ÛŒØ§ÛŒ Ø¬ÛŒ Ø¬ÛŒ Ø¦ÛÙ Ø²ÛØ¯",
        "name:en": "GGFZ company",
        "tourism": "camp_site"
      }
    },
    {
      "type": "node",
      "id": 10008790717,
      "lat": 36.3721074,
      "lon": 44.211993,
      "timestamp": "2022-09-08T11:54:04Z",
      "version": 1,
      "changeset": 125939744,
      "user": "jassem darwessh",
      "uid": 17070512,
      "tags": {
        "amenity": "bar",
        "internet_access": "wlan",
        "opening_hours": "24/7",
        "phone": "07504494998"
      }
    },
    {
      "type": "node",
      "id": 10032271618,
      "lat": 33.3248093,
      "lon": 44.4123537,
      "timestamp": "2022-09-17T20:05:04Z",
      "version": 1,
      "changeset": 126311501,
      "user": "Karrar Bio",
      "uid": 4711682,
      "tags": {
        "amenity": "pub",
        "name": "Ù…Ø§Ù†ÙˆÙŠÙ„"
      }
    },
    {
      "type": "node",
      "id": 10064433318,
      "lat": 35.4299941,
      "lon": 44.4043231,
      "timestamp": "2022-09-30T14:36:01Z",
      "version": 1,
      "changeset": 126826272,
      "user": "solder",
      "uid": 11361912,
      "tags": {
        "amenity": "pub",
        "name": "Ø¨Ø§Ø± Ø§Ø²Ø§Ø¯ÙŠ",
        "name:en": "Ø¨Ø§Ø±",
        "name:ku": "Ø¨Ø§Ø±Ø´"
      }
    },
    {
      "type": "node",
      "id": 10127810517,
      "lat": 36.1888844,
      "lon": 44.0407261,
      "timestamp": "2022-10-25T10:06:44Z",
      "version": 1,
      "changeset": 128031915,
      "user": "Laith Salah55",
      "uid": 17470218,
      "tags": {
        "amenity": "bar",
        "name": "Ø§Ø´ØªÙŠ ÙˆØ§Ù† Ø¯ÙƒØªÙˆØ±"
      }
    },
    {
      "type": "node",
      "id": 10198770217,
      "lat": 31.0307571,
      "lon": 46.2726469,
      "timestamp": "2022-11-18T05:26:47Z",
      "version": 1,
      "changeset": 129069212,
      "user": "Ù…Ù†Ø²Ù„ Ø¹Ø¨Ø¯Ø§Ù„Ù„Ù‡ ÙØ±Ø­Ø§Ù†",
      "uid": 11254782,
      "tags": {
        "amenity": "pub",
        "name": "Ø¨Ø§Ø± Ø§Ù„Ø§Ø·Ø¨Ø§Ø¡"
      }
    },
    {
      "type": "node",
      "id": 10214479218,
      "lat": 36.1982168,
      "lon": 44.118643,
      "timestamp": "2022-11-24T12:31:25Z",
      "version": 1,
      "changeset": 129323504,
      "user": "ekbun",
      "uid": 10229242,
      "tags": {
        "addr:housenumber": "0",
        "addr:postcode": "44001",
        "addr:street": "Ø¦Û•Ù†Ø¯Ø§Ø²ÛŒØ§Ø±Ø§Ù†",
        "amenity": "biergarten",
        "email": "info@hawlergov.org",
        "internet_access": "wlan",
        "name": "Ø­Ø¯ÙŠÙ‚Ø© Ø¹Ø§Ù…Ø©",
        "name:en": "Public Garden",
        "name:ku": "Ø¨Ø§Ø®Ú†Û•ÛŒ Ú¯Ø´ØªÛŒ",
        "opening_hours": "24/7",
        "phone": "+964 750 446 1304",
        "website": "https://www.hawlergov.org"
      }
    },
    {
      "type": "node",
      "id": 10235295817,
      "lat": 32.6232248,
      "lon": 43.9674039,
      "timestamp": "2022-12-03T10:16:29Z",
      "version": 1,
      "changeset": 129671180,
      "user": "Altofaili",
      "uid": 8961772,
      "tags": {
        "amenity": "bar"
      }
    },
    {
      "type": "node",
      "id": 10238892409,
      "lat": 35.2621524,
      "lon": 44.399826,
      "timestamp": "2022-12-04T19:41:48Z",
      "version": 1,
      "changeset": 129716120,
      "user": "Akeel_tuz",
      "uid": 17050170,
      "tags": {
        "amenity": "pub",
        "name": "Ø¨Ø¦Ø±22"
      }
    },
    {
      "type": "node",
      "id": 10238892410,
      "lat": 35.2673633,
      "lon": 44.3939358,
      "timestamp": "2022-12-04T19:41:48Z",
      "version": 1,
      "changeset": 129716120,
      "user": "Akeel_tuz",
      "uid": 17050170,
      "tags": {
        "amenity": "pub",
        "name": "Ø¨Ø¦Ø±56"
      }
    },
    {
      "type": "node",
      "id": 10238892509,
      "lat": 35.2818765,
      "lon": 44.3941668,
      "timestamp": "2022-12-04T19:41:49Z",
      "version": 1,
      "changeset": 129716120,
      "user": "Akeel_tuz",
      "uid": 17050170,
      "tags": {
        "amenity": "pub",
        "name": "Ø¨Ø¦Ø±34"
      }
    },
    {
      "type": "node",
      "id": 10246840209,
      "lat": 35.2465737,
      "lon": 44.4455647,
      "timestamp": "2022-12-08T14:18:45Z",
      "version": 1,
      "changeset": 129863123,
      "user": "Akeel_tuz",
      "uid": 17050170,
      "tags": {
        "amenity": "pub",
        "name": "Ø¨Ø¦Ø±16"
      }
    },
    {
      "type": "node",
      "id": 10246840210,
      "lat": 35.2387432,
      "lon": 44.4563615,
      "timestamp": "2022-12-08T14:18:46Z",
      "version": 1,
      "changeset": 129863123,
      "user": "Akeel_tuz",
      "uid": 17050170,
      "tags": {
        "amenity": "pub",
        "name": "Ø¨Ø¦Ø±33"
      }
    },
    {
      "type": "node",
      "id": 10246840211,
      "lat": 35.2276108,
      "lon": 44.4738511,
      "timestamp": "2022-12-08T14:18:49Z",
      "version": 1,
      "changeset": 129863123,
      "user": "Akeel_tuz",
      "uid": 17050170,
      "tags": {
        "amenity": "pub",
        "name": "Ø¨Ø¦Ø±54"
      }
    },
    {
      "type": "node",
      "id": 10246840309,
      "lat": 35.2422753,
      "lon": 44.4512249,
      "timestamp": "2022-12-08T14:18:45Z",
      "version": 1,
      "changeset": 129863123,
      "user": "Akeel_tuz",
      "uid": 17050170,
      "tags": {
        "amenity": "pub",
        "name": "Ø¨Ø¦Ø±71"
      }
    },
    {
      "type": "node",
      "id": 10246840310,
      "lat": 35.2364357,
      "lon": 44.4612817,
      "timestamp": "2022-12-08T14:18:47Z",
      "version": 1,
      "changeset": 129863123,
      "user": "Akeel_tuz",
      "uid": 17050170,
      "tags": {
        "amenity": "pub",
        "name": "Ø¨Ø¦Ø±58"
      }
    },
    {
      "type": "node",
      "id": 10246840311,
      "lat": 35.2190558,
      "lon": 44.4395536,
      "timestamp": "2022-12-08T14:18:53Z",
      "version": 1,
      "changeset": 129863123,
      "user": "Akeel_tuz",
      "uid": 17050170,
      "tags": {
        "amenity": "pub",
        "name": "Ø¨Ø¦Ø±61"
      }
    },
    {
      "type": "node",
      "id": 10246840312,
      "lat": 35.2438707,
      "lon": 44.4192302,
      "timestamp": "2022-12-08T14:18:54Z",
      "version": 1,
      "changeset": 129863123,
      "user": "Akeel_tuz",
      "uid": 17050170,
      "tags": {
        "amenity": "pub",
        "name": "Ø¨Ø¦Ø±20"
      }
    },
    {
      "type": "node",
      "id": 10246840409,
      "lat": 35.2311247,
      "lon": 44.4695372,
      "timestamp": "2022-12-08T14:18:48Z",
      "version": 1,
      "changeset": 129863123,
      "user": "Akeel_tuz",
      "uid": 17050170,
      "tags": {
        "amenity": "pub",
        "name": "Ø¨Ø¦Ø±29"
      }
    },
    {
      "type": "node",
      "id": 10246840410,
      "lat": 35.2178608,
      "lon": 44.4878519,
      "timestamp": "2022-12-08T14:18:49Z",
      "version": 1,
      "changeset": 129863123,
      "user": "Akeel_tuz",
      "uid": 17050170,
      "tags": {
        "amenity": "pub",
        "name": "Ø¨Ø¦Ø±29"
      }
    },
    {
      "type": "node",
      "id": 10246840411,
      "lat": 35.2296719,
      "lon": 44.4456342,
      "timestamp": "2022-12-08T14:18:51Z",
      "version": 1,
      "changeset": 129863123,
      "user": "Akeel_tuz",
      "uid": 17050170,
      "tags": {
        "amenity": "pub",
        "name": "Ø¨Ø¦Ø±13"
      }
    },
    {
      "type": "node",
      "id": 10246840412,
      "lat": 35.2260019,
      "lon": 44.4325744,
      "timestamp": "2022-12-08T14:18:53Z",
      "version": 1,
      "changeset": 129863123,
      "user": "Akeel_tuz",
      "uid": 17050170,
      "tags": {
        "amenity": "pub",
        "name": "Ø¨Ø¦Ø±37"
      }
    },
    {
      "type": "node",
      "id": 10246840509,
      "lat": 35.2235793,
      "lon": 44.4804748,
      "timestamp": "2022-12-08T14:18:48Z",
      "version": 1,
      "changeset": 129863123,
      "user": "Akeel_tuz",
      "uid": 17050170,
      "tags": {
        "amenity": "pub",
        "name": "Ø¨Ø¦Ø±31"
      }
    },
    {
      "type": "node",
      "id": 10246840609,
      "lat": 35.2341277,
      "lon": 44.432326,
      "timestamp": "2022-12-08T14:18:50Z",
      "version": 1,
      "changeset": 129863123,
      "user": "Akeel_tuz",
      "uid": 17050170,
      "tags": {
        "amenity": "pub",
        "name": "Ø¨Ø¦Ø±24"
      }
    },
    {
      "type": "node",
      "id": 10246841009,
      "lat": 35.2229638,
      "lon": 44.4570468,
      "timestamp": "2022-12-08T14:18:52Z",
      "version": 1,
      "changeset": 129863123,
      "user": "Akeel_tuz",
      "uid": 17050170,
      "tags": {
        "amenity": "pub",
        "name": "Ø¨Ø¦Ø±38"
      }
    },
    {
      "type": "node",
      "id": 10255508310,
      "lat": 34.0323257,
      "lon": 45.007733,
      "timestamp": "2022-12-12T12:24:58Z",
      "version": 1,
      "changeset": 129997303,
      "user": "Hussein almowail",
      "uid": 7700771,
      "tags": {
        "amenity": "bar",
        "name": "Ø¨Ø±Ø¬ Ø§Ù„ÙÙŠÙ„Ù‚"
      }
    },
    {
      "type": "node",
      "id": 10260931909,
      "lat": 35.4315414,
      "lon": 44.3619591,
      "timestamp": "2022-12-13T17:45:39Z",
      "version": 1,
      "changeset": 130045071,
      "user": "Ø¹Ø§Ù…Ø± Ø§Ù„Ø¬Ù…ÙŠÙ„ÙŠ",
      "uid": 12798915,
      "tags": {
        "amenity": "pub"
      }
    },
    {
      "type": "node",
      "id": 10269932209,
      "lat": 35.2550958,
      "lon": 44.4365005,
      "timestamp": "2022-12-17T17:10:40Z",
      "version": 1,
      "changeset": 130191934,
      "user": "Akeel_tuz",
      "uid": 17050170,
      "tags": {
        "amenity": "pub",
        "name": "Ø¨Ø¦Ø±48"
      }
    },
    {
      "type": "node",
      "id": 10269932309,
      "lat": 35.2533566,
      "lon": 44.4412815,
      "timestamp": "2022-12-17T17:10:40Z",
      "version": 1,
      "changeset": 130191934,
      "user": "Akeel_tuz",
      "uid": 17050170,
      "tags": {
        "amenity": "pub",
        "name": "Ø¨Ø¦Ø±74"
      }
    },
    {
      "type": "node",
      "id": 10276714909,
      "lat": 35.2669023,
      "lon": 44.4228313,
      "timestamp": "2022-12-20T21:01:47Z",
      "version": 1,
      "changeset": 130306068,
      "user": "Akeel_tuz",
      "uid": 17050170,
      "tags": {
        "amenity": "pub",
        "name": "Ø¨Ø¦Ø±36"
      }
    },
    {
      "type": "node",
      "id": 10276715009,
      "lat": 35.2658575,
      "lon": 44.4175752,
      "timestamp": "2022-12-20T21:01:47Z",
      "version": 1,
      "changeset": 130306068,
      "user": "Akeel_tuz",
      "uid": 17050170,
      "tags": {
        "amenity": "pub",
        "name": "Ø¨Ø¦Ø±66"
      }
    },
    {
      "type": "node",
      "id": 10303169418,
      "lat": 35.2359811,
      "lon": 44.4220812,
      "timestamp": "2023-01-03T20:19:45Z",
      "version": 1,
      "changeset": 130841334,
      "user": "Akeel_tuz",
      "uid": 17050170,
      "tags": {
        "amenity": "bar",
        "name": "Ø¨Ø¦Ø±42"
      }
    },
    {
      "type": "node",
      "id": 10538327810,
      "lat": 36.1888504,
      "lon": 43.9498251,
      "timestamp": "2023-01-11T02:26:31Z",
      "version": 1,
      "changeset": 131127075,
      "user": "Akeel_tuz",
      "uid": 17050170,
      "tags": {
        "amenity": "bar",
        "name": "Ù‡Ø²Ø© ÙƒØ§ØªÙŠ Ø¨Ø§Ø±Ùƒ 32"
      }
    },
    {
      "type": "node",
      "id": 10547762511,
      "lat": 33.2849729,
      "lon": 44.3866238,
      "timestamp": "2023-01-13T02:19:09Z",
      "version": 1,
      "changeset": 131210752,
      "user": "Mustafa Aljammali",
      "uid": 8972008,
      "tags": {
        "amenity": "bar"
      }
    },
    {
      "type": "node",
      "id": 10564414910,
      "lat": 36.2857958,
      "lon": 44.0321955,
      "timestamp": "2023-01-18T07:43:47Z",
      "version": 1,
      "changeset": 131409454,
      "user": "Akeel_tuz",
      "uid": 17050170,
      "tags": {
        "amenity": "bar",
        "name": "Ù…Ø±ÙˆØ± Ø£Ø±Ø¨ÙŠÙ„"
      }
    },
    {
      "type": "node",
      "id": 10566970709,
      "lat": 32.378984,
      "lon": 43.7141525,
      "timestamp": "2023-01-19T06:09:21Z",
      "version": 1,
      "changeset": 131448413,
      "user": "Alifalahm",
      "uid": 17659236,
      "tags": {
        "amenity": "bar",
        "name": "Ù†Ù‚Ø·Ø© Ø§Ù„Ø¨Ø¯Ø§ÙŠÙ‡ Ø°Ø±Ø¹Ø© Ø§Ù„Ø³Ø§ØªØ±"
      }
    },
    {
      "type": "node",
      "id": 10570121710,
      "lat": 33.3334,
      "lon": 44.3811496,
      "timestamp": "2023-01-20T09:17:21Z",
      "version": 1,
      "changeset": 131499421,
      "user": "Akeel_tuz",
      "uid": 17050170,
      "tags": {
        "amenity": "bar",
        "name": "ÙÙŠØµÙ„ Ù†ÙŠØ³Ø§Ù†"
      }
    },
    {
      "type": "node",
      "id": 10588063906,
      "lat": 33.3212203,
      "lon": 44.1743536,
      "timestamp": "2023-01-28T04:02:35Z",
      "version": 1,
      "changeset": 131794899,
      "user": "Safaa_majid96",
      "uid": 18368807,
      "tags": {
        "amenity": "bar",
        "name": "Ø§Ù„Ù…Ù†Ø³ÙŠØ©"
      }
    },
    {
      "type": "node",
      "id": 10591094206,
      "lat": 31.7425237,
      "lon": 44.544769,
      "timestamp": "2023-01-29T05:09:10Z",
      "version": 1,
      "changeset": 131829157,
      "user": "Almayahe",
      "uid": 9546624,
      "tags": {
        "amenity": "bar"
      }
    },
    {
      "type": "node",
      "id": 10593648405,
      "lat": 36.3939311,
      "lon": 43.1664648,
      "timestamp": "2023-01-30T08:56:24Z",
      "version": 1,
      "changeset": 131869793,
      "user": "gazwan",
      "uid": 8563036,
      "tags": {
        "amenity": "bar",
        "name": "Ø§Ù„Ù…Ø¬Ù…Ø¹ Ø§Ù„Ø§ÙˆØ±Ø¨ÙŠ 2"
      }
    },
    {
      "type": "node",
      "id": 10594718315,
      "lat": 35.310927,
      "lon": 46.0799322,
      "timestamp": "2023-01-30T18:30:24Z",
      "version": 1,
      "changeset": 131892283,
      "user": "Hazhar asaf",
      "uid": 10186118,
      "tags": {
        "amenity": "bar",
        "name": "Ø¨Ø§ØºÙŠ Ø§Ø­Ù…Ø¯ Ø§ÙˆØ§"
      }
    },
    {
      "type": "node",
      "id": 10603889905,
      "lat": 30.3307484,
      "lon": 46.5174311,
      "timestamp": "2023-02-03T11:15:01Z",
      "version": 1,
      "changeset": 132038190,
      "user": "Ø§Ù„Ø§Ù„ÙŠØ§ÙŠÙŠØ§",
      "uid": 18398024,
      "tags": {
        "amenity": "bar",
        "name": "Ø¯ Ù†Ø§ÙŠÙ 2023"
      }
    },
    {
      "type": "node",
      "id": 10618407507,
      "lat": 30.2864181,
      "lon": 46.5130177,
      "timestamp": "2023-02-08T11:01:53Z",
      "version": 1,
      "changeset": 132249532,
      "user": "Ø¹Ø¨Ø¯Ù„Ù„Ù‡ Ø³Ø§Ù‡Ø±",
      "uid": 18402388,
      "tags": {
        "amenity": "bar",
        "name": "Ù†Ø²Ù„Ù‡ Ø§Ù„ØºØ²Ù„Ø§Ù†ÙŠ"
      }
    },
    {
      "type": "node",
      "id": 10618408905,
      "lat": 30.3198874,
      "lon": 46.4917128,
      "timestamp": "2023-02-08T11:01:55Z",
      "version": 1,
      "changeset": 132249532,
      "user": "Ø¹Ø¨Ø¯Ù„Ù„Ù‡ Ø³Ø§Ù‡Ø±",
      "uid": 18402388,
      "tags": {
        "amenity": "bar",
        "name": "Ù†Ø²Ù„Ù‡ Ø§Ù„ØºØ²Ù„Ø§Ù†ÙŠ Ø§Ù„Ø§ÙˆÙ„Ù‡"
      }
    },
    {
      "type": "node",
      "id": 10618425905,
      "lat": 33.155928,
      "lon": 44.3642912,
      "timestamp": "2023-02-08T11:09:11Z",
      "version": 1,
      "changeset": 132249912,
      "user": "Akeel_tuz",
      "uid": 17050170,
      "tags": {
        "amenity": "pub",
        "name": "Ø¨Ø§Ø¨ Ø§Ù„Ø§ØºØ§"
      }
    },
    {
      "type": "node",
      "id": 10660818206,
      "lat": 36.1653901,
      "lon": 43.9811148,
      "timestamp": "2023-02-15T09:01:00Z",
      "version": 1,
      "changeset": 132571362,
      "user": "ØªÙˆØ§Ù†Ø§",
      "uid": 6689014,
      "tags": {
        "amenity": "bar",
        "name": "Ù…Ø§Ù„Ù‰ Ø®Ø³ÙˆÙ…"
      }
    },
    {
      "type": "node",
      "id": 10695250905,
      "lat": 35.2078801,
      "lon": 44.455369,
      "timestamp": "2023-02-26T17:12:12Z",
      "version": 1,
      "changeset": 133051871,
      "user": "Akeel_tuz",
      "uid": 17050170,
      "tags": {
        "amenity": "pub",
        "name": "Ø¨Ø¦Ø±53"
      }
    },
    {
      "type": "node",
      "id": 10705072207,
      "lat": 35.2177966,
      "lon": 44.4877459,
      "timestamp": "2023-03-02T19:13:48Z",
      "version": 1,
      "changeset": 133225043,
      "user": "Akeel_tuz",
      "uid": 17050170,
      "tags": {
        "amenity": "pub",
        "name": "Ø¨Ø¦Ø±52"
      }
    },
    {
      "type": "node",
      "id": 10705072508,
      "lat": 35.2431312,
      "lon": 44.4318032,
      "timestamp": "2023-03-02T19:13:47Z",
      "version": 1,
      "changeset": 133225043,
      "user": "Akeel_tuz",
      "uid": 17050170,
      "tags": {
        "amenity": "pub",
        "name": "Ø¨Ø¦Ø±40"
      }
    },
    {
      "type": "node",
      "id": 10705072509,
      "lat": 35.2463722,
      "lon": 44.4467134,
      "timestamp": "2023-03-02T19:13:47Z",
      "version": 1,
      "changeset": 133225043,
      "user": "Akeel_tuz",
      "uid": 17050170,
      "tags": {
        "amenity": "pub",
        "name": "Ø¨Ø¦Ø±16"
      }
    },
    {
      "type": "node",
      "id": 10705081706,
      "lat": 35.2230284,
      "lon": 44.4810766,
      "timestamp": "2023-03-02T19:13:48Z",
      "version": 1,
      "changeset": 133225043,
      "user": "Akeel_tuz",
      "uid": 17050170,
      "tags": {
        "amenity": "pub",
        "name": "Ø¨Ø¦Ø±31"
      }
    },
    {
      "type": "node",
      "id": 10709878705,
      "lat": 33.5633777,
      "lon": 44.5417941,
      "timestamp": "2023-03-04T16:26:11Z",
      "version": 2,
      "changeset": 133296928,
      "user": "Mohammed Bhonar Bhonar",
      "uid": 9513684,
      "tags": {
        "amenity": "pub",
        "shop": "butcher"
      }
    },
    {
      "type": "node",
      "id": 10711768905,
      "lat": 33.4569257,
      "lon": 44.3786484,
      "timestamp": "2023-03-05T10:05:17Z",
      "version": 1,
      "changeset": 133318618,
      "user": "Sajad_Dody",
      "uid": 4026919,
      "tags": {
        "amenity": "pub",
        "name": "Ø¹Ù„ÙŠ Ø§Ø³ÙˆØ³"
      }
    },
    {
      "type": "node",
      "id": 10731739805,
      "lat": 35.5826163,
      "lon": 45.3229785,
      "timestamp": "2023-03-12T23:53:34Z",
      "version": 1,
      "changeset": 133604681,
      "user": "Paywand_ldrees_lsmael",
      "uid": 18265648,
      "tags": {
        "amenity": "bar"
      }
    },
    {
      "type": "node",
      "id": 10735222205,
      "lat": 33.315212,
      "lon": 44.3879997,
      "timestamp": "2023-03-14T15:20:26Z",
      "version": 1,
      "changeset": 133672496,
      "user": "Loco1348",
      "uid": 10323617,
      "tags": {
        "amenity": "bar"
      }
    },
    {
      "type": "node",
      "id": 10776128505,
      "lat": 32.0074617,
      "lon": 44.3540833,
      "timestamp": "2023-03-31T16:59:54Z",
      "version": 1,
      "changeset": 134353811,
      "user": "Imadqwerty",
      "uid": 14913297,
      "tags": {
        "amenity": "pub",
        "name": "ÙƒØ¨Ø© Ù†Ø¬Ù"
      }
    },
    {
      "type": "node",
      "id": 10776274805,
      "lat": 35.4066009,
      "lon": 44.4012653,
      "timestamp": "2023-03-31T18:25:23Z",
      "version": 1,
      "changeset": 134356385,
      "user": "Akeel_tuz",
      "uid": 17050170,
      "tags": {
        "amenity": "pub",
        "name": "Ø³ÙˆØ²Ø§Ù†"
      }
    },
    {
      "type": "node",
      "id": 10782303805,
      "lat": 33.329011,
      "lon": 44.4773506,
      "timestamp": "2023-04-03T17:16:05Z",
      "version": 1,
      "changeset": 134464185,
      "user": "Almayahe",
      "uid": 9546624,
      "tags": {
        "amenity": "bar",
        "name": "Ù…Ø¯ÙŠØ±ÙŠØ© Ø§Ù„Ù…Ø®Ø¯Ø±Ø§Øª Ø§Ù„Ø¹Ø§Ù…Ø©"
      }
    },
    {
      "type": "node",
      "id": 10792636806,
      "lat": 36.2569417,
      "lon": 44.013704,
      "timestamp": "2023-04-07T11:46:43Z",
      "version": 1,
      "changeset": 134611933,
      "user": "Akeel_tuz",
      "uid": 17050170,
      "tags": {
        "amenity": "pub",
        "name": "Abc Ù…Ø·Ø¹Ù… ÙØ±Ø¹"
      }
    },
    {
      "type": "node",
      "id": 10836191706,
      "lat": 36.2180083,
      "lon": 43.9872239,
      "timestamp": "2024-01-08T11:59:38Z",
      "version": 4,
      "changeset": 146026109,
      "user": "Mahmood_abdul",
      "uid": 12978592,
      "tags": {
        "addr:city": "Ø£Ø±Ø¨ÙŠÙ„",
        "addr:country": "IQ",
        "addr:district": "Ù‚Ø¶Ø§Ø¡ Ø£Ø±Ø¨ÙŠÙ„",
        "addr:postcode": "44001",
        "addr:state": "Ù…Ø­Ø§ÙØ¸Ø© Ø£Ø±Ø¨ÙŠÙ„",
        "amenity": "pub",
        "name": "Ø±ÙŠÙ†ÙŠØ³ÙŠØ§"
      }
    },
    {
      "type": "node",
      "id": 10919547705,
      "lat": 35.4380845,
      "lon": 44.4154161,
      "timestamp": "2023-05-22T17:06:03Z",
      "version": 1,
      "changeset": 136423324,
      "user": "Akeel_tuz",
      "uid": 17050170,
      "tags": {
        "amenity": "pub",
        "name": "Ø³ÙˆÙ‚ Ø§Ù„Ø­Ø±ÙŠØ©"
      }
    },
    {
      "type": "node",
      "id": 10921277906,
      "lat": 33.37208,
      "lon": 44.4125492,
      "timestamp": "2023-05-23T09:36:13Z",
      "version": 1,
      "changeset": 136447982,
      "user": "SkyBar",
      "uid": 15526818,
      "tags": {
        "addr:street": "Ø´Ø§Ø±Ø¹ ÙÙ„Ø³Ø·ÙŠÙ†",
        "amenity": "pub",
        "internet_access": "wlan",
        "name": "Ø³ÙƒØ§ÙŠ Ø¨Ø§Ø±",
        "name:en": "Sky Bar",
        "opening_hours": "Sa-Th 00:00-24:00"
      }
    },
    {
      "type": "node",
      "id": 10964955505,
      "lat": 30.7728168,
      "lon": 49.7070706,
      "timestamp": "2023-07-27T03:47:27Z",
      "version": 2,
      "changeset": 139065167,
      "user": "v65hatami",
      "uid": 4515586,
      "tags": {
        "amenity": "pub",
        "name": "foroshgaah abzaar yaraagh  Zaagros",
        "name:en": "foroshgaah abzaar yaraagh",
        "name:fa": "ÙØ±ÙˆØ´Ú¯Ø§Ù‡ Ø§Ø¨Ø²Ø§Ø± ÛŒØ±Ø§Ù‚ Ùˆ Ù„ÙˆÙ„Ù‡"
      }
    },
    {
      "type": "node",
      "id": 10964957505,
      "lat": 30.772717,
      "lon": 49.7071574,
      "timestamp": "2023-06-09T08:15:21Z",
      "version": 1,
      "changeset": 137125042,
      "user": "v65hatami",
      "uid": 4515586,
      "tags": {
        "amenity": "pub",
        "name": "Ù„ÙˆØ§Ø²Ù… ØªØ­Ø±ÛŒØ±",
        "name:en": "Lavazem tahrir"
      }
    },
    {
      "type": "node",
      "id": 10965025206,
      "lat": 30.7476975,
      "lon": 49.7092851,
      "timestamp": "2023-06-09T09:14:39Z",
      "version": 1,
      "changeset": 137127356,
      "user": "v65hatami",
      "uid": 4515586,
      "tags": {
        "amenity": "pub",
        "name": "Ù…ÛŒØ¯Ø§Ù† Ú©Ø§Ø±Ú¯Ø±",
        "name:en": "Meydaan Kaar'gar"
      }
    },
    {
      "type": "node",
      "id": 10965048805,
      "lat": 30.7446253,
      "lon": 49.7089233,
      "timestamp": "2023-06-09T09:12:04Z",
      "version": 1,
      "changeset": 137127262,
      "user": "v65hatami",
      "uid": 4515586,
      "tags": {
        "amenity": "pub",
        "name": "ÙÙ„Øª Ù…Ø¬Ø±Ø¯ÛŒ Ù‡Ø§",
        "name:en": "Fe'lat mojaradi haa"
      }
    },
    {
      "type": "node",
      "id": 10980167405,
      "lat": 37.0386938,
      "lon": 45.0984411,
      "timestamp": "2023-06-16T07:12:23Z",
      "version": 1,
      "changeset": 137400438,
      "user": "Shakir789",
      "uid": 19592554,
      "tags": {
        "amenity": "pub",
        "name": "shino"
      }
    },
    {
      "type": "node",
      "id": 10982494107,
      "lat": 31.5433004,
      "lon": 45.1607745,
      "timestamp": "2023-06-17T13:54:40Z",
      "version": 1,
      "changeset": 137448443,
      "user": "Ø§Ø¨Ùˆ Ø§Ø­Ù…Ø¯Ù¢",
      "uid": 19605786,
      "tags": {
        "amenity": "bar",
        "name": "Ù„Ø§Ù„Ø§Ø§"
      }
    },
    {
      "type": "node",
      "id": 10996442405,
      "lat": 33.1489667,
      "lon": 44.3636233,
      "timestamp": "2023-06-22T03:03:12Z",
      "version": 1,
      "changeset": 137627631,
      "user": "ÙØ±Ù‚Ø¯ Ø§Ù„Ø§Ø³Ø¯ÙŠ Ø§Ø¨Ùˆ Ù…Ø¬ØªØ¨Ù‰",
      "uid": 7353595,
      "tags": {
        "addr:street": "Ø¹ÙˆÙŠØ±ÙŠØ¬",
        "amenity": "bar",
        "name": "Ù…Ø¹Ù…Ù„ Ø§Ù„Ø²ÙŠØªÙˆÙ† Ù„Ù„Ø·Ø±Ø´ÙŠ Ø§Ø¨Ùˆ Ø§Ø­Ù…Ø¯"
      }
    },
    {
      "type": "node",
      "id": 10996442406,
      "lat": 32.8107189,
      "lon": 44.4730252,
      "timestamp": "2023-06-22T03:03:13Z",
      "version": 1,
      "changeset": 137627631,
      "user": "ÙØ±Ù‚Ø¯ Ø§Ù„Ø§Ø³Ø¯ÙŠ Ø§Ø¨Ùˆ Ù…Ø¬ØªØ¨Ù‰",
      "uid": 7353595,
      "tags": {
        "amenity": "bar",
        "name": "Ù…ÙØ±Ù‚ Ø·Ø±ÙŠÙ‚ ÙƒØ±Ø¨Ù„Ø§Ø¡"
      }
    },
    {
      "type": "node",
      "id": 10996442505,
      "lat": 32.8802057,
      "lon": 44.383408,
      "timestamp": "2023-06-22T03:03:12Z",
      "version": 1,
      "changeset": 137627631,
      "user": "ÙØ±Ù‚Ø¯ Ø§Ù„Ø§Ø³Ø¯ÙŠ Ø§Ø¨Ùˆ Ù…Ø¬ØªØ¨Ù‰",
      "uid": 7353595,
      "tags": {
        "addr:street": "Ø§Ù„Ø­ØµÙˆÙ‡",
        "amenity": "bar",
        "name": "Ø§Ù„Ø­ØµÙˆÙ‡ Ù…ÙØ±Ù‚ Ø·Ø±ÙŠÙ‚ ÙƒØ±Ø¨Ù„Ø§Ø¡"
      }
    },
    {
      "type": "node",
      "id": 10996442605,
      "lat": 34.0796587,
      "lon": 44.1180642,
      "timestamp": "2023-06-22T03:03:13Z",
      "version": 1,
      "changeset": 137627631,
      "user": "ÙØ±Ù‚Ø¯ Ø§Ù„Ø§Ø³Ø¯ÙŠ Ø§Ø¨Ùˆ Ù…Ø¬ØªØ¨Ù‰",
      "uid": 7353595,
      "tags": {
        "amenity": "bar",
        "name": "Ù…Ø¹Ù…Ù„ Ø­Ø³ÙŠÙ† Ø§Ù„Ø¹Ø²Ø§ÙˆÙŠ Ø§Ù„Ø¶Ù„ÙˆØ¹ÙŠØ©ØµÙ†Ø¯ÙˆÙ‚ Ø·Ù…Ø§Ø·Ø©"
      }
    },
    {
      "type": "node",
      "id": 10996701505,
      "lat": 36.7565926,
      "lon": 43.8993197,
      "timestamp": "2023-06-22T07:56:59Z",
      "version": 1,
      "changeset": 137634688,
      "user": "ÙØ±Ù‚Ø¯ Ø§Ù„Ø§Ø³Ø¯ÙŠ Ø§Ø¨Ùˆ Ù…Ø¬ØªØ¨Ù‰",
      "uid": 7353595,
      "tags": {
        "amenity": "bar",
        "name": "Ù…ØµÙŠÙ Ø³ÙŠØ¨Ù‡ ÙÙŠ Ø¹Ù‚Ø±Ù‡"
      }
    },
    {
      "type": "node",
      "id": 10997114705,
      "lat": 36.7398101,
      "lon": 43.971964,
      "timestamp": "2023-06-22T11:03:55Z",
      "version": 1,
      "changeset": 137642778,
      "user": "ÙØ±Ù‚Ø¯ Ø§Ù„Ø§Ø³Ø¯ÙŠ Ø§Ø¨Ùˆ Ù…Ø¬ØªØ¨Ù‰",
      "uid": 7353595,
      "tags": {
        "amenity": "bar",
        "name": "Ù…ØµÙŠÙ Ø²Ù†Ø·Ù‡ / Ø¹Ù‚Ø±Ù‡"
      }
    },
    {
      "type": "node",
      "id": 10997162305,
      "lat": 36.7285439,
      "lon": 44.0174902,
      "timestamp": "2023-06-22T11:33:07Z",
      "version": 1,
      "changeset": 137643860,
      "user": "ÙØ±Ù‚Ø¯ Ø§Ù„Ø§Ø³Ø¯ÙŠ Ø§Ø¨Ùˆ Ù…Ø¬ØªØ¨Ù‰",
      "uid": 7353595,
      "tags": {
        "amenity": "bar",
        "name": "Ù…ØµÙŠÙ Ø¨Ø¬ÙŠÙ„ ÙÙŠ Ø¹Ù‚Ø±Ù‡"
      }
    },
    {
      "type": "node",
      "id": 10998460306,
      "lat": 35.2934892,
      "lon": 44.378028,
      "timestamp": "2023-06-22T21:52:15Z",
      "version": 1,
      "changeset": 137664529,
      "user": "Akeel_tuz",
      "uid": 17050170,
      "tags": {
        "amenity": "pub",
        "name": "Ø¨Ø¦Ø± 19"
      }
    },
    {
      "type": "node",
      "id": 10998460307,
      "lat": 35.2736021,
      "lon": 44.4086944,
      "timestamp": "2023-06-22T21:52:15Z",
      "version": 1,
      "changeset": 137664529,
      "user": "Akeel_tuz",
      "uid": 17050170,
      "tags": {
        "amenity": "pub",
        "name": "Ø¨Ø¦Ø± 68"
      }
    },
    {
      "type": "node",
      "id": 10998460405,
      "lat": 35.2782241,
      "lon": 44.4154044,
      "timestamp": "2023-06-22T21:52:16Z",
      "version": 1,
      "changeset": 137664529,
      "user": "Akeel_tuz",
      "uid": 17050170,
      "tags": {
        "amenity": "pub",
        "name": "Ø¨Ø¦Ø±73"
      }
    },
    {
      "type": "node",
      "id": 11032368205,
      "lat": 35.482124,
      "lon": 44.3873429,
      "timestamp": "2023-07-07T13:53:57Z",
      "version": 1,
      "changeset": 138230692,
      "user": "Akeel_tuz",
      "uid": 17050170,
      "tags": {
        "amenity": "pub",
        "name": "Ù„Ø¬Ù†Ù‡ Ø·Ø¨ÙŠØ© Ø§Ù„Ù…Ø§Ø³"
      }
    },
    {
      "type": "node",
      "id": 11043517405,
      "lat": 36.1808594,
      "lon": 43.9969664,
      "timestamp": "2023-07-13T07:14:51Z",
      "version": 1,
      "changeset": 138450050,
      "user": "Amaralani",
      "uid": 19809186,
      "tags": {
        "amenity": "bar"
      }
    },
    {
      "type": "node",
      "id": 11052484705,
      "lat": 31.9750156,
      "lon": 44.3779383,
      "timestamp": "2023-07-18T09:12:56Z",
      "version": 1,
      "changeset": 138658116,
      "user": "Sami A ali",
      "uid": 19901884,
      "tags": {
        "amenity": "bar"
      }
    },
    {
      "type": "node",
      "id": 11078588406,
      "lat": 36.2109759,
      "lon": 44.0447895,
      "timestamp": "2023-07-31T11:42:12Z",
      "version": 1,
      "changeset": 139250270,
      "user": "Ø±Ø¤ÙˆÙ84",
      "uid": 9467382,
      "tags": {
        "amenity": "pub",
        "name": "Ù…Ø®Ø²Ù† Ù†Ù‚Ù„ÙŠØ§Øª Ø§Ø±Ø¨ÙŠÙ„"
      }
    },
    {
      "type": "node",
      "id": 11133407305,
      "lat": 35.4838495,
      "lon": 45.4180337,
      "timestamp": "2023-08-21T06:41:27Z",
      "version": 1,
      "changeset": 140163940,
      "user": "ÙØ±Ù‚Ø¯ Ø§Ù„Ø§Ø³Ø¯ÙŠ Ø§Ø¨Ùˆ Ù…Ø¬ØªØ¨Ù‰",
      "uid": 7353595,
      "tags": {
        "amenity": "bar",
        "name": "Ù…Ø¹Ù…Ù„ Ø§Ø­Ù…Ø¯ Ù…Ø·Ù„Ùƒ Ø§Ù„Ø±Ø§ÙˆÙŠ"
      }
    },
    {
      "type": "node",
      "id": 11133542305,
      "lat": 35.4879711,
      "lon": 45.4196633,
      "timestamp": "2023-08-21T08:12:03Z",
      "version": 1,
      "changeset": 140167586,
      "user": "ÙØ±Ù‚Ø¯ Ø§Ù„Ø§Ø³Ø¯ÙŠ Ø§Ø¨Ùˆ Ù…Ø¬ØªØ¨Ù‰",
      "uid": 7353595,
      "tags": {
        "amenity": "bar",
        "name": "Ù…Ø¹Ù…Ù„ Ù†Ø¬Ù… Ø§Ù„Ø¯ÙŠÙ† Ø§Ø¨Ùˆ Ù…Ø­Ù…Ø¯"
      }
    },
    {
      "type": "node",
      "id": 11148382106,
      "lat": 36.1528113,
      "lon": 44.1259154,
      "timestamp": "2023-08-27T14:51:18Z",
      "version": 1,
      "changeset": 140455179,
      "user": "Ø±Ø¤ÙˆÙ84",
      "uid": 9467382,
      "tags": {
        "amenity": "pub"
      }
    },
    {
      "type": "node",
      "id": 11170850437,
      "lat": 30.2258698,
      "lon": 47.7724004,
      "timestamp": "2023-09-06T00:26:21Z",
      "version": 1,
      "changeset": 140872182,
      "user": "CaptainAmmar",
      "uid": 20183012,
      "tags": {
        "addr:street": "Ø­ÙŠ Ø§Ù„Ø¨Ø§Ù‚Ø± Ø§Ù„Ø«Ø§Ù„Ø«Ø©",
        "amenity": "bar"
      }
    },
    {
      "type": "node",
      "id": 11251369938,
      "lat": 33.3522129,
      "lon": 44.3773035,
      "timestamp": "2023-10-09T16:09:21Z",
      "version": 1,
      "changeset": 142356602,
      "user": "DrAliHassan",
      "uid": 10199161,
      "tags": {
        "amenity": "bar"
      }
    },
    {
      "type": "node",
      "id": 11258505737,
      "lat": 36.863886,
      "lon": 42.9938757,
      "timestamp": "2023-10-12T20:46:20Z",
      "version": 1,
      "changeset": 142496967,
      "user": "Yogiibaer",
      "uid": 10211715,
      "tags": {
        "amenity": "pub",
        "name": "Efes bar"
      }
    },
    {
      "type": "node",
      "id": 11277207270,
      "lat": 33.4532265,
      "lon": 44.2506522,
      "timestamp": "2023-10-20T11:58:20Z",
      "version": 1,
      "changeset": 142866920,
      "user": "almdar",
      "uid": 10596945,
      "tags": {
        "amenity": "bar",
        "name": "Ù‚Ø³Ù… Ø§Ù„Ø³ÙŠØ·Ø±Ø© Ø§Ù„Ù†ÙˆØ¹ÙŠÙ‡"
      }
    },
    {
      "type": "node",
      "id": 11289378669,
      "lat": 36.190095,
      "lon": 44.0268573,
      "timestamp": "2023-10-25T18:13:46Z",
      "version": 1,
      "changeset": 143128913,
      "user": "07819108177alish",
      "uid": 20429782,
      "tags": {
        "addr:street": "Ø´Û•Ù‚Ø§Ù…ÛŒ Ú©ÙˆØ±Ø¯Ø³ØªØ§Ù†",
        "amenity": "pub",
        "name": "Ù…ÙƒØ§Ù† Ù…Ø³Ø§Ø¬ ÙˆØ¨Ø§Ø±"
      }
    },
    {
      "type": "node",
      "id": 11299253770,
      "lat": 33.3541502,
      "lon": 44.4906818,
      "timestamp": "2023-10-30T06:03:42Z",
      "version": 1,
      "changeset": 143345029,
      "user": "Ù…Ø­Ù…Ø¯  Ø±Ø¹Ø¯",
      "uid": 20491540,
      "tags": {
        "amenity": "bar",
        "name": "Ø³Ù†ØªØ± Ø§Ù„ØµØ­ÙÙŠÙ†"
      }
    },
    {
      "type": "node",
      "id": 11337119969,
      "lat": 33.2721661,
      "lon": 44.2816401,
      "timestamp": "2024-06-18T04:37:09Z",
      "version": 3,
      "changeset": 152828021,
      "user": "mavl",
      "uid": 564990,
      "tags": {
        "amenity": "bar",
        "internet_access": "wlan",
        "name": "Ù…Ù‚Ø± Ø§Ù„Ù„ÙˆØ§Ø¡ Ø§Ù„Ø«Ø§Ù„Ø« ÙØ±Ù‚Ø© Ø§Ù„Ø±Ø¯ Ø§Ù„Ø³Ø±ÙŠØ¹",
        "opening_hours": "24/7"
      }
    },
    {
      "type": "node",
      "id": 11343624869,
      "lat": 35.4296445,
      "lon": 44.4222533,
      "timestamp": "2024-06-18T04:37:09Z",
      "version": 3,
      "changeset": 152828021,
      "user": "mavl",
      "uid": 564990,
      "tags": {
        "amenity": "pub",
        "name": "Ø³ÙŠØ¯ Ù…Ø­Ù…ÙˆØ¯ Ù‚Ø§Ø¯Ø³ÙŠØ©2"
      }
    },
    {
      "type": "node",
      "id": 11406984469,
      "lat": 31.0287159,
      "lon": 46.2449866,
      "timestamp": "2023-12-10T07:53:58Z",
      "version": 1,
      "changeset": 144956200,
      "user": "Kadhem07",
      "uid": 20354624,
      "tags": {
        "amenity": "pub",
        "name": "Ù…ÙƒØªØ¨ Ø§Ù„ÙƒÙŠ ÙƒØ§Ø±Ø¯"
      }
    },
    {
      "type": "node",
      "id": 11414856473,
      "lat": 31.5704036,
      "lon": 46.5354578,
      "timestamp": "2023-12-13T14:11:24Z",
      "version": 1,
      "changeset": 145076851,
      "user": "Ø¹Ø¨Ø§Ø³ Ø¬Ù„ÙŠÙ„",
      "uid": 20639007,
      "tags": {
        "amenity": "pub"
      }
    },
    {
      "type": "node",
      "id": 11416308669,
      "lat": 30.5482406,
      "lon": 47.8092497,
      "timestamp": "2023-12-14T04:25:37Z",
      "version": 1,
      "changeset": 145096164,
      "user": "Mustafa alallak",
      "uid": 9071532,
      "tags": {
        "amenity": "bar",
        "name": "ÙƒØ§Ø¸Ù… Ù…Ø­Ù…Ø¯ Ù…Ø®ÙŠÙ Ø§Ø¨Ùˆ Ø§Ù…ÙŠØ±"
      }
    },
    {
      "type": "node",
      "id": 11455307669,
      "lat": 31.2689196,
      "lon": 45.2048668,
      "timestamp": "2023-12-26T10:33:18Z",
      "version": 1,
      "changeset": 145527502,
      "user": "Ø±Ø­Ù…Ù† Ø§Ù„Ù…Ù„Ùƒ 0780",
      "uid": 17972446,
      "tags": {
        "amenity": "pub",
        "name": "Ù…ØªÙ†Ù‚Ù„Ø© Ø§Ù„Ù†ÙƒØ§Ø±"
      }
    },
    {
      "type": "node",
      "id": 11479455369,
      "lat": 32.65154,
      "lon": 44.0291034,
      "timestamp": "2024-01-02T17:48:11Z",
      "version": 1,
      "changeset": 145808376,
      "user": "Hussainlawyerhk",
      "uid": 20090508,
      "tags": {
        "amenity": "pub"
      }
    },
    {
      "type": "node",
      "id": 11482248369,
      "lat": 35.8894926,
      "lon": 44.5839845,
      "timestamp": "2024-01-03T08:50:27Z",
      "version": 1,
      "changeset": 145828713,
      "user": "ØªÙˆØ§Ù†Ø§",
      "uid": 6689014,
      "tags": {
        "amenity": "pub",
        "name": "Ú¯ÙˆØ±Ù‚Ù‡ Ø±Ù‡ Ø¬"
      }
    },
    {
      "type": "node",
      "id": 11505279969,
      "lat": 30.9433686,
      "lon": 47.0561759,
      "timestamp": "2024-01-10T07:05:22Z",
      "version": 1,
      "changeset": 146091885,
      "user": "captainali85",
      "uid": 20857541,
      "tags": {
        "amenity": "pub"
      }
    },
    {
      "type": "node",
      "id": 11531783069,
      "lat": 37.1577763,
      "lon": 42.6653505,
      "timestamp": "2024-01-19T19:40:03Z",
      "version": 2,
      "changeset": 146455646,
      "user": "Cafe roial",
      "uid": 20917633,
      "tags": {
        "addr:housenumber": "1430",
        "amenity": "pub",
        "phone": "7503323506",
        "shop": "car_parts"
      }
    },
    {
      "type": "node",
      "id": 11531788769,
      "lat": 37.1577791,
      "lon": 42.6653258,
      "timestamp": "2024-01-19T19:42:32Z",
      "version": 1,
      "changeset": 146455707,
      "user": "Cafe roial",
      "uid": 20917633,
      "tags": {
        "addr:housenumber": "1234",
        "addr:postcode": "211378",
        "amenity": "pub",
        "internet_access": "wlan",
        "phone": "7503323506"
      }
    },
    {
      "type": "node",
      "id": 11590952769,
      "lat": 36.2109477,
      "lon": 43.9895856,
      "timestamp": "2024-02-06T05:51:06Z",
      "version": 1,
      "changeset": 147119421,
      "user": "abuyosif111",
      "uid": 20736786,
      "tags": {
        "amenity": "bar",
        "name:en": "Ø¬ÙˆÙƒÙ„ÙŠØª"
      }
    },
    {
      "type": "node",
      "id": 11627769269,
      "lat": 35.6553944,
      "lon": 45.5727226,
      "timestamp": "2024-02-15T20:16:11Z",
      "version": 1,
      "changeset": 147506694,
      "user": "jack562",
      "uid": 20948123,
      "tags": {
        "amenity": "bar",
        "name:en": "korsh"
      }
    },
    {
      "type": "node",
      "id": 11631441948,
      "lat": 33.298385,
      "lon": 44.4341234,
      "timestamp": "2024-02-17T02:13:32Z",
      "version": 3,
      "changeset": 147554676,
      "user": "LockOnGuy",
      "uid": 15559282,
      "tags": {
        "amenity": "bar",
        "name": "Lumana",
        "name:ar": "Ù„ÙˆÙ…Ø§Ù†Ø§"
      }
    },
    {
      "type": "node",
      "id": 11633758169,
      "lat": 33.3477379,
      "lon": 44.4574126,
      "timestamp": "2024-02-17T07:00:35Z",
      "version": 1,
      "changeset": 147558616,
      "user": "Ù…Ø­Ù…Ø¯  Ø±Ø¹Ø¯",
      "uid": 20491540,
      "tags": {
        "amenity": "bar",
        "name": "Ø§Ù„ØªØ³Ø§Ù…Ø­"
      }
    },
    {
      "type": "node",
      "id": 11694189870,
      "lat": 33.1068579,
      "lon": 41.4065003,
      "timestamp": "2024-03-05T14:53:01Z",
      "version": 2,
      "changeset": 148254407,
      "user": "waleedm",
      "uid": 10548458,
      "tags": {
        "amenity": "bar",
        "name": "Ù†Ù‚Ø·Ø© Ø¹Ø³ÙƒØ±ÙŠØ© Ø³3"
      }
    },
    {
      "type": "node",
      "id": 11701950469,
      "lat": 30.5928682,
      "lon": 47.7953522,
      "timestamp": "2024-03-07T19:55:36Z",
      "version": 1,
      "changeset": 148357908,
      "user": "Vipmbaf",
      "uid": 9364991,
      "tags": {
        "amenity": "pub",
        "name": "Ø¨Ø§Ø¨ Ø§Ù„Ù‡ÙˆÙ‰"
      }
    },
    {
      "type": "node",
      "id": 11780682369,
      "lat": 35.7542692,
      "lon": 44.1462872,
      "timestamp": "2024-04-02T15:13:51Z",
      "version": 1,
      "changeset": 149486533,
      "user": "hussenroyalnet",
      "uid": 16054461,
      "tags": {
        "amenity": "pub",
        "name": "ÙƒÙˆØ¨Ø±ÙŠ"
      }
    },
    {
      "type": "node",
      "id": 11780745070,
      "lat": 36.2485426,
      "lon": 43.2658809,
      "timestamp": "2024-04-03T05:58:36Z",
      "version": 2,
      "changeset": 149507106,
      "user": "Aloo5h",
      "uid": 21267793,
      "tags": {
        "amenity": "bar",
        "historic": "monument",
        "name": "Ù…Ù‚Ø¨Ø±Ø© Ø§Ù„Ø­Ø§Ø¬ ØªÙˆÙÙŠÙ‚ Ø§Ù„Ø¯Ø¨Ø§Øº"
      }
    },
    {
      "type": "node",
      "id": 11784545669,
      "lat": 35.2712158,
      "lon": 44.3964248,
      "timestamp": "2024-04-03T20:00:34Z",
      "version": 1,
      "changeset": 149541562,
      "user": "Akeel_tuz",
      "uid": 17050170,
      "tags": {
        "amenity": "pub",
        "name": "Ø¨Ø¦Ø±67"
      }
    },
    {
      "type": "node",
      "id": 11822749569,
      "lat": 36.3749316,
      "lon": 43.1390484,
      "timestamp": "2024-04-16T18:21:49Z",
      "version": 1,
      "changeset": 150098045,
      "user": "Ù…Ø¯Ø§Ù„Ù„Ù‡ Ø§Ù„Ø¹Ø§ØµÙŠ",
      "uid": 18381349,
      "tags": {
        "amenity": "pub"
      }
    },
    {
      "type": "node",
      "id": 11828286570,
      "lat": 35.2713236,
      "lon": 45.4295057,
      "timestamp": "2024-04-18T12:42:20Z",
      "version": 1,
      "changeset": 150173586,
      "user": "Sajad_Dody",
      "uid": 4026919,
      "tags": {
        "amenity": "bar",
        "name": "ØªØ¬Ù…Ø¹ Ø§Ù„Ø®Ù…Ø§Ø±Ø©S"
      }
    },
    {
      "type": "node",
      "id": 11828704877,
      "lat": 33.2422907,
      "lon": 44.4085087,
      "timestamp": "2024-04-18T16:01:21Z",
      "version": 1,
      "changeset": 150183247,
      "user": "Dr87hussain",
      "uid": 17210698,
      "tags": {
        "amenity": "bar",
        "name": "Ø§Ø¨Ùˆ Ø§Ù„Ø®ÙŠØ±"
      }
    },
    {
      "type": "node",
      "id": 11850885174,
      "lat": 33.4907121,
      "lon": 48.3579771,
      "timestamp": "2024-04-26T16:39:01Z",
      "version": 1,
      "changeset": 150548127,
      "user": "Ø­Ø³Ù† Ø¹Ù„ÙŠ Ø³Ø¹ÙŠØ¯",
      "uid": 21357916,
      "tags": {
        "amenity": "pub"
      }
    },
    {
      "type": "node",
      "id": 11850902371,
      "lat": 33.4544739,
      "lon": 48.3575764,
      "timestamp": "2024-04-26T16:39:04Z",
      "version": 1,
      "changeset": 150548127,
      "user": "Ø­Ø³Ù† Ø¹Ù„ÙŠ Ø³Ø¹ÙŠØ¯",
      "uid": 21357916,
      "tags": {
        "addr:housenumber": "27",
        "addr:street": "Ø·ÛŒØ¨",
        "amenity": "pub",
        "cuisine": "diner",
        "internet_access": "wlan",
        "name": "ÙØ§Ø±Ø³ÙŠ",
        "name:en": "Farse",
        "phone": "07857440623",
        "website": "http://az112233aazza@gmail.com"
      }
    },
    {
      "type": "node",
      "id": 11875463769,
      "lat": 31.9952134,
      "lon": 44.3340408,
      "timestamp": "2024-05-03T02:45:58Z",
      "version": 1,
      "changeset": 150817255,
      "user": "akram-alsafe",
      "uid": 6617259,
      "tags": {
        "amenity": "bar",
        "name": "ÙƒØ±Ø§Ø¬ Ø§Ù„Ù†Ø¬Ù ÙˆÙ‚ Ø§Ù„Ø³ÙŠØ§Ø±Ù‡"
      }
    },
    {
      "type": "node",
      "id": 11971571769,
      "lat": 36.4882607,
      "lon": 43.1177297,
      "timestamp": "2024-06-11T09:02:19Z",
      "version": 1,
      "changeset": 152532048,
      "user": "Ù‚Ø§Ø³Ù… Ø²Ù‡ÙŠØ±ÙŠ",
      "uid": 20233490,
      "tags": {
        "amenity": "bar",
        "name": "Ù†ÙÙˆØ³ ØªÙ„ÙƒÙŠÙ"
      }
    },
    {
      "type": "node",
      "id": 11987153884,
      "lat": 36.619457,
      "lon": 44.6777289,
      "timestamp": "2024-06-17T09:06:53Z",
      "version": 1,
      "changeset": 152792358,
      "user": "Sajad_Dody",
      "uid": 4026919,
      "tags": {
        "amenity": "pub",
        "name": "ØªØ¬Ù…Ø¹ Ø®Ù…Ø§Ø±Ø© Ø§Ù„Ø¹Ø±Ø§Ù‚"
      }
    },
    {
      "type": "node",
      "id": 11990747569,
      "lat": 32.4487841,
      "lon": 44.4299405,
      "timestamp": "2024-06-18T18:56:47Z",
      "version": 1,
      "changeset": 152862371,
      "user": "Abasim",
      "uid": 21671070,
      "tags": {
        "amenity": "bar",
        "name:en": "Ø¨ÙŠØª Ø¹Ù…Ùˆ Ø¹Ù…Ø§Ø¯/ Ø§Ù„Ø­Ù„Ø©"
      }
    },
    {
      "type": "node",
      "id": 11999909469,
      "lat": 33.4110446,
      "lon": 44.4005306,
      "timestamp": "2024-06-21T23:24:55Z",
      "version": 1,
      "changeset": 153011551,
      "user": "ali_hafudhi",
      "uid": 15356966,
      "tags": {
        "amenity": "pub",
        "internet_access": "wlan",
        "name:en": "Ø¨ÙŠØª Ø¹Ù„ÙŠ Ø§Ù„Ù…ÙˆÙ„Ù‰"
      }
    },
    {
      "type": "node",
      "id": 12012019269,
      "lat": 32.5612584,
      "lon": 46.2740612,
      "timestamp": "2024-06-26T09:05:30Z",
      "version": 1,
      "changeset": 153192600,
      "user": "Aboarab8587",
      "uid": 21683406,
      "tags": {
        "amenity": "pub",
        "name": "ÙŠØª Ø§Ø¨Ùˆ Ø¹Ø±Ø¨"
      }
    },
    {
      "type": "node",
      "id": 12254993104,
      "lat": 36.0215639,
      "lon": 43.9179951,
      "timestamp": "2024-10-16T12:31:55Z",
      "version": 1,
      "changeset": 157962466,
      "user": "Traveler_22",
      "uid": 22067726,
      "tags": {
        "amenity": "bar",
        "name": "Ù†ÙÙˆØ³ Ø´Û•Ù…Ø§Ù…Ú©"
      }
    },
    {
      "type": "node",
      "id": 12420163702,
      "lat": 36.3329285,
      "lon": 43.1791922,
      "timestamp": "2024-12-13T13:43:42Z",
      "version": 1,
      "changeset": 160246947,
      "user": "Hasan Aboamran",
      "uid": 13925767,
      "tags": {
        "amenity": "pub",
        "name": "Ø¨ÙŠØª Ø¹Ù…ÙŠ Ø£Ø¨Ùˆ Ø­Ø³Ù†"
      }
    },
    {
      "type": "node",
      "id": 12455747701,
      "lat": 31.2247137,
      "lon": 46.1939071,
      "timestamp": "2024-12-27T11:57:16Z",
      "version": 1,
      "changeset": 160672852,
      "user": "alkhafaji900",
      "uid": 13768038,
      "tags": {
        "amenity": "pub",
        "name": "Ø¨ÙŠØª Ø§Ø¨Ùˆ Ø­Ø³ÙŠÙ†"
      }
    },
    {
      "type": "node",
      "id": 12459027403,
      "lat": 30.3397599,
      "lon": 45.0076159,
      "timestamp": "2024-12-28T15:02:53Z",
      "version": 1,
      "changeset": 160717505,
      "user": "Ejjr rjtht rjdj",
      "uid": 22329098,
      "tags": {
        "amenity": "bar",
        "name": "ÙÙŠØ¶Øª Ø¹Ø§ÙŠØ¯ Ø§Ù„Ø¹Ø·ÙˆÙŠ"
      }
    },
    {
      "type": "node",
      "id": 12852308784,
      "lat": 35.2584714,
      "lon": 47.0177834,
      "timestamp": "2025-05-21T04:44:54Z",
      "version": 1,
      "changeset": 166549374,
      "user": "Mohamadsh85313",
      "uid": 22921898,
      "tags": {
        "amenity": "bar"
      }
    },
    {
      "type": "node",
      "id": 12896124502,
      "lat": 32.6130546,
      "lon": 44.0236742,
      "timestamp": "2025-06-08T05:50:25Z",
      "version": 1,
      "changeset": 167335598,
      "user": "Husseinfaleh837472",
      "uid": 22980858,
      "tags": {
        "amenity": "pub"
      }
    },
    {
      "type": "node",
      "id": 13045036901,
      "lat": 33.2437468,
      "lon": 44.5120316,
      "timestamp": "2025-08-03T05:44:55Z",
      "version": 1,
      "changeset": 169888543,
      "user": "Oday Manshid",
      "uid": 13685575,
      "tags": {
        "amenity": "pub"
      }
    },
    {
      "type": "node",
      "id": 13134676860,
      "lat": 36.2088486,
      "lon": 43.9744651,
      "timestamp": "2025-09-10T18:23:25Z",
      "version": 2,
      "changeset": 171750212,
      "user": "sekosurchi",
      "uid": 23278779,
      "tags": {
        "addr:city": "Dream City, Erbil, Iraq",
        "addr:place": "Ù†Ø§Ø­ÛŒÛ•ÛŒ Ø¹Û•Ù†Ú©Ø§ÙˆÛ•",
        "addr:postcode": "44001",
        "amenity": "bar",
        "brewery": "yes",
        "contact:facebook": "https://www.facebook.com/share/1BU6wMR8hy/?mibextid=wwXIfr",
        "cuisine": "grill",
        "name": "Volcanoes lounge",
        "opening_hours": "Mo-Su 09:00-21:00",
        "phone": "+9647707446060",
        "website": "https://maps.app.goo.gl/16nmi6ZF7EZPELwt7?g_st=ipc",
        "website:menu": "https://www.morinamenu.com/volcanoes.loungerestbar?fbclid=PAZnRzaAMunnpleHRuA2FlbQIxMQABpzT_KZLkmr3N36zXar_K6E-Mnja8_lps6HTRF6YFH0u1XmRW2dH-i6fy9ugZ_aem_C6mVCpkElWPi18FaLOQSEg"
      }
    },
    {
      "type": "node",
      "id": 13201785301,
      "lat": 31.2443941,
      "lon": 43.6688283,
      "timestamp": "2025-10-08T00:38:37Z",
      "version": 1,
      "changeset": 172981506,
      "user": "Fadlread",
      "uid": 23373186,
      "tags": {
        "amenity": "pub"
      }
    },
    {
      "type": "way",
      "id": 399816165,
      "timestamp": "2020-07-27T09:05:53Z",
      "version": 2,
      "changeset": 88553944,
      "user": "Renas Azad",
      "uid": 5663583,
      "center": {
        "lat": 36.0847775,
        "lon": 44.621499
      },
      "nodes": [
        4024929603,
        4024929604,
        4024929605,
        4024929606,
        4024929603
      ],
      "tags": {
        "addr:city": "Koya",
        "addr:street": "Iskan Roaq",
        "amenity": "bar",
        "building:levels": "3",
        "ele": "20",
        "name": "Employee Glub"
      }
    },
    {
      "type": "way",
      "id": 499337393,
      "timestamp": "2024-01-08T11:59:38Z",
      "version": 4,
      "changeset": 146026109,
      "user": "Mahmood_abdul",
      "uid": 12978592,
      "center": {
        "lat": 36.1845457,
        "lon": 44.0001986
      },
      "nodes": [
        4906216583,
        4906216584,
        4906216585,
        4906216586,
        4906216583
      ],
      "tags": {
        "addr:city": "Ø£Ø±Ø¨ÙŠÙ„",
        "addr:country": "IQ",
        "addr:district": "Ù‚Ø¶Ø§Ø¡ Ø£Ø±Ø¨ÙŠÙ„",
        "addr:postcode": "44001",
        "addr:state": "Ù…Ø­Ø§ÙØ¸Ø© Ø£Ø±Ø¨ÙŠÙ„",
        "amenity": "bar",
        "building": "yes"
      }
    },
    {
      "type": "way",
      "id": 499337395,
      "timestamp": "2017-06-09T16:19:33Z",
      "version": 1,
      "changeset": 49402114,
      "user": "lamacchiacosta",
      "uid": 543072,
      "center": {
        "lat": 36.1862122,
        "lon": 44.0005488
      },
      "nodes": [
        4906216595,
        4906216596,
        4906216597,
        4906216598,
        4906216595
      ],
      "tags": {
        "amenity": "bar",
        "building": "yes"
      }
    },
    {
      "type": "way",
      "id": 814043279,
      "timestamp": "2020-06-09T04:07:36Z",
      "version": 1,
      "changeset": 86380155,
      "user": "wecaves515",
      "uid": 11318224,
      "center": {
        "lat": 37.2957938,
        "lon": 49.6278049
      },
      "nodes": [
        7604224681,
        7604224682,
        7604224683,
        7604224684,
        7604224681
      ],
      "tags": {
        "amenity": "bar",
        "building": "yes",
        "name": "ÙØ±ÙˆØ´ Ø³Ù†ØªÛŒ Ùˆ ØµÙ†Ø¹ØªÛŒ"
      }
    },
    {
      "type": "way",
      "id": 850193011,
      "timestamp": "2020-09-22T15:57:33Z",
      "version": 1,
      "changeset": 91307988,
      "user": "TobiasFischer00",
      "uid": 11418917,
      "center": {
        "lat": 33.4398549,
        "lon": 44.3434862
      },
      "nodes": [
        7931835660,
        7931835661,
        7931835662,
        7931835663,
        7931835660
      ],
      "tags": {
        "amenity": "bar",
        "building": "yes"
      }
    },
    {
      "type": "way",
      "id": 912567232,
      "timestamp": "2021-03-01T22:39:31Z",
      "version": 1,
      "changeset": 100233360,
      "user": "rezhwan osman",
      "uid": 12760774,
      "center": {
        "lat": 35.6286134,
        "lon": 45.4995344
      },
      "nodes": [
        8477255151,
        8477255152,
        8477255153,
        8477255154,
        8477255151
      ],
      "tags": {
        "amenity": "bar",
        "building": "yes",
        "name": "bar"
      }
    },
    {
      "type": "way",
      "id": 1081357016,
      "timestamp": "2022-07-26T09:31:38Z",
      "version": 1,
      "changeset": 124086185,
      "user": "Renas Azad",
      "uid": 5663583,
      "center": {
        "lat": 35.5576516,
        "lon": 45.3639295
      },
      "nodes": [
        9911219301,
        9911219302,
        9911219303,
        9911219304,
        9911219305,
        9911219306,
        9911219307,
        9911219308,
        9911219301
      ],
      "tags": {
        "amenity": "bar",
        "building": "yes",
        "name": "Ø¨Ø§Ø±ÛŒ Ù†Û†Ø³ØªØ§ÚµØ¬ÛŒØ§",
        "name:ckb": "Ø¨Ø§Ø±ÛŒ Ù†Û†Ø³ØªØ§ÚµØ¬ÛŒØ§"
      }
    }
  ]
}