{
  "version": 0.6,
  "generator": "Overpass API 0.7.62.8 e802775f",
  "osm3s": {
    "timestamp_osm_base": "2025-10-23T20:39:16Z",
    "copyright": "The data included in this document is from www.openstreetmap.org. The data is made available under ODbL."
  },
  "elements": [
    {
      "type": "node",
      "id": 988721164,
      "lat": 53.7245537,
      "lon": 91.4433514,
      "timestamp": "2012-02-05T07:21:27Z",
      "version": 5,
      "changeset": 10590864,
      "user": "Hind",
      "uid": 79836,
      "tags": {
        "amenity": "pub",
        "name": "Лисья нора"
      }
    },
    {
      "type": "node",
      "id": 1065862716,
      "lat": 56.0465505,
      "lon": 92.9421693,
      "timestamp": "2010-12-26T14:06:52Z",
      "version": 1,
      "changeset": 6768413,
      "user": "Death26",
      "uid": 388073,
      "tags": {
        "amenity": "pub",
        "name": "Магазин Краснодарский"
      }
    },
    {
      "type": "node",
      "id": 1210170649,
      "lat": 56.1077474,
      "lon": 94.5669802,
      "timestamp": "2020-06-06T04:11:22Z",
      "version": 7,
      "changeset": 86267727,
      "user": "BANO notIT",
      "uid": 9657291,
      "tags": {
        "addr:housenumber": "12",
        "addr:street": "Парковая улица",
        "amenity": "pub",
        "name": "Вираж"
      }
    },
    {
      "type": "node",
      "id": 1215789130,
      "lat": 56.1112469,
      "lon": 94.584623,
      "timestamp": "2015-02-28T08:23:34Z",
      "version": 2,
      "changeset": 29150685,
      "user": "uks",
      "uid": 452703,
      "tags": {
        "amenity": "bar",
        "name": "бар \"Билли Бонс\""
      }
    },
    {
      "type": "node",
      "id": 1252528511,
      "lat": 56.1129053,
      "lon": 94.6046978,
      "timestamp": "2015-02-28T08:23:33Z",
      "version": 2,
      "changeset": 29150685,
      "user": "uks",
      "uid": 452703,
      "tags": {
        "amenity": "bar",
        "name": "Спорт-бар",
        "source": "Bing"
      }
    },
    {
      "type": "node",
      "id": 1526722957,
      "lat": 56.1150547,
      "lon": 94.5912186,
      "timestamp": "2015-02-28T08:23:29Z",
      "version": 3,
      "changeset": 29150685,
      "user": "uks",
      "uid": 452703,
      "tags": {
        "amenity": "bar",
        "name": "Мята"
      }
    },
    {
      "type": "node",
      "id": 1590854551,
      "lat": 53.73985,
      "lon": 91.4210482,
      "timestamp": "2012-01-15T14:12:16Z",
      "version": 1,
      "changeset": 10398369,
      "user": "aks46",
      "uid": 460348,
      "tags": {
        "amenity": "bar"
      }
    },
    {
      "type": "node",
      "id": 1618642819,
      "lat": 53.7380572,
      "lon": 91.434929,
      "timestamp": "2023-10-18T05:27:55Z",
      "version": 3,
      "changeset": 142742356,
      "user": "b-jazz-bot",
      "uid": 9451067,
      "tags": {
        "amenity": "pub",
        "name": "Лимерик",
        "website": "https://www.publimerick.ru/"
      }
    },
    {
      "type": "node",
      "id": 1884227193,
      "lat": 58.6045512,
      "lon": 99.1843189,
      "timestamp": "2012-08-26T18:36:46Z",
      "version": 1,
      "changeset": 12870238,
      "user": "Sibirsky",
      "uid": 444852,
      "tags": {
        "amenity": "bar",
        "name": "Берендей"
      }
    },
    {
      "type": "node",
      "id": 1884227208,
      "lat": 58.6074951,
      "lon": 99.1907214,
      "timestamp": "2012-08-26T18:36:46Z",
      "version": 1,
      "changeset": 12870238,
      "user": "Sibirsky",
      "uid": 444852,
      "tags": {
        "amenity": "bar"
      }
    },
    {
      "type": "node",
      "id": 2029603964,
      "lat": 56.2559029,
      "lon": 93.5229606,
      "timestamp": "2020-10-28T06:12:53Z",
      "version": 3,
      "changeset": 93157802,
      "user": "parukhin",
      "uid": 519501,
      "tags": {
        "amenity": "bar",
        "level": "1",
        "name": "12 футов",
        "opening_hours": "12:00-02:00",
        "phone": "+7 3919 770894;+7 908 2234894",
        "sport": "billiards",
        "website": "http://vk.com/club27699228"
      }
    },
    {
      "type": "node",
      "id": 2350280363,
      "lat": 56.052383,
      "lon": 92.9529773,
      "timestamp": "2013-06-18T02:13:53Z",
      "version": 1,
      "changeset": 16598119,
      "user": "juliazz",
      "uid": 1198719,
      "tags": {
        "amenity": "bar",
        "name": "Элден"
      }
    },
    {
      "type": "node",
      "id": 2468414423,
      "lat": 56.0096887,
      "lon": 92.8780708,
      "timestamp": "2023-08-26T13:09:38Z",
      "version": 9,
      "changeset": 140411261,
      "user": "Takuto",
      "uid": 383200,
      "tags": {
        "addr:floor": "2",
        "addr:housenumber": "12/6",
        "addr:street": "улица Сурикова",
        "amenity": "bar",
        "check_date": "2023-08-26",
        "name": "Булгаков",
        "payment:mastercard": "yes",
        "payment:visa": "yes",
        "phone": "+7 391 2728778",
        "wheelchair": "no"
      }
    },
    {
      "type": "node",
      "id": 2468414426,
      "lat": 56.0096956,
      "lon": 92.8782641,
      "timestamp": "2023-05-14T14:05:14Z",
      "version": 8,
      "changeset": 136086797,
      "user": "maptactics",
      "uid": 13667061,
      "tags": {
        "addr:housenumber": "12/6",
        "addr:street": "улица Сурикова",
        "amenity": "pub",
        "name": "Залечь на дно в Гамбург",
        "phone": "+7 391 2863355",
        "website": "berrywoodfamily.ru"
      }
    },
    {
      "type": "node",
      "id": 2602809568,
      "lat": 55.9679808,
      "lon": 92.7442107,
      "timestamp": "2020-03-14T12:38:28Z",
      "version": 2,
      "changeset": 82192487,
      "user": "alexzhuk",
      "uid": 9522604,
      "tags": {
        "amenity": "bar",
        "name": "Терем"
      }
    },
    {
      "type": "node",
      "id": 2686406807,
      "lat": 56.0397158,
      "lon": 92.9237899,
      "timestamp": "2022-12-07T13:24:08Z",
      "version": 12,
      "changeset": 129822416,
      "user": "Const@nt",
      "uid": 14074246,
      "tags": {
        "air_conditioning": "yes",
        "amenity": "bar",
        "indoor_seating": "yes",
        "name": "The mods bar",
        "opening_hours": "Su-Th 12:00-21:00, Fr,Sa 21:00-06:00",
        "outdoor_seating": "no",
        "smoking": "no"
      }
    },
    {
      "type": "node",
      "id": 3551372071,
      "lat": 56.1071271,
      "lon": 92.9191997,
      "timestamp": "2015-05-27T17:06:54Z",
      "version": 1,
      "changeset": 31509078,
      "user": "chebodesign",
      "uid": 2930151,
      "tags": {
        "amenity": "pub",
        "wifi": "no"
      }
    },
    {
      "type": "node",
      "id": 3687715645,
      "lat": 56.0089371,
      "lon": 92.8477488,
      "timestamp": "2022-05-27T23:18:07Z",
      "version": 4,
      "changeset": 121596273,
      "user": "b-jazz-bot",
      "uid": 9451067,
      "tags": {
        "amenity": "pub",
        "name": "The James Shark Pub",
        "phone": "+7 391 2662300",
        "website": "https://jspub.ru/"
      }
    },
    {
      "type": "node",
      "id": 3687715649,
      "lat": 56.012934,
      "lon": 92.890205,
      "timestamp": "2025-06-20T06:35:05Z",
      "version": 6,
      "changeset": 167854603,
      "user": "alexzhuk",
      "uid": 9522604,
      "tags": {
        "amenity": "pub",
        "name": "Harat`s pub",
        "phone": "+7 391 227-78-18",
        "theme": "irish"
      }
    },
    {
      "type": "node",
      "id": 4376771190,
      "lat": 56.0025052,
      "lon": 92.8051764,
      "timestamp": "2024-02-21T16:28:27Z",
      "version": 4,
      "changeset": 147740360,
      "user": "medvelet",
      "uid": 9927171,
      "tags": {
        "amenity": "bar",
        "internet_access": "wlan",
        "name": "Cambridge"
      }
    },
    {
      "type": "node",
      "id": 4380110134,
      "lat": 53.8270761,
      "lon": 91.3277235,
      "timestamp": "2025-03-23T01:01:25Z",
      "version": 13,
      "changeset": 163968705,
      "user": "Crogan",
      "uid": 10377227,
      "tags": {
        "addr:city": "Черногорск",
        "addr:housenumber": "11а к2",
        "addr:street": "Юбилейная улица",
        "amenity": "pub",
        "name": "У друзей",
        "opening_hours": "Mo-Su 09:00-23:00"
      }
    },
    {
      "type": "node",
      "id": 4388478893,
      "lat": 55.9882344,
      "lon": 92.8975385,
      "timestamp": "2024-06-04T17:12:41Z",
      "version": 2,
      "changeset": 152253491,
      "user": "alexzhuk",
      "uid": 9522604,
      "tags": {
        "amenity": "bar",
        "cuisine": "coffee_shop",
        "email": "info@mountvape.ru",
        "internet_access": "wlan",
        "name": "Маунт Вэйп",
        "name:en": "Mount Vape",
        "name:ru": "Маунт Вэйп",
        "opening_hours": "Mo-Su 10:00-22:00",
        "phone": "+73912324757",
        "website": "http://MountVape.ru"
      }
    },
    {
      "type": "node",
      "id": 4409640857,
      "lat": 55.6383896,
      "lon": 95.4564876,
      "timestamp": "2016-09-20T13:03:40Z",
      "version": 1,
      "changeset": 42298394,
      "user": "catix",
      "uid": 4604277,
      "tags": {
        "amenity": "bar"
      }
    },
    {
      "type": "node",
      "id": 4418415549,
      "lat": 56.0332504,
      "lon": 92.9240433,
      "timestamp": "2024-12-26T11:42:13Z",
      "version": 9,
      "changeset": 160633440,
      "user": "coteyka",
      "uid": 21317938,
      "tags": {
        "addr:city": "Красноярск",
        "addr:housenumber": "19Д",
        "addr:street": "улица Партизана Железняка",
        "amenity": "bar",
        "capacity": "50",
        "cuisine": "american;cake;italian;mediterranean;oriental;russian;seafood",
        "internet_access": "wlan",
        "name": "Кураж, Рестобар",
        "name:en": "Сourage, Restobar",
        "name:ru": "Кураж, Рестобар",
        "opening_hours": "Mo-Th,Su 12:00-00:00; Fr-Sa 12:00-04:00",
        "phone": "+73912002668",
        "smoking": "no"
      }
    },
    {
      "type": "node",
      "id": 4459923693,
      "lat": 58.1929368,
      "lon": 92.5299902,
      "timestamp": "2016-10-23T05:24:57Z",
      "version": 1,
      "changeset": 43093376,
      "user": "WhiteWolf87",
      "uid": 4527219,
      "tags": {
        "amenity": "bar",
        "name": "Пивная",
        "name:ru": "Пивная"
      }
    },
    {
      "type": "node",
      "id": 4459933796,
      "lat": 58.1852687,
      "lon": 92.5292281,
      "timestamp": "2017-10-10T18:38:08Z",
      "version": 2,
      "changeset": 52802636,
      "user": "alexey_zakharenkov",
      "uid": 2580205,
      "tags": {
        "amenity": "bar",
        "name": "Пивной причал"
      }
    },
    {
      "type": "node",
      "id": 4459938092,
      "lat": 58.1858746,
      "lon": 92.5299107,
      "timestamp": "2023-04-18T16:37:25Z",
      "version": 2,
      "changeset": 135068059,
      "user": "Sergey Rihmayer",
      "uid": 8254987,
      "tags": {
        "amenity": "bar",
        "name": "Бар \"Беккер\"",
        "name:ru": "Бар \"Беккер\""
      }
    },
    {
      "type": "node",
      "id": 4499808190,
      "lat": 56.0140326,
      "lon": 92.8572728,
      "timestamp": "2020-10-28T06:12:55Z",
      "version": 2,
      "changeset": 93157802,
      "user": "parukhin",
      "uid": 519501,
      "tags": {
        "amenity": "bar",
        "name": "Бенедикт",
        "phone": "+7 391 2231011"
      }
    },
    {
      "type": "node",
      "id": 4822498021,
      "lat": 52.8376288,
      "lon": 93.256518,
      "timestamp": "2017-04-28T09:13:46Z",
      "version": 1,
      "changeset": 48221834,
      "user": "Xtens",
      "uid": 4380309,
      "tags": {
        "amenity": "bar",
        "name": "Храм Дыма (юрта)",
        "name:ru": "Храм Дыма (юрта)"
      }
    },
    {
      "type": "node",
      "id": 4901266521,
      "lat": 55.98977,
      "lon": 92.8537618,
      "timestamp": "2025-07-22T16:21:15Z",
      "version": 6,
      "changeset": 169302338,
      "user": "captive24",
      "uid": 11314389,
      "tags": {
        "amenity": "bar",
        "cuisine": "american",
        "internet_access": "wlan",
        "name": "Krigel",
        "name:en": "Krigel",
        "opening_hours": "Mo-Su 12:00-02:00",
        "phone": "+73912145399"
      }
    },
    {
      "type": "node",
      "id": 5116319722,
      "lat": 56.0401044,
      "lon": 92.7674034,
      "timestamp": "2024-12-01T06:57:46Z",
      "version": 3,
      "changeset": 159796023,
      "user": "coteyka",
      "uid": 21317938,
      "tags": {
        "amenity": "pub"
      }
    },
    {
      "type": "node",
      "id": 5991255796,
      "lat": 56.2254257,
      "lon": 95.713789,
      "timestamp": "2018-10-16T18:41:57Z",
      "version": 1,
      "changeset": 63586339,
      "user": "Сергей Рено",
      "uid": 8961035,
      "tags": {
        "amenity": "bar",
        "name": "BEERлога"
      }
    },
    {
      "type": "node",
      "id": 6003871397,
      "lat": 56.2330156,
      "lon": 93.5491138,
      "timestamp": "2020-10-28T06:12:55Z",
      "version": 2,
      "changeset": 93157802,
      "user": "parukhin",
      "uid": 519501,
      "tags": {
        "addr:postcode": "662970",
        "amenity": "bar",
        "email": "nicowmaster@mail.ru",
        "internet_access": "wlan",
        "name": "Абсолем",
        "name:en": "Absolem",
        "opening_hours": "Mo-Fr 14:00-24:00; Sa,Su 00:00-03:00,14:00-24:00",
        "phone": "+7 983 2086424"
      }
    },
    {
      "type": "node",
      "id": 6731296685,
      "lat": 56.047967,
      "lon": 92.916595,
      "timestamp": "2022-04-29T00:18:29Z",
      "version": 4,
      "changeset": 120326519,
      "user": "Const@nt",
      "uid": 14074246,
      "tags": {
        "amenity": "bar",
        "contact:phone": "+7 391 2728042",
        "indoor_seating": "yes",
        "name": "Хмельницкий",
        "opening_hours": "Fr-Sa 12:00-02:00; Mo,Tu,We,Th,Su 12:00-01:00",
        "operator": "Валеева О.А.",
        "outdoor_seating": "no",
        "smoking": "no"
      }
    },
    {
      "type": "node",
      "id": 6838291585,
      "lat": 56.0108686,
      "lon": 92.8605629,
      "timestamp": "2024-10-19T18:17:06Z",
      "version": 7,
      "changeset": 158102890,
      "user": "coteyka",
      "uid": 21317938,
      "tags": {
        "addr:housenumber": "102А",
        "addr:postcode": "660017",
        "addr:street": "улица Карла Маркса",
        "amenity": "bar",
        "contact:email": "yushin.bro@gmail.com",
        "name": "Yushin Brothers",
        "opening_hours": "Tu 15:00-01:00; We 15:00-02:00; Th 15:00-01:00; Fr 15:00-03:00; Sa 15:00-03:00; Su 15:00-01:00"
      }
    },
    {
      "type": "node",
      "id": 7041828692,
      "lat": 56.0595724,
      "lon": 92.925774,
      "timestamp": "2021-02-08T14:16:42Z",
      "version": 2,
      "changeset": 98915413,
      "user": "hackuna",
      "uid": 12626458,
      "tags": {
        "amenity": "bar",
        "name": "Kronen"
      }
    },
    {
      "type": "node",
      "id": 7054112885,
      "lat": 56.0106511,
      "lon": 92.8758756,
      "timestamp": "2025-02-16T16:40:12Z",
      "version": 6,
      "changeset": 162578288,
      "user": "coteyka",
      "uid": 21317938,
      "tags": {
        "amenity": "bar",
        "cuisine": "sandwich;sushi;tea;coffee_shop",
        "internet_access": "wlan",
        "name": "Bambi",
        "opening_hours": "Mo-Su 14:00-02:00",
        "phone": "+7 391 5080044",
        "website": "https://instagram.com/bambi_lounge"
      }
    },
    {
      "type": "node",
      "id": 7557526072,
      "lat": 56.0496571,
      "lon": 92.9139742,
      "timestamp": "2024-08-23T06:22:00Z",
      "version": 10,
      "changeset": 155635334,
      "user": "coteyka",
      "uid": 21317938,
      "tags": {
        "addr:housenumber": "50",
        "addr:street": "улица Авиаторов",
        "air_conditioning": "yes",
        "amenity": "pub",
        "indoor_seating": "yes",
        "name": "Залечь на дно в Брюгге",
        "opening_hours": "Mo-Su 12:00-01:00",
        "outdoor_seating": "no",
        "payment:credit_cards": "yes",
        "payment:debit_cards": "yes",
        "phone": "+73912886950",
        "smoking": "no",
        "website": "http://berrywoodfamily.ru/",
        "wheelchair": "no"
      }
    },
    {
      "type": "node",
      "id": 7744318827,
      "lat": 56.0415458,
      "lon": 92.8667745,
      "timestamp": "2021-02-10T06:08:40Z",
      "version": 5,
      "changeset": 99017009,
      "user": "parukhin",
      "uid": 519501,
      "tags": {
        "amenity": "bar",
        "contact:instagram": "https://instagram.com/friends_loungebar",
        "contact:phone": "+7 923 0151574",
        "name": "Друзья",
        "opening_hours": "Mo-Fr 00:00-01:00,12:00-24:00; Sa,Su 00:00-03:00,16:00-24:00",
        "operator": "Друзья",
        "shop": "e-cigarette"
      }
    },
    {
      "type": "node",
      "id": 7793057429,
      "lat": 58.3828528,
      "lon": 97.4346353,
      "timestamp": "2025-10-14T04:54:21Z",
      "version": 2,
      "changeset": 173255462,
      "user": "Noname12312",
      "uid": 23368213,
      "tags": {
        "amenity": "biergarten",
        "name": "Шашлычная"
      }
    },
    {
      "type": "node",
      "id": 7979565601,
      "lat": 56.2468069,
      "lon": 95.6925917,
      "timestamp": "2020-10-06T04:26:08Z",
      "version": 1,
      "changeset": 92016395,
      "user": "Armen Gigolyan",
      "uid": 11936886,
      "tags": {
        "addr:city": "Канск",
        "addr:housenumber": "13В",
        "addr:postcode": "663606",
        "addr:street": "Муромская улица 13В",
        "amenity": "bar",
        "name": "Night Office",
        "opening_hours": "Mo-Su 11:00-22:00"
      }
    },
    {
      "type": "node",
      "id": 8009963502,
      "lat": 53.8398745,
      "lon": 91.312192,
      "timestamp": "2020-10-15T13:31:20Z",
      "version": 1,
      "changeset": 92526006,
      "user": "Sipmix",
      "uid": 4252587,
      "tags": {
        "addr:city": "Черногорск",
        "addr:housenumber": "123",
        "addr:street": "Инициативная улица",
        "amenity": "pub",
        "name": "Пивной причал"
      }
    },
    {
      "type": "node",
      "id": 8154393597,
      "lat": 56.0016321,
      "lon": 92.9257625,
      "timestamp": "2023-09-24T14:32:58Z",
      "version": 4,
      "changeset": 141685408,
      "user": "maptactics",
      "uid": 13667061,
      "tags": {
        "amenity": "bar",
        "contact:instagram": "https://instagram.com/taiga__lounge",
        "contact:phone": "+7 391 2718959",
        "contact:vk": "https://vk.com/taiga_lounge",
        "name": "Тайга",
        "opening_hours": "Mo-Fr 12:00-24:00; Sa 00:00-02:00,12:00-24:00; Su 00:00-02:00,14:00-24:00",
        "operator": "Тайга"
      }
    },
    {
      "type": "node",
      "id": 8752484068,
      "lat": 56.0457003,
      "lon": 92.9146009,
      "timestamp": "2025-08-16T04:31:55Z",
      "version": 3,
      "changeset": 170505826,
      "user": "coteyka",
      "uid": 21317938,
      "tags": {
        "amenity": "bar",
        "contact:phone": "+7 391 2082112;+7 983 5082112",
        "indoor_seating": "yes",
        "level": "-1",
        "name": "Lucky",
        "opening_hours": "Mo-Su 14:00-02:00",
        "outdoor_seating": "no"
      }
    },
    {
      "type": "node",
      "id": 8920507966,
      "lat": 56.0125393,
      "lon": 92.8663802,
      "timestamp": "2025-01-31T16:26:41Z",
      "version": 12,
      "changeset": 161983553,
      "user": "Claudius Henrichs",
      "uid": 18069,
      "tags": {
        "addr:city": "Красноярск",
        "addr:country": "RU",
        "addr:housenumber": "29",
        "addr:postcode": "660049",
        "addr:street": "улица Перенсона",
        "air_conditioning": "yes",
        "amenity": "pub",
        "check_date": "2024-10-16",
        "contact:vk": "https://vk.com/haratspubkrsk",
        "cuisine": "irish;international",
        "description": "Harat's PUB, самая большая сеть ирландских пабов в мире!",
        "email": "perensona_harats@mail.ru",
        "image": "https://www.facebook.com/harats.perensona/photos/a.111188317904594/111255461231213/",
        "indoor_seating": "yes",
        "internet_access": "wlan",
        "internet_access:fee": "no",
        "internet_access:ssid": "Harat's_pub",
        "name": "Harat's Pub",
        "name:en": "Harat's Pub",
        "opening_hours": "24/7",
        "outdoor_seating": "no",
        "payment:american_express": "yes",
        "payment:cards": "yes",
        "payment:cash": "yes",
        "payment:credit_cards": "yes",
        "payment:debit_cards": "yes",
        "payment:maestro": "yes",
        "payment:mastercard": "yes",
        "payment:visa": "yes",
        "payment:visa_debit": "yes",
        "payment:visa_electron": "yes",
        "phone": "+7 391 214 07 99",
        "smoking": "no",
        "source": "local knowledge;gps",
        "start_date": "2021-06-25",
        "theme": "irish",
        "website": "https://harats.ru",
        "website:menu": "https://krasnoyarsk.harats.com/upload/iblock/3fd/3fd2bf8658b803e722098e1067391f7f.pdf"
      }
    },
    {
      "type": "node",
      "id": 9001449618,
      "lat": 56.1804928,
      "lon": 93.2847312,
      "timestamp": "2021-08-12T12:45:47Z",
      "version": 1,
      "changeset": 109573278,
      "user": "Rayly",
      "uid": 10161862,
      "tags": {
        "amenity": "bar"
      }
    },
    {
      "type": "node",
      "id": 9900897925,
      "lat": 53.7104615,
      "lon": 91.6861703,
      "timestamp": "2022-07-21T01:58:49Z",
      "version": 1,
      "changeset": 123871142,
      "user": "Искатель84",
      "uid": 16599539,
      "tags": {
        "amenity": "bar"
      }
    },
    {
      "type": "node",
      "id": 9900898023,
      "lat": 53.7047938,
      "lon": 91.6829571,
      "timestamp": "2022-07-21T01:58:41Z",
      "version": 1,
      "changeset": 123871138,
      "user": "Искатель84",
      "uid": 16599539,
      "tags": {
        "amenity": "bar"
      }
    },
    {
      "type": "node",
      "id": 10760770506,
      "lat": 55.9200881,
      "lon": 98.0038945,
      "timestamp": "2023-03-25T09:25:45Z",
      "version": 1,
      "changeset": 134096344,
      "user": "MrBrightsideTK",
      "uid": 4060262,
      "tags": {
        "amenity": "bar",
        "name": "Sport bar"
      }
    },
    {
      "type": "node",
      "id": 11056069605,
      "lat": 54.6247468,
      "lon": 90.1498187,
      "timestamp": "2023-07-20T04:50:03Z",
      "version": 1,
      "changeset": 138743782,
      "user": "Prokuror",
      "uid": 19783640,
      "tags": {
        "amenity": "bar",
        "cuisine": "buschenschank;italian",
        "internet_access": "wlan",
        "name": "Бар Остановка",
        "name:en": "Ostanovka bar",
        "phone": "89029408684"
      }
    },
    {
      "type": "node",
      "id": 11104623456,
      "lat": 53.7323077,
      "lon": 91.4381522,
      "timestamp": "2024-05-22T04:41:52Z",
      "version": 3,
      "changeset": 151655384,
      "user": "michael60634",
      "uid": 19551526,
      "tags": {
        "amenity": "bar",
        "contact:email": "pomazkina90@mail.ru",
        "contact:phone": "+7 902 4682575;+7 962 8475227",
        "fixme": "possible incorrect location",
        "name": "Цитадель",
        "name:en": "Citadel",
        "name:ru": "Цитадель",
        "opening_hours": "Fr-Sa 21:00-05:00; Mo-Th,Su 22:00-03:00"
      }
    },
    {
      "type": "node",
      "id": 11173895962,
      "lat": 55.0190289,
      "lon": 90.9975694,
      "timestamp": "2023-09-07T10:38:52Z",
      "version": 1,
      "changeset": 140934081,
      "user": "Великий Комбинатор",
      "uid": 20193468,
      "tags": {
        "amenity": "bar"
      }
    },
    {
      "type": "node",
      "id": 11283085114,
      "lat": 56.2780979,
      "lon": 90.5068465,
      "timestamp": "2025-07-22T09:12:41Z",
      "version": 2,
      "changeset": 169282146,
      "user": "coteyka",
      "uid": 21317938,
      "tags": {
        "amenity": "bar",
        "name": "Ковчег"
      }
    },
    {
      "type": "node",
      "id": 11291806175,
      "lat": 56.2944697,
      "lon": 90.5287164,
      "timestamp": "2023-10-26T19:12:41Z",
      "version": 1,
      "changeset": 143177352,
      "user": "Takuto",
      "uid": 383200,
      "tags": {
        "amenity": "pub",
        "name": "Pinta & Quinta"
      }
    },
    {
      "type": "node",
      "id": 11303996140,
      "lat": 55.995906,
      "lon": 92.9546624,
      "timestamp": "2024-09-16T07:36:29Z",
      "version": 3,
      "changeset": 156675030,
      "user": "kate_rocketdata",
      "uid": 12100948,
      "tags": {
        "amenity": "bar",
        "contact:phone": "+7 391 2918114",
        "contact:website": "https://urartugroup.ru/beef",
        "name": "Beef coin",
        "opening_hours": "Fr-Sa 12:00-24:00; Mo-Th,Su 12:00-23:00"
      }
    },
    {
      "type": "node",
      "id": 11304012878,
      "lat": 56.0123541,
      "lon": 92.8722322,
      "timestamp": "2024-12-17T13:28:31Z",
      "version": 2,
      "changeset": 160298371,
      "user": "coteyka",
      "uid": 21317938,
      "tags": {
        "amenity": "bar",
        "check_date": "2024-12-16",
        "contact:email": "thewelcomebar@gmail.com",
        "contact:phone": "+7 391 2759984",
        "contact:website": "https://thewelcomebar.ru/",
        "name": "The welcome",
        "opening_hours": "Fr-Sa 18:00-04:00; Mo-Th,Su 18:00-02:00"
      }
    },
    {
      "type": "node",
      "id": 11414432601,
      "lat": 53.7452721,
      "lon": 91.4183627,
      "timestamp": "2024-11-11T08:45:19Z",
      "version": 2,
      "changeset": 158998596,
      "user": "kate_rocketdata",
      "uid": 12100948,
      "tags": {
        "amenity": "bar",
        "contact:email": "grilbar.solgon@mail.ru",
        "contact:phone": "+7 902 9464639",
        "name": "Солгон",
        "opening_hours": "Fr-Sa 08:00-00:00; Mo-Th,Su 08:00-22:00"
      }
    },
    {
      "type": "node",
      "id": 12269526218,
      "lat": 56.0115813,
      "lon": 92.8593218,
      "timestamp": "2024-10-19T18:17:06Z",
      "version": 1,
      "changeset": 158102890,
      "user": "coteyka",
      "uid": 21317938,
      "tags": {
        "amenity": "pub",
        "contact:vk": "https://vk.com/los_i_losos",
        "cuisine": "italian;american;european",
        "delivery": "yes",
        "name": "Лось и лосось",
        "opening_hours": "Mo-Su 11:00-00:00; Fr-Sa 11:00-01:00",
        "phone": "+7 (391) 219-01-15",
        "takeaway": "yes"
      }
    },
    {
      "type": "node",
      "id": 12387501101,
      "lat": 55.9862071,
      "lon": 92.6724576,
      "timestamp": "2024-12-01T03:41:37Z",
      "version": 1,
      "changeset": 159793896,
      "user": "flex bro",
      "uid": 20966170,
      "tags": {
        "amenity": "bar"
      }
    },
    {
      "type": "node",
      "id": 12426526539,
      "lat": 56.011842,
      "lon": 92.8753318,
      "timestamp": "2024-12-17T18:38:30Z",
      "version": 1,
      "changeset": 160315598,
      "user": "jabunenok",
      "uid": 22297711,
      "tags": {
        "addr:city": "Krasnoyarsk",
        "addr:housenumber": "45г",
        "addr:postcode": "660049",
        "addr:street": "проспект Мира",
        "amenity": "bar",
        "brewery": "yes;various",
        "description": "Домашняя кухня, состоящая из лучших рецептов наших мам и бабушек, и непередаваемая атмосфера доброго советского настоящего! Интерьер наполнен подлинными историческими предметами, которые с любовью собирались со всех городов нашей страны.",
        "level": "-1",
        "mobile": "+7 (923) 355-00-01",
        "name": "А у нас во дворе",
        "phone": "+7 (391) 212-15-50",
        "website": "https://vk.com/a_u_nas_vo_dvore24"
      }
    },
    {
      "type": "node",
      "id": 12444906174,
      "lat": 56.0148528,
      "lon": 92.8578307,
      "timestamp": "2024-12-23T18:31:21Z",
      "version": 1,
      "changeset": 160549489,
      "user": "coteyka",
      "uid": 21317938,
      "tags": {
        "addr:floor": "-1",
        "addr:housenumber": "35",
        "addr:street": "улица Диктатуры Пролетариата",
        "amenity": "bar",
        "check_date": "2024-12-24",
        "level": "-1",
        "name": "Убежище",
        "wheelchair": "no"
      }
    },
    {
      "type": "node",
      "id": 12518124783,
      "lat": 56.011707,
      "lon": 92.8617,
      "timestamp": "2025-01-20T11:42:58Z",
      "version": 1,
      "changeset": 161559494,
      "user": "coteyka",
      "uid": 21317938,
      "tags": {
        "addr:floor": "1",
        "amenity": "bar",
        "check_date": "2025-01-20",
        "contact:instagram": "https://www.instagram.com/kiko.krsk",
        "contact:phone": "267-90-57",
        "level": "0",
        "name": "Kiko Bar",
        "opening_hours": "Mo-Th,Su 12:00-23:00; Fr-Sa 12:00-01:00",
        "ref:vatin": "245714006209",
        "wheelchair": "limited"
      }
    },
    {
      "type": "node",
      "id": 12565842903,
      "lat": 58.602939,
      "lon": 99.1623506,
      "timestamp": "2025-02-07T16:01:39Z",
      "version": 1,
      "changeset": 162251054,
      "user": "Makchen",
      "uid": 10148363,
      "tags": {
        "amenity": "bar",
        "cuisine": "grill;oriental;russian",
        "name": "Тандыр"
      }
    },
    {
      "type": "node",
      "id": 12579257933,
      "lat": 58.6043011,
      "lon": 99.184736,
      "timestamp": "2025-02-11T16:14:47Z",
      "version": 1,
      "changeset": 162397673,
      "user": "Makchen",
      "uid": 10148363,
      "tags": {
        "amenity": "bar",
        "loc_name": "Спорт-бар Лига",
        "name": "Лига"
      }
    },
    {
      "type": "node",
      "id": 12768669420,
      "lat": 55.9892523,
      "lon": 92.8551485,
      "timestamp": "2025-06-18T05:02:07Z",
      "version": 2,
      "changeset": 167764242,
      "user": "medvelet",
      "uid": 9927171,
      "tags": {
        "amenity": "pub",
        "level": "-1",
        "microbrewery": "yes",
        "name": "Купец&ко",
        "wheelchair": "no"
      }
    },
    {
      "type": "node",
      "id": 12870724256,
      "lat": 56.0342599,
      "lon": 92.9164768,
      "timestamp": "2025-05-28T11:01:55Z",
      "version": 1,
      "changeset": 166870214,
      "user": "coteyka",
      "uid": 21317938,
      "tags": {
        "amenity": "bar",
        "check_date": "2024",
        "name": "Discount Bar",
        "opening_hours": "24/7",
        "wheelchair": "no"
      }
    },
    {
      "type": "node",
      "id": 12870724271,
      "lat": 56.036581,
      "lon": 92.9177121,
      "timestamp": "2025-05-28T11:01:55Z",
      "version": 1,
      "changeset": 166870214,
      "user": "coteyka",
      "uid": 21317938,
      "tags": {
        "addr:housenumber": "1",
        "addr:street": "улица 78-й Добровольческой Бригады",
        "amenity": "bar",
        "club": "sport",
        "name": "Mizar",
        "note": "бар + бильярдный клуб",
        "opening_hours": "Mo-Su 12:00-02:00",
        "sport": "billiards"
      }
    },
    {
      "type": "node",
      "id": 12878038044,
      "lat": 53.737074,
      "lon": 91.4125158,
      "timestamp": "2025-05-31T23:52:07Z",
      "version": 1,
      "changeset": 167032046,
      "user": "GrigaMapper",
      "uid": 19271490,
      "tags": {
        "amenity": "bar"
      }
    },
    {
      "type": "node",
      "id": 13008751757,
      "lat": 53.6916627,
      "lon": 91.6097807,
      "timestamp": "2025-07-18T08:01:22Z",
      "version": 1,
      "changeset": 169095209,
      "user": "GrigaMapper",
      "uid": 19271490,
      "tags": {
        "amenity": "bar"
      }
    },
    {
      "type": "node",
      "id": 13015357685,
      "lat": 53.6899591,
      "lon": 91.665408,
      "timestamp": "2025-07-21T12:10:50Z",
      "version": 2,
      "changeset": 169240318,
      "user": "QuestingLover5",
      "uid": 22347005,
      "tags": {
        "amenity": "bar",
        "name": "Black Hookah",
        "opening_hours": "Mo-Su 14:00-04:00"
      }
    },
    {
      "type": "node",
      "id": 13022847592,
      "lat": 53.6877507,
      "lon": 91.6609077,
      "timestamp": "2025-07-25T13:14:11Z",
      "version": 2,
      "changeset": 169454073,
      "user": "QuestingLover5",
      "uid": 22347005,
      "tags": {
        "amenity": "biergarten",
        "name": "Купец",
        "opening_hours": "Mo-Su 11:00-23:00"
      }
    },
    {
      "type": "node",
      "id": 13022863868,
      "lat": 53.6874813,
      "lon": 91.6613869,
      "timestamp": "2025-07-25T13:14:22Z",
      "version": 2,
      "changeset": 169454073,
      "user": "QuestingLover5",
      "uid": 22347005,
      "tags": {
        "amenity": "biergarten",
        "name": "Пивко",
        "opening_hours": "Mo-Su 11:00-23:00"
      }
    },
    {
      "type": "way",
      "id": 104484832,
      "timestamp": "2012-12-15T02:11:06Z",
      "version": 3,
      "changeset": 14277808,
      "user": "Alexandra Buckland",
      "uid": 427472,
      "center": {
        "lat": 56.2464384,
        "lon": 93.5161165
      },
      "nodes": [
        1205553194,
        1205553214,
        1205553177,
        1205553205,
        1205553144,
        1205553228,
        1205553257,
        1205553184,
        1205553194
      ],
      "tags": {
        "addr:city": "Железногорск",
        "addr:country": "RU",
        "addr:housenumber": "7",
        "addr:street": "Парковая улица",
        "amenity": "bar",
        "building": "roof",
        "building:levels": "1",
        "fixme": "yes",
        "name": "Шайба",
        "source": "rosreestr"
      }
    },
    {
      "type": "way",
      "id": 104484833,
      "timestamp": "2012-10-28T15:29:35Z",
      "version": 2,
      "changeset": 13662652,
      "user": "Alexandra Buckland",
      "uid": 427472,
      "center": {
        "lat": 56.2468097,
        "lon": 93.5146897
      },
      "nodes": [
        1205553206,
        1205553162,
        1205553197,
        1205553169,
        1205553206
      ],
      "tags": {
        "addr:city": "Железногорск",
        "addr:country": "RU",
        "addr:housenumber": "3",
        "addr:street": "Красноярская улица",
        "amenity": "bar",
        "building": "yes",
        "building:levels": "2",
        "fixme": "yes",
        "name": "Торнадо",
        "source": "rosreestr"
      }
    },
    {
      "type": "way",
      "id": 119850169,
      "timestamp": "2011-08-12T15:48:39Z",
      "version": 4,
      "changeset": 8997242,
      "user": "denizzz",
      "uid": 418501,
      "center": {
        "lat": 56.1147471,
        "lon": 94.5791154
      },
      "nodes": [
        1345248776,
        1345248777,
        1345248778,
        1345248779,
        1345248780,
        1345248781,
        1345248782,
        1345248783,
        1345248784,
        1345248776
      ],
      "tags": {
        "amenity": "bar",
        "barrier": "fence",
        "name": "У парома",
        "seasonal": "summer",
        "source": "Bing"
      }
    },
    {
      "type": "way",
      "id": 186782716,
      "timestamp": "2019-01-15T20:19:25Z",
      "version": 6,
      "changeset": 66343068,
      "user": "Takuto",
      "uid": 383200,
      "center": {
        "lat": 56.2270007,
        "lon": 93.5177487
      },
      "nodes": [
        1975265787,
        1975265824,
        1975265821,
        1975265789,
        1975265818,
        1975265801,
        1975265831,
        1975265798,
        1975265787
      ],
      "tags": {
        "addr:city": "Железногорск",
        "addr:country": "RU",
        "addr:housenumber": "3А",
        "addr:street": "проезд Мира",
        "amenity": "pub",
        "building": "commercial",
        "wheelchair": "yes"
      }
    },
    {
      "type": "way",
      "id": 219227412,
      "timestamp": "2017-12-14T10:31:17Z",
      "version": 3,
      "changeset": 54617244,
      "user": "iWowik",
      "uid": 481934,
      "center": {
        "lat": 56.2379131,
        "lon": 96.0666727
      },
      "nodes": [
        2284212172,
        2284212084,
        2284212141,
        2284212237,
        2284212172
      ],
      "tags": {
        "addr:housenumber": "70В",
        "addr:street": "Красная улица",
        "amenity": "bar",
        "building": "yes"
      }
    },
    {
      "type": "way",
      "id": 258298836,
      "timestamp": "2024-02-07T17:55:46Z",
      "version": 2,
      "changeset": 147186442,
      "user": "ЕленаХ",
      "uid": 19933290,
      "center": {
        "lat": 55.2589777,
        "lon": 94.9169452
      },
      "nodes": [
        2636788689,
        2636788690,
        2636788691,
        2636788692,
        2636788689
      ],
      "tags": {
        "addr:city": "Агинское",
        "addr:housenumber": "5",
        "addr:street": "Школьная улица",
        "amenity": "bar",
        "building": "yes"
      }
    },
    {
      "type": "way",
      "id": 267339788,
      "timestamp": "2016-11-09T13:11:58Z",
      "version": 3,
      "changeset": 43511253,
      "user": "aɪvən",
      "uid": 4671991,
      "center": {
        "lat": 53.1042552,
        "lon": 91.4006943
      },
      "nodes": [
        2728019102,
        2728019103,
        2728019104,
        2728019105,
        2728019102
      ],
      "tags": {
        "addr:city": "Саяногорск",
        "addr:housenumber": "22В",
        "addr:place": "Ленинградский микрорайон",
        "addr:postcode": "655602",
        "addr:quarter": "Ленинградский микрорайон",
        "amenity": "pub",
        "building": "yes",
        "name": "9 район"
      }
    },
    {
      "type": "way",
      "id": 272724964,
      "timestamp": "2016-11-10T08:18:47Z",
      "version": 4,
      "changeset": 43527564,
      "user": "aɪvən",
      "uid": 4671991,
      "center": {
        "lat": 53.1002373,
        "lon": 91.419241
      },
      "nodes": [
        2776571786,
        2776571787,
        2776571788,
        2776571789,
        2776571786
      ],
      "tags": {
        "addr:city": "Саяногорск",
        "addr:housenumber": "23Б",
        "addr:place": "Интернациональный микрорайон",
        "addr:postcode": "655603",
        "addr:quarter": "Интернациональный микрорайон",
        "amenity": "bar",
        "building": "yes",
        "building:levels": "2",
        "name": "По пути"
      }
    },
    {
      "type": "way",
      "id": 538084315,
      "timestamp": "2017-11-22T06:16:03Z",
      "version": 2,
      "changeset": 53991951,
      "user": "iWowik",
      "uid": 481934,
      "center": {
        "lat": 56.1813731,
        "lon": 95.7027394
      },
      "nodes": [
        5209094816,
        5209094817,
        5209094818,
        5209094812,
        5209094816
      ],
      "tags": {
        "addr:housenumber": "61В",
        "addr:street": "Окружная улица",
        "amenity": "bar",
        "building": "yes",
        "name": "Амида"
      }
    },
    {
      "type": "way",
      "id": 624596575,
      "timestamp": "2023-10-18T18:42:14Z",
      "version": 2,
      "changeset": 142776637,
      "user": "Takuto",
      "uid": 383200,
      "center": {
        "lat": 56.2452212,
        "lon": 90.4506978
      },
      "nodes": [
        5898148751,
        11272660904,
        11272660903,
        5898148752,
        5898148753,
        5898148754,
        5898148751
      ],
      "tags": {
        "addr:housenumber": "4",
        "addr:street": "шоссе Байкал",
        "amenity": "bar",
        "building": "yes",
        "name": "Грин Холл бар",
        "source:addr": "ЕГРН"
      }
    },
    {
      "type": "way",
      "id": 677412992,
      "timestamp": "2023-08-25T20:38:21Z",
      "version": 4,
      "changeset": 140388316,
      "user": "anastasia_",
      "uid": 12947812,
      "center": {
        "lat": 51.7074145,
        "lon": 94.3985888
      },
      "nodes": [
        6342898316,
        6342898315,
        6342898314,
        6342898305,
        6342898311,
        6342898312,
        6342898306,
        6342898313,
        6342898316
      ],
      "tags": {
        "addr:city": "Кызыл",
        "addr:housenumber": "61/11",
        "addr:postcode": "667005",
        "addr:street": "улица Семирацкого",
        "amenity": "bar",
        "building": "yes",
        "name": "Караоке-бар Пятница",
        "name:en": "Karaoke-Bar Pyatnitsa"
      }
    },
    {
      "type": "way",
      "id": 858620511,
      "timestamp": "2020-10-15T14:42:34Z",
      "version": 2,
      "changeset": 92529548,
      "user": "Sipmix",
      "uid": 4252587,
      "center": {
        "lat": 53.8239146,
        "lon": 91.2951105
      },
      "nodes": [
        8004117015,
        8004117016,
        8004117017,
        8010201736,
        8004117018,
        8004117015
      ],
      "tags": {
        "addr:city": "Черногорск",
        "addr:housenumber": "33Б",
        "addr:street": "Советская улица",
        "amenity": "pub",
        "building": "yes",
        "name": "АЯН"
      }
    },
    {
      "type": "way",
      "id": 859440989,
      "timestamp": "2020-10-16T08:13:08Z",
      "version": 2,
      "changeset": 92565955,
      "user": "iWowik",
      "uid": 481934,
      "center": {
        "lat": 53.8278509,
        "lon": 91.3334361
      },
      "nodes": [
        8011045539,
        8011045540,
        8011045541,
        8011045542,
        8011045543,
        8011045539
      ],
      "tags": {
        "addr:city": "Черногорск",
        "addr:housenumber": "22А",
        "addr:street": "улица Калинина",
        "amenity": "pub",
        "building": "yes",
        "name": "АЯН"
      }
    },
    {
      "type": "way",
      "id": 1109050265,
      "timestamp": "2025-09-11T07:27:03Z",
      "version": 2,
      "changeset": 171768814,
      "user": "Ozon OSM4",
      "uid": 22440403,
      "center": {
        "lat": 56.2196538,
        "lon": 95.7159214
      },
      "nodes": [
        10147618796,
        10147618797,
        10147618798,
        10147618799,
        10147618796
      ],
      "tags": {
        "addr:housenumber": "15",
        "addr:place": "Предмостный микрорайон",
        "amenity": "bar",
        "building": "yes",
        "building:levels": "1"
      }
    },
    {
      "type": "way",
      "id": 1109050266,
      "timestamp": "2022-11-01T15:45:41Z",
      "version": 1,
      "changeset": 128352731,
      "user": "user_6785308",
      "uid": 6785308,
      "center": {
        "lat": 56.2199322,
        "lon": 95.7160121
      },
      "nodes": [
        10147618800,
        10147618801,
        10147618802,
        10147618803,
        10147618800
      ],
      "tags": {
        "amenity": "bar",
        "building": "yes",
        "building:levels": "1"
      }
    },
    {
      "type": "way",
      "id": 1210696286,
      "timestamp": "2023-10-12T04:01:45Z",
      "version": 2,
      "changeset": 142458962,
      "user": "Великий Комбинатор",
      "uid": 20193468,
      "center": {
        "lat": 55.0189247,
        "lon": 90.9975663
      },
      "nodes": [
        11217311562,
        11217311563,
        11217311564,
        11217311565,
        11217311562
      ],
      "tags": {
        "addr:city": "Новосёлово",
        "addr:housenumber": "6",
        "addr:place": "Трифоновская",
        "amenity": "bar",
        "building": "yes"
      }
    }
  ]
}