{
  "version": 0.6,
  "generator": "Overpass API 0.7.62.8 e802775f",
  "osm3s": {
    "timestamp_osm_base": "2025-10-23T20:03:31Z",
    "copyright": "The data included in this document is from www.openstreetmap.org. The data is made available under ODbL."
  },
  "elements": [
    {
      "type": "node",
      "id": 430581302,
      "lat": 26.1948799,
      "lon": 50.4742566,
      "timestamp": "2018-03-02T22:12:40Z",
      "version": 2,
      "changeset": 56834130,
      "user": "سامبا",
      "uid": 4860517,
      "tags": {
        "amenity": "pub",
        "name": "Dilmun Club",
        "name:en": "Dilmun Club"
      }
    },
    {
      "type": "node",
      "id": 622542589,
      "lat": 25.0347754,
      "lon": 55.1182132,
      "timestamp": "2020-03-24T14:36:07Z",
      "version": 4,
      "changeset": 82575916,
      "user": "annakulikowa",
      "uid": 8987605,
      "tags": {
        "amenity": "bar",
        "name": "Jebel Ali Club",
        "name:en": "Jebel Ali Club"
      }
    },
    {
      "type": "node",
      "id": 739148581,
      "lat": 26.2096938,
      "lon": 50.5767,
      "timestamp": "2022-01-25T07:18:22Z",
      "version": 3,
      "changeset": 116571717,
      "user": "Omnific",
      "uid": 1408522,
      "tags": {
        "amenity": "pub",
        "name": "Wendys Pub",
        "name:en": "Wendys Pub",
        "not:brand:wikidata": "Q550258"
      }
    },
    {
      "type": "node",
      "id": 791794839,
      "lat": 26.2192854,
      "lon": 50.5887977,
      "timestamp": "2018-03-02T22:38:28Z",
      "version": 3,
      "changeset": 56834568,
      "user": "سامبا",
      "uid": 4860517,
      "tags": {
        "amenity": "pub",
        "name": "JJ's",
        "name:en": "JJ's"
      }
    },
    {
      "type": "node",
      "id": 900308732,
      "lat": 24.4947347,
      "lon": 54.3845185,
      "timestamp": "2023-05-22T11:48:11Z",
      "version": 5,
      "changeset": 136409747,
      "user": "Gurusraouta",
      "uid": 18913526,
      "tags": {
        "addr:city": "أبو ظبي",
        "addr:city:ar": "أبو ظبي",
        "addr:city:en": "Abu Dhabi",
        "addr:city:ur": "ابوظہبی",
        "addr:country": "AE",
        "addr:housename": "Beach Rotana Hotel",
        "amenity": "pub",
        "name": "Brauhaus",
        "name:en": "Brauhaus"
      }
    },
    {
      "type": "node",
      "id": 913249507,
      "lat": 24.462524,
      "lon": 54.3255185,
      "timestamp": "2023-05-22T11:48:11Z",
      "version": 4,
      "changeset": 136409747,
      "user": "Gurusraouta",
      "uid": 18913526,
      "tags": {
        "addr:city": "أبو ظبي",
        "addr:city:ar": "أبو ظبي",
        "addr:city:en": "Abu Dhabi",
        "addr:city:ur": "ابوظہبی",
        "addr:country": "AE",
        "addr:housename": "Hilton Hotel Khalidiyah",
        "addr:street": "Corniche Road West",
        "amenity": "bar",
        "name": "Hemingways",
        "name:en": "Hemingways"
      }
    },
    {
      "type": "node",
      "id": 913249631,
      "lat": 24.4625314,
      "lon": 54.3254483,
      "timestamp": "2023-05-22T11:48:11Z",
      "version": 5,
      "changeset": 136409747,
      "user": "Gurusraouta",
      "uid": 18913526,
      "tags": {
        "addr:city": "أبو ظبي",
        "addr:city:ar": "أبو ظبي",
        "addr:city:en": "Abu Dhabi",
        "addr:city:ur": "ابوظہبی",
        "addr:country": "AE",
        "addr:housename": "Hilton Hotel Khalidiyah",
        "addr:street": "Corniche Road West",
        "amenity": "bar",
        "name": "The Jazz Club",
        "name:en": "The Jazz Club"
      }
    },
    {
      "type": "node",
      "id": 1020977801,
      "lat": 24.4058405,
      "lon": 56.7202868,
      "timestamp": "2018-03-06T15:57:55Z",
      "version": 4,
      "changeset": 56939739,
      "user": "Uhkabu",
      "uid": 453875,
      "tags": {
        "amenity": "bar",
        "name": "حانة شاطئ صحار",
        "name:ar": "حانة شاطئ صحار",
        "name:en": "Sohar Beach"
      }
    },
    {
      "type": "node",
      "id": 1032767176,
      "lat": 24.4066186,
      "lon": 54.490096,
      "timestamp": "2018-03-06T21:12:04Z",
      "version": 3,
      "changeset": 56948861,
      "user": "سامبا",
      "uid": 4860517,
      "tags": {
        "amenity": "bar",
        "name": "Pearls Bar",
        "name:en": "Pearls Bar"
      }
    },
    {
      "type": "node",
      "id": 1139528589,
      "lat": 26.2120183,
      "lon": 50.6092076,
      "timestamp": "2018-03-02T22:12:46Z",
      "version": 2,
      "changeset": 56834130,
      "user": "سامبا",
      "uid": 4860517,
      "tags": {
        "amenity": "bar",
        "name": "Rock Bottom Cafe",
        "name:en": "Rock Bottom Cafe"
      }
    },
    {
      "type": "node",
      "id": 1139528850,
      "lat": 26.2128784,
      "lon": 50.60521,
      "timestamp": "2018-03-02T22:12:47Z",
      "version": 2,
      "changeset": 56834130,
      "user": "سامبا",
      "uid": 4860517,
      "tags": {
        "amenity": "bar",
        "name": "Cocoon",
        "name:en": "Cocoon"
      }
    },
    {
      "type": "node",
      "id": 1140583321,
      "lat": 26.2129926,
      "lon": 50.605059,
      "timestamp": "2018-03-02T22:12:47Z",
      "version": 2,
      "changeset": 56834130,
      "user": "سامبا",
      "uid": 4860517,
      "tags": {
        "amenity": "bar",
        "name": "Wrangler",
        "name:en": "Wrangler"
      }
    },
    {
      "type": "node",
      "id": 1142037218,
      "lat": 26.2322834,
      "lon": 50.5966058,
      "timestamp": "2018-03-02T22:38:31Z",
      "version": 2,
      "changeset": 56834568,
      "user": "سامبا",
      "uid": 4860517,
      "tags": {
        "amenity": "bar",
        "name": "The Warbler",
        "name:en": "The Warbler"
      }
    },
    {
      "type": "node",
      "id": 1149611277,
      "lat": 26.2166913,
      "lon": 50.6109725,
      "timestamp": "2018-03-02T22:12:49Z",
      "version": 4,
      "changeset": 56834130,
      "user": "سامبا",
      "uid": 4860517,
      "tags": {
        "amenity": "bar",
        "name": "Buffalo Bar",
        "name:en": "Buffalo Bar",
        "source": "Kaart Ground Survey 2017"
      }
    },
    {
      "type": "node",
      "id": 1285758214,
      "lat": 25.1910895,
      "lon": 55.2777473,
      "timestamp": "2011-05-15T07:02:26Z",
      "version": 1,
      "changeset": 8148168,
      "user": "maps4androo",
      "uid": 454081,
      "tags": {
        "amenity": "pub"
      }
    },
    {
      "type": "node",
      "id": 1323796404,
      "lat": 26.2330656,
      "lon": 50.5721596,
      "timestamp": "2018-03-02T22:38:38Z",
      "version": 2,
      "changeset": 56834568,
      "user": "سامبا",
      "uid": 4860517,
      "tags": {
        "amenity": "bar",
        "name": "Diggers",
        "name:en": "Diggers"
      }
    },
    {
      "type": "node",
      "id": 1457602181,
      "lat": 24.4199301,
      "lon": 54.4389202,
      "timestamp": "2024-02-04T05:56:52Z",
      "version": 12,
      "changeset": 147041644,
      "user": "Neonkaaaaa",
      "uid": 9660877,
      "tags": {
        "air_conditioning": "yes",
        "amenity": "bar",
        "indoor_seating": "yes",
        "name": "Relax @ 12",
        "name:en": "Relax @ 12",
        "outdoor_seating": "no",
        "payment:credit_cards": "yes",
        "payment:debit_cards": "yes",
        "smoking": "no",
        "toilets": "no",
        "wheelchair": "limited"
      }
    },
    {
      "type": "node",
      "id": 1494329690,
      "lat": 25.6971941,
      "lon": 55.7798088,
      "timestamp": "2018-02-24T06:52:24Z",
      "version": 3,
      "changeset": 56629437,
      "user": "Rotilom",
      "uid": 6853562,
      "tags": {
        "amenity": "pub",
        "name": "Al Hamra Yacht Club",
        "name:en": "Al Hamra Yacht Club"
      }
    },
    {
      "type": "node",
      "id": 1604504261,
      "lat": 25.0896725,
      "lon": 55.1523138,
      "timestamp": "2018-03-06T17:58:02Z",
      "version": 3,
      "changeset": 56943018,
      "user": "سامبا",
      "uid": 4860517,
      "tags": {
        "amenity": "bar",
        "name": "M:ZONE",
        "name:en": "M:ZONE"
      }
    },
    {
      "type": "node",
      "id": 1660186978,
      "lat": 25.0756714,
      "lon": 55.1317963,
      "timestamp": "2025-01-16T03:13:21Z",
      "version": 5,
      "changeset": 161401774,
      "user": "b-jazz-bot",
      "uid": 9451067,
      "tags": {
        "addr:housename": "Sofitel Dubai Jumeirah Beach",
        "addr:postcode": "473828",
        "addr:street": "Dubai Marina",
        "amenity": "bar",
        "designation": "poolside lounge",
        "internet_access": "wlan",
        "internet_access:fee": "no",
        "name": "Infini Pool Lounge",
        "name:en": "Infini Pool Lounge",
        "website": "https://www.sofitel-dubai-jumeirahbeach.com/restaurants-bar/infini-pool-lounge/"
      }
    },
    {
      "type": "node",
      "id": 1660189746,
      "lat": 25.0751319,
      "lon": 55.1324014,
      "timestamp": "2025-06-23T06:32:41Z",
      "version": 4,
      "changeset": 167985887,
      "user": "thetornado76",
      "uid": 1624486,
      "tags": {
        "addr:housename": "Sofitel Dubai Jumeirah Beach",
        "addr:postcode": "473828",
        "addr:street": "شارع الملك سلمان بن عبدالعزيز آل سعود",
        "amenity": "pub",
        "designation": "Irish Bar",
        "internet_access": "wlan",
        "internet_access:fee": "no",
        "name": "The Hub",
        "name:en": "The Hub",
        "website": "http://www.sofitel.com/gb/hotel-6146-sofitel-dubai-jumeirah-beach/bar.shtml"
      }
    },
    {
      "type": "node",
      "id": 1768826152,
      "lat": 23.5514903,
      "lon": 58.6603951,
      "timestamp": "2012-05-28T16:56:07Z",
      "version": 1,
      "changeset": 11728947,
      "user": "Andino",
      "uid": 136099,
      "tags": {
        "amenity": "bar",
        "name": "Long Bar",
        "wifi": "free"
      }
    },
    {
      "type": "node",
      "id": 1810143951,
      "lat": 24.4234933,
      "lon": 54.4737721,
      "timestamp": "2018-06-23T14:59:01Z",
      "version": 5,
      "changeset": 60102898,
      "user": "wep",
      "uid": 51737,
      "tags": {
        "amenity": "pub",
        "internet_access": "wlan",
        "internet_access:fee": "no",
        "name": "Cooper's Bar & Restaurant",
        "name:en": "Cooper's Bar & Restaurant",
        "outdoor_seating": "yes",
        "smoking": "yes"
      }
    },
    {
      "type": "node",
      "id": 1881748186,
      "lat": 25.6837938,
      "lon": 55.7729752,
      "timestamp": "2018-02-24T06:52:25Z",
      "version": 5,
      "changeset": 56629437,
      "user": "Rotilom",
      "uid": 6853562,
      "tags": {
        "amenity": "pub",
        "name": "The Village English Pub",
        "name:en": "The Village English Pub"
      }
    },
    {
      "type": "node",
      "id": 1904289158,
      "lat": 25.7378014,
      "lon": 55.8881228,
      "timestamp": "2019-02-08T19:04:34Z",
      "version": 5,
      "changeset": 67033946,
      "user": "Rotilom",
      "uid": 6853562,
      "tags": {
        "amenity": "bar",
        "name": "Lobby Lounge Café and Bar Breeze",
        "name:en": "Lobby Lounge Café and Bar Breeze"
      }
    },
    {
      "type": "node",
      "id": 2039466893,
      "lat": 24.4652893,
      "lon": 54.5972735,
      "timestamp": "2018-03-06T20:00:24Z",
      "version": 4,
      "changeset": 56946558,
      "user": "سامبا",
      "uid": 4860517,
      "tags": {
        "amenity": "bar",
        "name": "Stills",
        "name:en": "Stills"
      }
    },
    {
      "type": "node",
      "id": 2043297365,
      "lat": 25.0373048,
      "lon": 55.2534061,
      "timestamp": "2024-12-11T09:22:05Z",
      "version": 2,
      "changeset": 160160070,
      "user": "wheelmap_visitor",
      "uid": 290680,
      "tags": {
        "amenity": "bar",
        "wheelchair": "yes"
      }
    },
    {
      "type": "node",
      "id": 2043297381,
      "lat": 25.0376915,
      "lon": 55.2538141,
      "timestamp": "2024-12-11T09:21:48Z",
      "version": 2,
      "changeset": 160160058,
      "user": "wheelmap_visitor",
      "uid": 290680,
      "tags": {
        "amenity": "bar",
        "wheelchair": "yes"
      }
    },
    {
      "type": "node",
      "id": 2045397422,
      "lat": 25.0726238,
      "lon": 55.136065,
      "timestamp": "2024-05-11T17:09:10Z",
      "version": 3,
      "changeset": 151195495,
      "user": "Neonkaaaaa",
      "uid": 9660877,
      "tags": {
        "amenity": "bar",
        "indoor_seating": "yes",
        "name": "Aquara Restaurant & Lounge",
        "name:en": "Aquara Restaurant & Lounge",
        "outdoor_seating": "yes"
      }
    },
    {
      "type": "node",
      "id": 2045397423,
      "lat": 25.0727404,
      "lon": 55.1363007,
      "timestamp": "2024-05-11T17:09:11Z",
      "version": 3,
      "changeset": 151195495,
      "user": "Neonkaaaaa",
      "uid": 9660877,
      "tags": {
        "amenity": "pub",
        "indoor_seating": "yes",
        "name": "Yots Sports Lounge",
        "name:en": "Yots Sports Lounge",
        "outdoor_seating": "yes"
      }
    },
    {
      "type": "node",
      "id": 2071125634,
      "lat": 25.09827,
      "lon": 55.1795448,
      "timestamp": "2024-10-13T15:07:06Z",
      "version": 4,
      "changeset": 157839409,
      "user": "mmkay",
      "uid": 749814,
      "tags": {
        "amenity": "bar",
        "check_date": "2024-10-13",
        "name": "Rock Bottom",
        "name:en": "Rock Bottom"
      }
    },
    {
      "type": "node",
      "id": 2096035516,
      "lat": 24.0586085,
      "lon": 55.7787423,
      "timestamp": "2024-04-01T19:54:51Z",
      "version": 6,
      "changeset": 149451107,
      "user": "Neonkaaaaa",
      "uid": 9660877,
      "tags": {
        "air_conditioning": "yes",
        "amenity": "bar",
        "indoor_seating": "yes",
        "outdoor_seating": "yes",
        "smoking": "no"
      }
    },
    {
      "type": "node",
      "id": 2119044847,
      "lat": 25.5875677,
      "lon": 55.6514323,
      "timestamp": "2013-01-19T11:41:07Z",
      "version": 1,
      "changeset": 14705830,
      "user": "eXmajor",
      "uid": 561234,
      "tags": {
        "amenity": "bar"
      }
    },
    {
      "type": "node",
      "id": 2147566731,
      "lat": 24.4664639,
      "lon": 54.5992533,
      "timestamp": "2023-04-11T03:47:11Z",
      "version": 4,
      "changeset": 134755544,
      "user": "LakeArendsee",
      "uid": 18064850,
      "tags": {
        "addr:housename": "Rotana",
        "addr:street": "Yas Plaza",
        "amenity": "bar",
        "name": "Y bar",
        "name:en": "Y bar"
      }
    },
    {
      "type": "node",
      "id": 2157179059,
      "lat": 24.468348,
      "lon": 54.5980638,
      "timestamp": "2023-04-11T03:47:11Z",
      "version": 5,
      "changeset": 134755544,
      "user": "LakeArendsee",
      "uid": 18064850,
      "tags": {
        "amenity": "bar",
        "name": "Sands Pool Bar",
        "name:en": "Sands Pool Bar"
      }
    },
    {
      "type": "node",
      "id": 2157201452,
      "lat": 24.4663443,
      "lon": 54.5995707,
      "timestamp": "2018-03-06T20:00:25Z",
      "version": 3,
      "changeset": 56946558,
      "user": "سامبا",
      "uid": 4860517,
      "tags": {
        "amenity": "bar",
        "name": "Aquarius Pool Bar",
        "name:en": "Aquarius Pool Bar"
      }
    },
    {
      "type": "node",
      "id": 2157201453,
      "lat": 24.4655701,
      "lon": 54.5971447,
      "timestamp": "2018-03-06T20:00:25Z",
      "version": 4,
      "changeset": 56946558,
      "user": "سامبا",
      "uid": 4860517,
      "tags": {
        "amenity": "bar",
        "name": "Sundowner Pool Bar",
        "name:en": "Sundowner Pool Bar"
      }
    },
    {
      "type": "node",
      "id": 2246442670,
      "lat": 25.2432821,
      "lon": 55.3418249,
      "timestamp": "2018-03-03T15:37:45Z",
      "version": 5,
      "changeset": 56850136,
      "user": "سامبا",
      "uid": 4860517,
      "tags": {
        "addr:housename": "Aviation Club",
        "addr:street": "-Al Garhoud",
        "amenity": "bar",
        "name": "The Irish Village",
        "name:en": "The Irish Village",
        "source": "+971 4 282 4750",
        "toilets:wheelchair": "yes",
        "website": "http://www.irishvillage.ae/HomePage",
        "wheelchair": "yes"
      }
    },
    {
      "type": "node",
      "id": 2246454437,
      "lat": 25.2264412,
      "lon": 55.2841433,
      "timestamp": "2018-03-03T15:44:27Z",
      "version": 3,
      "changeset": 56850285,
      "user": "سامبا",
      "uid": 4860517,
      "tags": {
        "addr:housename": "Fairmont Hotel",
        "addr:street": "Sheikh Zayed Road",
        "amenity": "bar",
        "name": "Cavalli Club",
        "name:en": "Cavalli Club",
        "source": "+971 4 332 9260",
        "website": "http://www.cavalliclubdubai.com/"
      }
    },
    {
      "type": "node",
      "id": 2246487478,
      "lat": 25.2263473,
      "lon": 55.2840585,
      "timestamp": "2018-03-03T15:44:27Z",
      "version": 4,
      "changeset": 56850285,
      "user": "سامبا",
      "uid": 4860517,
      "tags": {
        "addr:housename": "Fairmont Hotel",
        "addr:street": "Sheikh Zayed Road",
        "amenity": "bar",
        "name": "Cirque du Soir",
        "name:en": "Cirque du Soir",
        "source": "+971 4 332 4900",
        "website": "http://www.cirquedusoirdubai.com"
      }
    },
    {
      "type": "node",
      "id": 2246494395,
      "lat": 25.1395457,
      "lon": 55.2192977,
      "timestamp": "2018-03-06T17:33:20Z",
      "version": 3,
      "changeset": 56942335,
      "user": "سامبا",
      "uid": 4860517,
      "tags": {
        "addr:housename": "Time Square Center",
        "addr:street": "4B Street",
        "amenity": "bar",
        "name": "Chill Out Lounge",
        "name:en": "Chill Out Lounge"
      }
    },
    {
      "type": "node",
      "id": 2276756734,
      "lat": 26.2869218,
      "lon": 50.6716864,
      "timestamp": "2013-04-22T09:44:55Z",
      "version": 1,
      "changeset": 15821557,
      "user": "Quest Realty",
      "uid": 1379841,
      "tags": {
        "amenity": "bar"
      }
    },
    {
      "type": "node",
      "id": 2276756754,
      "lat": 26.2866669,
      "lon": 50.6714611,
      "timestamp": "2018-03-03T00:24:18Z",
      "version": 3,
      "changeset": 56835898,
      "user": "سامبا",
      "uid": 4860517,
      "tags": {
        "amenity": "pub",
        "name": "Corners",
        "name:en": "Corners"
      }
    },
    {
      "type": "node",
      "id": 2478773700,
      "lat": 25.4023815,
      "lon": 55.4273013,
      "timestamp": "2013-10-01T09:41:03Z",
      "version": 1,
      "changeset": 18122573,
      "user": "eXmajor",
      "uid": 561234,
      "tags": {
        "amenity": "pub"
      }
    },
    {
      "type": "node",
      "id": 2478773757,
      "lat": 25.402144,
      "lon": 55.4273013,
      "timestamp": "2013-10-01T09:41:04Z",
      "version": 1,
      "changeset": 18122573,
      "user": "eXmajor",
      "uid": 561234,
      "tags": {
        "amenity": "pub"
      }
    },
    {
      "type": "node",
      "id": 2613332352,
      "lat": 23.5484715,
      "lon": 58.6635019,
      "timestamp": "2014-01-07T13:01:55Z",
      "version": 2,
      "changeset": 19861959,
      "user": "Cyberferkel",
      "uid": 698141,
      "tags": {
        "amenity": "bar"
      }
    },
    {
      "type": "node",
      "id": 2649709920,
      "lat": 25.1293644,
      "lon": 55.1524628,
      "timestamp": "2017-07-10T08:04:57Z",
      "version": 2,
      "changeset": 50168065,
      "user": "wheelmap_visitor",
      "uid": 290680,
      "tags": {
        "amenity": "bar",
        "name": "Mai Bar",
        "wheelchair": "limited"
      }
    },
    {
      "type": "node",
      "id": 2698213716,
      "lat": 25.6836485,
      "lon": 55.7728848,
      "timestamp": "2018-02-24T06:52:28Z",
      "version": 4,
      "changeset": 56629437,
      "user": "Rotilom",
      "uid": 6853562,
      "tags": {
        "amenity": "bar",
        "name": "Irish Pub",
        "name:en": "Irish Pub"
      }
    },
    {
      "type": "node",
      "id": 2778451858,
      "lat": 25.0858232,
      "lon": 55.143073,
      "timestamp": "2018-03-06T17:43:30Z",
      "version": 4,
      "changeset": 56942605,
      "user": "سامبا",
      "uid": 4860517,
      "tags": {
        "amenity": "bar",
        "name": "Embassy",
        "name:en": "Embassy",
        "opening_hours": "20:00-02:00",
        "phone": "043176000",
        "website": "http://www.embassy-dubai.com/"
      }
    },
    {
      "type": "node",
      "id": 3177849061,
      "lat": 24.4385339,
      "lon": 54.5729706,
      "timestamp": "2018-03-06T20:09:31Z",
      "version": 2,
      "changeset": 56946845,
      "user": "سامبا",
      "uid": 4860517,
      "tags": {
        "amenity": "pub",
        "name": "McGettigan's Irish Pub",
        "name:en": "McGettigan's Irish Pub"
      }
    },
    {
      "type": "node",
      "id": 3314492944,
      "lat": 25.3603976,
      "lon": 51.525857,
      "timestamp": "2018-03-02T20:33:05Z",
      "version": 2,
      "changeset": 56831985,
      "user": "سامبا",
      "uid": 4860517,
      "tags": {
        "amenity": "bar",
        "designation": "chocolate_bar",
        "name": "Chaclate",
        "name:en": "Chaclate",
        "source": "survey"
      }
    },
    {
      "type": "node",
      "id": 3431793864,
      "lat": 25.1940704,
      "lon": 55.2789638,
      "timestamp": "2023-12-31T19:54:19Z",
      "version": 8,
      "changeset": 145744808,
      "user": "Neonkaaaaa",
      "uid": 9660877,
      "tags": {
        "air_conditioning": "yes",
        "amenity": "bar",
        "indoor_seating": "yes",
        "name": "NEOS",
        "name:en": "NEOS",
        "outdoor_seating": "no",
        "payment:credit_cards": "yes",
        "payment:debit_cards": "yes",
        "smoking": "no",
        "toilets": "yes",
        "toilets:wheelchair": "limited",
        "wheelchair": "limited"
      }
    },
    {
      "type": "node",
      "id": 3451600204,
      "lat": 25.7632331,
      "lon": 55.9556912,
      "timestamp": "2018-02-21T07:28:22Z",
      "version": 2,
      "changeset": 56540992,
      "user": "Rotilom",
      "uid": 6853562,
      "tags": {
        "amenity": "bar",
        "name": "Bunker Bar",
        "name:en": "Bunker Bar"
      }
    },
    {
      "type": "node",
      "id": 3688770722,
      "lat": 25.1169614,
      "lon": 55.369683,
      "timestamp": "2018-03-06T17:38:26Z",
      "version": 2,
      "changeset": 56942462,
      "user": "سامبا",
      "uid": 4860517,
      "tags": {
        "amenity": "bar",
        "name": "Pool Bar & Lounge",
        "name:en": "Pool Bar & Lounge"
      }
    },
    {
      "type": "node",
      "id": 3712490461,
      "lat": 25.2599252,
      "lon": 55.3181605,
      "timestamp": "2018-03-03T15:06:27Z",
      "version": 2,
      "changeset": 56849414,
      "user": "سامبا",
      "uid": 4860517,
      "tags": {
        "amenity": "bar",
        "name": "The Edge Pool & Bar",
        "name:en": "The Edge Pool & Bar",
        "opening_hours": "6:00-22:00"
      }
    },
    {
      "type": "node",
      "id": 3712514718,
      "lat": 25.2604703,
      "lon": 55.3264567,
      "timestamp": "2018-03-03T15:06:27Z",
      "version": 2,
      "changeset": 56849414,
      "user": "سامبا",
      "uid": 4860517,
      "tags": {
        "amenity": "bar",
        "name": "X Club",
        "name:en": "X Club",
        "note": "Russia theme"
      }
    },
    {
      "type": "node",
      "id": 3715823195,
      "lat": 24.4992398,
      "lon": 54.3819722,
      "timestamp": "2018-03-06T19:09:07Z",
      "version": 3,
      "changeset": 56945010,
      "user": "سامبا",
      "uid": 4860517,
      "tags": {
        "amenity": "bar",
        "name": "Wakataua Terrace & Lounge",
        "name:en": "Wakataua Terrace & Lounge",
        "opening_hours": "Mo-Fr 17:00-01:00; Sa-Su 12:00-01:00",
        "website": "http://www.lemeridienabudhabi.com/en/wakataua-terrace"
      }
    },
    {
      "type": "node",
      "id": 3715831100,
      "lat": 24.498511,
      "lon": 54.3815457,
      "timestamp": "2018-03-06T19:09:07Z",
      "version": 4,
      "changeset": 56945010,
      "user": "سامبا",
      "uid": 4860517,
      "tags": {
        "amenity": "pub",
        "name": "Captains Arms",
        "name:en": "Captains Arms",
        "note": "English Pub",
        "operator": "Starwood",
        "phone": "+971 2 644 6666",
        "website": "http://www.captainsarms-abudhabi.com/"
      }
    },
    {
      "type": "node",
      "id": 3715845809,
      "lat": 24.4619186,
      "lon": 54.3167157,
      "timestamp": "2019-03-24T02:27:55Z",
      "version": 3,
      "changeset": 68459593,
      "user": "b-jazz-bot",
      "uid": 9451067,
      "tags": {
        "amenity": "bar",
        "name": "Havana Club",
        "name:en": "Havana Club",
        "opening_hours": "19:00-02:00",
        "phone": "+971 2 690 7999",
        "website": "https://www.kempinski.com/en/abudhabi/emirates-palace/dining/lounges-and-bars/Havana-Club/"
      }
    },
    {
      "type": "node",
      "id": 3715948824,
      "lat": 24.4960467,
      "lon": 54.3657552,
      "timestamp": "2018-03-06T19:47:24Z",
      "version": 3,
      "changeset": 56946151,
      "user": "سامبا",
      "uid": 4860517,
      "tags": {
        "amenity": "bar",
        "name": "Sax",
        "name:en": "Sax",
        "opening_hours": "Su-We 17:00-02:00; Th-Sa 17:00-03:00",
        "phone": "+971 2 674 2020",
        "website": "http://www.leroyalmeridienabudhabi.com/en/sax-club-lounge"
      }
    },
    {
      "type": "node",
      "id": 3715955109,
      "lat": 24.496834,
      "lon": 54.3658317,
      "timestamp": "2023-04-12T09:00:36Z",
      "version": 6,
      "changeset": 134806235,
      "user": "RiverCasiquiare",
      "uid": 16161917,
      "tags": {
        "amenity": "pub",
        "fixme": "name, name:en mismatch.",
        "name": "PJ O'Reilly's",
        "name:en": "PJ O'Reilly's (Irish pub)",
        "opening_hours": "Sa-We 12:00-02:00; Th-Fr 12:00-03:00",
        "phone": "+971 800 101 101",
        "website": "https://www.pjspubabudhabi.com/"
      }
    },
    {
      "type": "node",
      "id": 3716075125,
      "lat": 24.5028503,
      "lon": 54.3739788,
      "timestamp": "2023-04-03T03:59:09Z",
      "version": 4,
      "changeset": 134435758,
      "user": "CaluequeDam",
      "uid": 16528248,
      "tags": {
        "amenity": "bar",
        "name": "Mardi Gras",
        "name:en": "Mardi Gras",
        "opening_hours": "12:00-03:30",
        "website": "https://www.aldiarhotels.com/aldiarcapitalhotel/dining/"
      }
    },
    {
      "type": "node",
      "id": 3716087248,
      "lat": 24.4092768,
      "lon": 54.4906571,
      "timestamp": "2016-03-10T13:12:36Z",
      "version": 2,
      "changeset": 37733606,
      "user": "chachafish",
      "uid": 2237750,
      "tags": {
        "amenity": "bar",
        "name": "Left Bank",
        "phone": "+971 2 558 1680"
      }
    },
    {
      "type": "node",
      "id": 3716147562,
      "lat": 24.4890012,
      "lon": 54.3681767,
      "timestamp": "2019-03-24T02:28:05Z",
      "version": 3,
      "changeset": 68459594,
      "user": "b-jazz-bot",
      "uid": 9451067,
      "tags": {
        "amenity": "pub",
        "name": "Harvesters Pub",
        "name:en": "Harvesters Pub",
        "website": "https://www.ihg.com/holidayinn/hotels/us/en/abu-dhabi/auhhi/hoteldetail/dining"
      }
    },
    {
      "type": "node",
      "id": 3716152894,
      "lat": 24.4831923,
      "lon": 54.3506502,
      "timestamp": "2018-03-06T19:55:38Z",
      "version": 2,
      "changeset": 56946406,
      "user": "سامبا",
      "uid": 4860517,
      "tags": {
        "access": "permissive",
        "amenity": "pub",
        "name": "Rabbit Hutch",
        "name:en": "Rabbit Hutch"
      }
    },
    {
      "type": "node",
      "id": 3717466080,
      "lat": 25.2674872,
      "lon": 55.3156494,
      "timestamp": "2022-11-09T11:27:02Z",
      "version": 3,
      "changeset": 128682445,
      "user": "DesMoinesRiver",
      "uid": 17110692,
      "tags": {
        "amenity": "pub",
        "name": "Jockey's Pub",
        "name:en": "Jockey's Pub"
      }
    },
    {
      "type": "node",
      "id": 3717477831,
      "lat": 25.2534827,
      "lon": 55.2936187,
      "timestamp": "2022-11-22T09:30:32Z",
      "version": 3,
      "changeset": 129229864,
      "user": "Balchug",
      "uid": 10888774,
      "tags": {
        "amenity": "pub",
        "name": "Barrels",
        "name:en": "Barrels"
      }
    },
    {
      "type": "node",
      "id": 3717485710,
      "lat": 25.2533183,
      "lon": 55.3039474,
      "timestamp": "2022-11-04T07:22:45Z",
      "version": 2,
      "changeset": 128468403,
      "user": "ElLlobregatRiver",
      "uid": 17110701,
      "tags": {
        "amenity": "bar",
        "name": "Bollywood Café"
      }
    },
    {
      "type": "node",
      "id": 3717499789,
      "lat": 25.2590794,
      "lon": 55.2913393,
      "timestamp": "2018-03-03T15:06:28Z",
      "version": 2,
      "changeset": 56849414,
      "user": "سامبا",
      "uid": 4860517,
      "tags": {
        "amenity": "bar",
        "name": "Chill Rooftop Lounge",
        "name:en": "Chill Rooftop Lounge"
      }
    },
    {
      "type": "node",
      "id": 3717502309,
      "lat": 25.2553129,
      "lon": 55.2849018,
      "timestamp": "2023-10-07T07:56:57Z",
      "version": 3,
      "changeset": 142258553,
      "user": "b-jazz-bot",
      "uid": 9451067,
      "tags": {
        "amenity": "bar",
        "name": "Marines Club",
        "name:en": "Marines Club",
        "website": "https://www.seaviewhoteldubai.com/restaurants"
      }
    },
    {
      "type": "node",
      "id": 3717618561,
      "lat": 25.0854374,
      "lon": 55.1438313,
      "timestamp": "2019-03-24T02:32:23Z",
      "version": 6,
      "changeset": 68459629,
      "user": "b-jazz-bot",
      "uid": 9451067,
      "tags": {
        "amenity": "bar",
        "name": "Bar 44",
        "name:en": "Bar 44",
        "note": "top floor",
        "opening_hours": "Fr-We 18:00-02:00, Th 18:00-03:00",
        "operator": "Starwood",
        "website": "https://www.bar44-dubai.com/"
      }
    },
    {
      "type": "node",
      "id": 3722031824,
      "lat": 25.2202844,
      "lon": 55.2802173,
      "timestamp": "2024-11-12T15:15:46Z",
      "version": 5,
      "changeset": 159054696,
      "user": "mws1367",
      "uid": 10054290,
      "tags": {
        "addr:street": "Sheikh Zayed Road",
        "amenity": "bar",
        "name": "Harverters"
      }
    },
    {
      "type": "node",
      "id": 3722039471,
      "lat": 25.1859832,
      "lon": 55.2581954,
      "timestamp": "2023-10-20T07:34:27Z",
      "version": 5,
      "changeset": 142854822,
      "user": "b-jazz-bot",
      "uid": 9451067,
      "tags": {
        "amenity": "bar",
        "name": "VIP Room",
        "name:en": "VIP Room",
        "opening_hours": "Tu-Fr 23:00-03:00",
        "website": "https://www.viproom-dubai.com/contact"
      }
    },
    {
      "type": "node",
      "id": 3722057054,
      "lat": 25.2263553,
      "lon": 55.2842183,
      "timestamp": "2019-03-27T10:43:13Z",
      "version": 4,
      "changeset": 68581330,
      "user": "b-jazz-bot",
      "uid": 9451067,
      "tags": {
        "amenity": "bar",
        "name": "Cigar Bar Room",
        "name:en": "Cigar Bar Room",
        "opening_hours": "Sa-We 17:00-01:00, Th 17:00-02:00, Fr 15:00-02:00",
        "website": "https://www.fairmont.com/palm-dubai/dining/cigar-room/"
      }
    },
    {
      "type": "node",
      "id": 3722661363,
      "lat": 24.3304188,
      "lon": 54.6231453,
      "timestamp": "2023-10-07T07:56:48Z",
      "version": 3,
      "changeset": 142258543,
      "user": "b-jazz-bot",
      "uid": 9451067,
      "tags": {
        "amenity": "bar",
        "name": "Hunter B&R",
        "name:en": "Hunter B&R",
        "website": "https://www.mafraq-hotel.com/dining-en.html"
      }
    },
    {
      "type": "node",
      "id": 3722680645,
      "lat": 24.3304946,
      "lon": 54.6230688,
      "timestamp": "2023-10-07T07:56:51Z",
      "version": 4,
      "changeset": 142258545,
      "user": "b-jazz-bot",
      "uid": 9451067,
      "tags": {
        "amenity": "bar",
        "name": "Rimal",
        "name:en": "Rimal",
        "note": "Oriental bar",
        "opening_hours": "14:00-01:00",
        "operator": "Mafraq Hotel",
        "phone": "+971 2 6596666",
        "website": "https://www.mafraq-hotel.com/dining-en.html"
      }
    },
    {
      "type": "node",
      "id": 3722712635,
      "lat": 24.4971144,
      "lon": 54.3650218,
      "timestamp": "2018-03-06T19:47:25Z",
      "version": 2,
      "changeset": 56946151,
      "user": "سامبا",
      "uid": 4860517,
      "tags": {
        "amenity": "bar",
        "name": "Cheers",
        "name:en": "Cheers",
        "operator": "Al Ain Hotel"
      }
    },
    {
      "type": "node",
      "id": 3722712641,
      "lat": 24.496933,
      "lon": 54.3650005,
      "timestamp": "2023-04-12T09:00:36Z",
      "version": 3,
      "changeset": 134806235,
      "user": "RiverCasiquiare",
      "uid": 16161917,
      "tags": {
        "amenity": "pub",
        "name": "Ally Pally",
        "name:en": "Ally Pally"
      }
    },
    {
      "type": "node",
      "id": 3722712642,
      "lat": 24.4969183,
      "lon": 54.3649549,
      "timestamp": "2023-04-12T09:00:36Z",
      "version": 3,
      "changeset": 134806235,
      "user": "RiverCasiquiare",
      "uid": 16161917,
      "tags": {
        "amenity": "bar",
        "name": "Tambayan",
        "name:en": "Tambayan",
        "operator": "Al Ain Hotel"
      }
    },
    {
      "type": "node",
      "id": 3724061295,
      "lat": 24.9876303,
      "lon": 55.0230251,
      "timestamp": "2019-03-24T02:29:42Z",
      "version": 4,
      "changeset": 68459612,
      "user": "b-jazz-bot",
      "uid": 9451067,
      "tags": {
        "amenity": "bar",
        "name": "Mushref Bar",
        "name:en": "Mushref Bar",
        "opening_hours": "19:00-02:00",
        "phone": "+971 4 814 5604",
        "website": "https://www.jaresortshotels.com/Properties/JAGR/JebelAliHotel/Dining/Bars/mushref-bar.aspx"
      }
    },
    {
      "type": "node",
      "id": 3724066537,
      "lat": 24.9880722,
      "lon": 55.0225312,
      "timestamp": "2019-03-24T02:29:44Z",
      "version": 4,
      "changeset": 68459612,
      "user": "b-jazz-bot",
      "uid": 9451067,
      "tags": {
        "amenity": "bar",
        "name": "Palmito Pool Bar",
        "name:en": "Palmito Pool Bar",
        "opening_hours": "8:30-18:00",
        "website": "https://www.jaresortshotels.com/Properties/JAGR/PalmTreeCourt/Dining/Bars/palmito-pool-bar.aspx"
      }
    },
    {
      "type": "node",
      "id": 3724467709,
      "lat": 24.987766,
      "lon": 55.0229841,
      "timestamp": "2018-03-06T18:14:11Z",
      "version": 4,
      "changeset": 56943401,
      "user": "سامبا",
      "uid": 4860517,
      "tags": {
        "amenity": "bar",
        "cuisine": "sushi",
        "dress_code": "casual",
        "name": "Sunset Lounge",
        "name:en": "Sunset Lounge",
        "opening_hours": "08:00-23:00",
        "phone": "+34 971 637 886"
      }
    },
    {
      "type": "node",
      "id": 3724467710,
      "lat": 24.9885638,
      "lon": 55.0223996,
      "timestamp": "2019-03-24T02:29:46Z",
      "version": 4,
      "changeset": 68459612,
      "user": "b-jazz-bot",
      "uid": 9451067,
      "tags": {
        "amenity": "bar",
        "name": "Captain's",
        "name:en": "Captain's",
        "opening_hours": "12:00-17:00,19:00-23:00",
        "website": "https://www.jaresortshotels.com/Properties/JAGR/Dining/Restaurants/captains.aspx"
      }
    },
    {
      "type": "node",
      "id": 3724467711,
      "lat": 24.9877918,
      "lon": 55.0213037,
      "timestamp": "2019-03-24T02:29:46Z",
      "version": 4,
      "changeset": 68459612,
      "user": "b-jazz-bot",
      "uid": 9451067,
      "tags": {
        "amenity": "bar",
        "name": "The Anchor",
        "name:en": "The Anchor",
        "opening_hours": "9:00-18:00",
        "phone": "+971 4 814 5604",
        "website": "https://www.jaresortshotels.com/Properties/JAGR/Dining/Restaurants/anchor.aspx"
      }
    },
    {
      "type": "node",
      "id": 3724467712,
      "lat": 24.9875382,
      "lon": 55.0215728,
      "timestamp": "2019-03-24T02:29:43Z",
      "version": 4,
      "changeset": 68459612,
      "user": "b-jazz-bot",
      "uid": 9451067,
      "tags": {
        "amenity": "bar",
        "name": "La Fontana Pool Bar",
        "name:en": "La Fontana Pool Bar",
        "website": "https://www.jaresortshotels.com/Properties/JAGR/Dining/Restaurants/lafontana.aspx"
      }
    },
    {
      "type": "node",
      "id": 3724467713,
      "lat": 24.9892685,
      "lon": 55.0259011,
      "timestamp": "2019-03-24T02:29:43Z",
      "version": 4,
      "changeset": 68459612,
      "user": "b-jazz-bot",
      "uid": 9451067,
      "tags": {
        "amenity": "bar",
        "dress_code": "casual",
        "name": "Divaz",
        "name:en": "Divaz",
        "opening_hours": "Th-Tu 18:30-23:00 \"closed during ramadan\"",
        "website": "https://www.jaresortshotels.com/Properties/JAGR/Dining/Restaurants/Divaz.aspx"
      }
    },
    {
      "type": "node",
      "id": 3724494289,
      "lat": 24.9587435,
      "lon": 55.0347895,
      "timestamp": "2018-03-06T18:58:04Z",
      "version": 3,
      "changeset": 56944627,
      "user": "سامبا",
      "uid": 4860517,
      "tags": {
        "amenity": "bar",
        "internet_access": "wlan",
        "internet_access:fee": "no",
        "name": "Shooters",
        "name:en": "Shooters",
        "note": "billiards cafe with 9 billiard tables, 1 Snooker table",
        "opening_hours": "11:00-03:00",
        "sport": "billiards",
        "website": "http://shootersdubai.com/"
      }
    },
    {
      "type": "node",
      "id": 3724551162,
      "lat": 25.0030211,
      "lon": 55.1643165,
      "timestamp": "2019-04-03T15:27:32Z",
      "version": 3,
      "changeset": 68844356,
      "user": "b-jazz-bot",
      "uid": 9451067,
      "tags": {
        "amenity": "bar",
        "name": "The Bar",
        "name:en": "The Bar",
        "opening_hours": "12:00-02:00",
        "website": "https://www.marriottdiningatcy.ae/restaurant/hotels/hotel-information/travel/dxbcy/restaurant.asp?id=003"
      }
    },
    {
      "type": "node",
      "id": 3725053798,
      "lat": 25.2474504,
      "lon": 55.3467222,
      "timestamp": "2024-02-05T17:24:12Z",
      "version": 10,
      "changeset": 147102532,
      "user": "Neonkaaaaa",
      "uid": 9660877,
      "tags": {
        "air_conditioning": "yes",
        "amenity": "bar",
        "indoor_seating": "yes",
        "name": "Warehouse",
        "name:en": "Warehouse",
        "opening_hours": "12:00-03:00",
        "operator": "Starwood",
        "outdoor_seating": "yes",
        "payment:credit_cards": "yes",
        "payment:debit_cards": "yes",
        "smoking": "no",
        "toilets": "no",
        "website": "https://www.warehouse-dubai.com/",
        "wheelchair": "limited"
      }
    },
    {
      "type": "node",
      "id": 3725053799,
      "lat": 25.247849,
      "lon": 55.3460897,
      "timestamp": "2024-02-05T17:24:16Z",
      "version": 9,
      "changeset": 147102532,
      "user": "Neonkaaaaa",
      "uid": 9660877,
      "tags": {
        "air_conditioning": "yes",
        "amenity": "bar",
        "indoor_seating": "yes",
        "name": "The Dubliner's",
        "name:en": "The Dubliner's",
        "operator": "Starwood",
        "outdoor_seating": "yes",
        "payment:credit_cards": "yes",
        "payment:debit_cards": "yes",
        "smoking": "no",
        "toilets": "no",
        "wheelchair": "limited"
      }
    },
    {
      "type": "node",
      "id": 3781731031,
      "lat": 24.4094184,
      "lon": 56.5893526,
      "timestamp": "2015-10-11T07:14:29Z",
      "version": 1,
      "changeset": 34563453,
      "user": "LifeEngineering",
      "uid": 1238175,
      "tags": {
        "amenity": "bar"
      }
    },
    {
      "type": "node",
      "id": 3804207277,
      "lat": 23.6088774,
      "lon": 58.4453159,
      "timestamp": "2015-10-26T21:43:18Z",
      "version": 1,
      "changeset": 34892177,
      "user": "richlv",
      "uid": 47892,
      "tags": {
        "amenity": "bar",
        "name": "Habana"
      }
    },
    {
      "type": "node",
      "id": 3815261186,
      "lat": 25.2199922,
      "lon": 55.3658692,
      "timestamp": "2018-03-03T15:50:29Z",
      "version": 2,
      "changeset": 56850401,
      "user": "سامبا",
      "uid": 4860517,
      "tags": {
        "amenity": "bar",
        "name": "Al Areesh",
        "name:en": "Al Areesh",
        "smoking": "outside"
      }
    },
    {
      "type": "node",
      "id": 3830169080,
      "lat": 24.5003844,
      "lon": 54.3712822,
      "timestamp": "2025-07-31T09:53:20Z",
      "version": 7,
      "changeset": 169760693,
      "user": "Department of Municipalities and Transport Abu_Dhabi",
      "uid": 16903428,
      "tags": {
        "addr:street": "Southern Sun Abu Dhabi",
        "amenity": "bar",
        "name": "Hytes Bar",
        "name:en": "Hytes",
        "opening_hours": "Su-Sa 12:00-24:00",
        "phone": "+971 02 818 4888",
        "smoking": "yes",
        "website": "https://www.southernsun.com/southern-sun-abu-dhabi/dining/hytes-bar?utm_source=openstreetmaps&utm_medium=businesslisting&utm_campaign=restaurant_hytes-bar",
        "wheelchair": "yes"
      }
    },
    {
      "type": "node",
      "id": 3837354556,
      "lat": 25.0876239,
      "lon": 55.1463277,
      "timestamp": "2018-03-06T17:43:36Z",
      "version": 2,
      "changeset": 56942605,
      "user": "سامبا",
      "uid": 4860517,
      "tags": {
        "amenity": "pub",
        "name": "The Croft",
        "name:en": "The Croft"
      }
    },
    {
      "type": "node",
      "id": 3838862282,
      "lat": 24.8577261,
      "lon": 54.8962576,
      "timestamp": "2018-03-06T19:02:18Z",
      "version": 3,
      "changeset": 56944770,
      "user": "سامبا",
      "uid": 4860517,
      "tags": {
        "amenity": "bar",
        "name": "Bounty Bar",
        "name:en": "Bounty Bar",
        "opening_hours": "17:00-02:00",
        "outdoor:serving": "yes"
      }
    },
    {
      "type": "node",
      "id": 3838862551,
      "lat": 24.8577273,
      "lon": 54.8964586,
      "timestamp": "2015-11-18T22:27:03Z",
      "version": 2,
      "changeset": 35422029,
      "user": "Niels Elgaard Larsen",
      "uid": 1288,
      "tags": {
        "amenity": "bar",
        "name": "Café De Baileys",
        "operator": "Golden Tulip",
        "website": "http://www.goldentulipaljazira.com/en/restaurants"
      }
    },
    {
      "type": "node",
      "id": 3843377782,
      "lat": 25.0419545,
      "lon": 55.1154656,
      "timestamp": "2019-03-24T02:30:37Z",
      "version": 5,
      "changeset": 68459618,
      "user": "b-jazz-bot",
      "uid": 9451067,
      "tags": {
        "addr:street": "Dubai Ibn Battuta Gate",
        "amenity": "bar",
        "drink:alcohol": "served",
        "drink:wine": "served",
        "name": "Moroc Bar",
        "name:en": "Moroc Bar",
        "note": "couples night on Tu",
        "opening_hours": "16:00-02:00",
        "operator": "Mövenpick Hotel Ibn Battuta Gate Dubai",
        "outdoor_seating": "yes",
        "phone": "+ 971 4 444 56 13",
        "website": "https://www.movenpick.com/en/middle-east/uae/dubai/hotel-dubai-ibn-battuta/restaurants/moroc-lounge-bar/"
      }
    },
    {
      "type": "node",
      "id": 3843658125,
      "lat": 25.141665,
      "lon": 55.1904976,
      "timestamp": "2018-03-06T17:33:22Z",
      "version": 2,
      "changeset": 56942335,
      "user": "سامبا",
      "uid": 4860517,
      "tags": {
        "amenity": "bar",
        "name": "Palm Court",
        "name:en": "Palm Court",
        "opening_hours": "07:00-01:00",
        "operator": "Jumeirah Beach Hotel, Dubai",
        "phone": "+971 4 432 3232",
        "website": "https://www.jumeirah.com/en/hotels-resorts/dubai/jumeirah-beach-hotel/restaurants/palm-court/"
      }
    },
    {
      "type": "node",
      "id": 3843778085,
      "lat": 24.8576401,
      "lon": 54.8961582,
      "timestamp": "2018-03-06T19:02:18Z",
      "version": 2,
      "changeset": 56944770,
      "user": "سامبا",
      "uid": 4860517,
      "tags": {
        "amenity": "bar",
        "name": "Pool Bar",
        "name:en": "Pool Bar"
      }
    },
    {
      "type": "node",
      "id": 3848390645,
      "lat": 24.4136907,
      "lon": 54.4587331,
      "timestamp": "2015-11-21T04:22:25Z",
      "version": 1,
      "changeset": 35479884,
      "user": "TheAverageNomad",
      "uid": 3387325,
      "tags": {
        "amenity": "pub",
        "name": "Sportsman's Arms"
      }
    },
    {
      "type": "node",
      "id": 3875117441,
      "lat": 25.0795814,
      "lon": 55.1333898,
      "timestamp": "2024-04-05T09:50:10Z",
      "version": 3,
      "changeset": 149606382,
      "user": "Hilton Hotels",
      "uid": 1915697,
      "tags": {
        "addr:city": "Dubai",
        "addr:housenumber": "Tower A",
        "addr:street": "The Walk",
        "amenity": "bar",
        "contact:facebook": "https://www.facebook.com/wavebreakerjbr",
        "contact:instagram": "https://www.instagram.com/wavebreaker_jbr/",
        "email": "Restaurant.jbr@hilton.com",
        "name": "Wavebreaker",
        "name:en": "Wavebreaker",
        "opening_hours": "Mon-Fri: 12:00-23:00, Sat-Sun: 10-00-23:00",
        "phone": "+971 4 318 2319",
        "website": "https://www.hilton.com/en/hotels/dxbjbhi-hilton-dubai-jumeirah/dining/wavebreaker/"
      }
    },
    {
      "type": "node",
      "id": 3884918658,
      "lat": 24.4989524,
      "lon": 54.3814035,
      "timestamp": "2018-03-06T19:09:08Z",
      "version": 3,
      "changeset": 56945010,
      "user": "سامبا",
      "uid": 4860517,
      "tags": {
        "amenity": "bar",
        "name": "Lateer Recipe",
        "name:en": "Lateer Recipe"
      }
    },
    {
      "type": "node",
      "id": 3890684310,
      "lat": 25.2024285,
      "lon": 55.2775403,
      "timestamp": "2023-12-31T18:36:09Z",
      "version": 8,
      "changeset": 145743453,
      "user": "Neonkaaaaa",
      "uid": 9660877,
      "tags": {
        "air_conditioning": "yes",
        "amenity": "bar",
        "indoor_seating": "yes",
        "name": "Double Decker Pub",
        "name:en": "Double Decker Pub",
        "outdoor_seating": "no",
        "payment:credit_cards": "yes",
        "payment:debit_cards": "yes",
        "smoking": "no",
        "toilets": "yes",
        "toilets:wheelchair": "limited",
        "wheelchair": "limited"
      }
    },
    {
      "type": "node",
      "id": 3903685263,
      "lat": 24.4286593,
      "lon": 54.4367918,
      "timestamp": "2018-03-06T20:25:10Z",
      "version": 2,
      "changeset": 56947365,
      "user": "سامبا",
      "uid": 4860517,
      "tags": {
        "amenity": "bar",
        "name": "Thirty 1st Bar & Lounge",
        "name:en": "Thirty 1st Bar & Lounge"
      }
    },
    {
      "type": "node",
      "id": 3949779215,
      "lat": 24.4102559,
      "lon": 54.4910061,
      "timestamp": "2016-01-16T11:19:15Z",
      "version": 1,
      "changeset": 36612212,
      "user": "chachafish",
      "uid": 2237750,
      "tags": {
        "amenity": "bar",
        "name": "Poolbar"
      }
    },
    {
      "type": "node",
      "id": 3949785309,
      "lat": 24.408871,
      "lon": 54.490593,
      "timestamp": "2016-01-16T11:25:50Z",
      "version": 1,
      "changeset": 36612323,
      "user": "chachafish",
      "uid": 2237750,
      "tags": {
        "amenity": "bar",
        "name": "Eight"
      }
    },
    {
      "type": "node",
      "id": 3949789138,
      "lat": 24.4067549,
      "lon": 54.4901216,
      "timestamp": "2018-03-06T21:12:06Z",
      "version": 2,
      "changeset": 56948861,
      "user": "سامبا",
      "uid": 4860517,
      "tags": {
        "amenity": "bar",
        "name": "The Pool Bar & Restaurant",
        "name:en": "The Pool Bar & Restaurant"
      }
    },
    {
      "type": "node",
      "id": 3961065064,
      "lat": 24.4233419,
      "lon": 54.4732732,
      "timestamp": "2018-03-06T20:30:26Z",
      "version": 2,
      "changeset": 56947530,
      "user": "سامبا",
      "uid": 4860517,
      "tags": {
        "amenity": "bar",
        "name": "Aquarius Pool Bar",
        "name:en": "Aquarius Pool Bar"
      }
    },
    {
      "type": "node",
      "id": 3982087531,
      "lat": 24.48673,
      "lon": 54.3574862,
      "timestamp": "2024-06-21T09:57:51Z",
      "version": 4,
      "changeset": 152985002,
      "user": "Neonkaaaaa",
      "uid": 9660877,
      "tags": {
        "amenity": "bar",
        "indoor_seating": "yes",
        "name": "5th Street Cafe",
        "name:en": "5th Street Cafe",
        "outdoor_seating": "no"
      }
    },
    {
      "type": "node",
      "id": 3988506413,
      "lat": 24.4201918,
      "lon": 54.4406005,
      "timestamp": "2024-02-03T16:41:43Z",
      "version": 8,
      "changeset": 147026850,
      "user": "Neonkaaaaa",
      "uid": 9660877,
      "tags": {
        "air_conditioning": "yes",
        "amenity": "bar",
        "indoor_seating": "yes",
        "name": "Drinks O'Clock",
        "name:en": "Drinks O'Clock",
        "outdoor_seating": "no",
        "payment:credit_cards": "yes",
        "payment:debit_cards": "yes",
        "smoking": "no",
        "toilets": "yes",
        "toilets:wheelchair": "limited",
        "wheelchair": "limited"
      }
    },
    {
      "type": "node",
      "id": 3988823374,
      "lat": 24.4177794,
      "lon": 54.44074,
      "timestamp": "2024-02-03T20:07:49Z",
      "version": 3,
      "changeset": 147032654,
      "user": "Neonkaaaaa",
      "uid": 9660877,
      "tags": {
        "amenity": "bar",
        "indoor_seating": "yes",
        "name": "c. mondo",
        "name:en": "c. mondo",
        "outdoor_seating": "no"
      }
    },
    {
      "type": "node",
      "id": 4002007812,
      "lat": 24.4294036,
      "lon": 54.4289066,
      "timestamp": "2018-03-06T20:25:23Z",
      "version": 3,
      "changeset": 56947365,
      "user": "سامبا",
      "uid": 4860517,
      "tags": {
        "amenity": "bar",
        "name": "Waves Pool Bar",
        "name:en": "Waves Pool Bar"
      }
    },
    {
      "type": "node",
      "id": 4002009389,
      "lat": 24.4291944,
      "lon": 54.4288978,
      "timestamp": "2020-05-10T16:38:35Z",
      "version": 3,
      "changeset": 84978594,
      "user": "brucewang1983",
      "uid": 10894292,
      "tags": {
        "amenity": "bar",
        "name": "Amber Bar",
        "name:en": "Amber Bar",
        "opening_hours:covid19": "off"
      }
    },
    {
      "type": "node",
      "id": 4003582013,
      "lat": 24.4693002,
      "lon": 54.3408215,
      "timestamp": "2018-03-06T20:00:33Z",
      "version": 2,
      "changeset": 56946558,
      "user": "سامبا",
      "uid": 4860517,
      "tags": {
        "amenity": "bar",
        "name": "Blue Line Bar",
        "name:en": "Blue Line Bar"
      }
    },
    {
      "type": "node",
      "id": 4008939525,
      "lat": 25.0388048,
      "lon": 55.2263656,
      "timestamp": "2018-03-06T18:12:28Z",
      "version": 2,
      "changeset": 56943354,
      "user": "سامبا",
      "uid": 4860517,
      "tags": {
        "addr:city": "Dubai Sports City",
        "addr:street": "The Dome",
        "amenity": "pub",
        "cuisine": "international",
        "name": "Kickers Sports Bar",
        "name:en": "Kickers Sports Bar",
        "smoking": "outside",
        "website": "https://www.zomato.com/dubai/kickers-sports-bar-dubai-sports-city"
      }
    },
    {
      "type": "node",
      "id": 4009195200,
      "lat": 25.0083423,
      "lon": 55.1567551,
      "timestamp": "2021-04-01T05:34:02Z",
      "version": 4,
      "changeset": 102093852,
      "user": "Josef73",
      "uid": 213831,
      "tags": {
        "amenity": "pub",
        "name": "Mr Toad's Pub & Kitchen",
        "name:en": "Mr Toad's Pub & Kitchen",
        "opening_hours": "Sa-We 12:00-01:00, Th,Fr 12:00-03:00",
        "phone": "+971 4 885 1899",
        "website": "http://www.emiratesleisureretail.com/Brands/MrToads.aspx"
      }
    },
    {
      "type": "node",
      "id": 4012690245,
      "lat": 24.3963336,
      "lon": 54.5176898,
      "timestamp": "2018-03-06T21:12:06Z",
      "version": 3,
      "changeset": 56948861,
      "user": "سامبا",
      "uid": 4860517,
      "tags": {
        "amenity": "bar",
        "name": "Pool Bar",
        "name:en": "Pool Bar"
      }
    },
    {
      "type": "node",
      "id": 4027307544,
      "lat": 24.4643445,
      "lon": 54.3275374,
      "timestamp": "2018-03-06T20:04:30Z",
      "version": 3,
      "changeset": 56946685,
      "user": "سامبا",
      "uid": 4860517,
      "tags": {
        "amenity": "bar",
        "name": "The Bar At The Terrace",
        "name:en": "The Bar At The Terrace"
      }
    },
    {
      "type": "node",
      "id": 4069707928,
      "lat": 25.098198,
      "lon": 55.1796061,
      "timestamp": "2023-02-13T05:36:18Z",
      "version": 4,
      "changeset": 132471739,
      "user": "HalawaValley",
      "uid": 17826016,
      "tags": {
        "amenity": "bar",
        "name": "Good fellas sport bar",
        "name:en": "Good fellas sport bar",
        "smoking": "yes"
      }
    },
    {
      "type": "node",
      "id": 4088064985,
      "lat": 24.4467828,
      "lon": 54.4369896,
      "timestamp": "2018-03-06T20:09:34Z",
      "version": 2,
      "changeset": 56946845,
      "user": "سامبا",
      "uid": 4860517,
      "tags": {
        "amenity": "bar",
        "name": "The Pool Deck",
        "name:en": "The Pool Deck"
      }
    },
    {
      "type": "node",
      "id": 4088071108,
      "lat": 24.4465215,
      "lon": 54.4369317,
      "timestamp": "2018-03-06T20:09:34Z",
      "version": 2,
      "changeset": 56946845,
      "user": "سامبا",
      "uid": 4860517,
      "tags": {
        "amenity": "bar",
        "name": "Impressions Rooftop Lounge",
        "name:en": "Impressions Rooftop Lounge"
      }
    },
    {
      "type": "node",
      "id": 4100335163,
      "lat": 25.065449,
      "lon": 55.1380259,
      "timestamp": "2018-03-06T18:03:31Z",
      "version": 2,
      "changeset": 56943142,
      "user": "سامبا",
      "uid": 4860517,
      "tags": {
        "amenity": "bar",
        "name": "spice & ice",
        "name:en": "spice & ice"
      }
    },
    {
      "type": "node",
      "id": 4111876791,
      "lat": 23.6060457,
      "lon": 58.3351769,
      "timestamp": "2016-04-10T15:40:06Z",
      "version": 1,
      "changeset": 38454095,
      "user": "Thomas Pitt",
      "uid": 3153936,
      "tags": {
        "amenity": "bar",
        "name": "Civil Aviation Authority Club Bar"
      }
    },
    {
      "type": "node",
      "id": 4115288390,
      "lat": 25.2730051,
      "lon": 51.5410384,
      "timestamp": "2018-03-02T19:05:24Z",
      "version": 2,
      "changeset": 56829745,
      "user": "سامبا",
      "uid": 4860517,
      "tags": {
        "amenity": "bar",
        "cuisine": "chinese;american;filipino;arab",
        "internet_access": "wlan",
        "name": "Misturado",
        "name:en": "Misturado",
        "opening_hours": "Su-Th 12:00-01:00",
        "phone": "44087777"
      }
    },
    {
      "type": "node",
      "id": 4141295689,
      "lat": 26.2111564,
      "lon": 50.5117053,
      "timestamp": "2018-03-02T22:13:00Z",
      "version": 2,
      "changeset": 56834130,
      "user": "سامبا",
      "uid": 4860517,
      "tags": {
        "amenity": "pub",
        "name": "hamaji mandir bahrain",
        "name:en": "hamaji mandir bahrain"
      }
    },
    {
      "type": "node",
      "id": 4142921422,
      "lat": 25.227095,
      "lon": 55.2871811,
      "timestamp": "2023-05-19T13:05:32Z",
      "version": 5,
      "changeset": 136299532,
      "user": "Gurusraouta",
      "uid": 18913526,
      "tags": {
        "addr:city": "دبي",
        "addr:city:ar": "دبي",
        "addr:city:en": "Dubai",
        "addr:city:ur": "دبئی",
        "amenity": "pub",
        "building:levels": "3",
        "name": "McGettigan's",
        "name:en": "McGettigan's",
        "opening_hours": "12:00-02:00",
        "phone": "800 6247",
        "website": "http://www.mcgettigans.com/dwtc/"
      }
    },
    {
      "type": "node",
      "id": 4151773689,
      "lat": 26.2152707,
      "lon": 50.5900161,
      "timestamp": "2018-03-02T22:13:00Z",
      "version": 2,
      "changeset": 56834130,
      "user": "سامبا",
      "uid": 4860517,
      "tags": {
        "amenity": "bar",
        "name": "Thamburu Bar",
        "name:en": "Thamburu Bar"
      }
    },
    {
      "type": "node",
      "id": 4211435189,
      "lat": 26.2890971,
      "lon": 50.6638606,
      "timestamp": "2018-03-03T00:24:20Z",
      "version": 2,
      "changeset": 56835898,
      "user": "سامبا",
      "uid": 4860517,
      "tags": {
        "amenity": "bar",
        "name": "مزاوي امواج لجون البحرين",
        "name:ar": "مزاوي امواج لجون البحرين"
      }
    },
    {
      "type": "node",
      "id": 4223255689,
      "lat": 25.2509228,
      "lon": 55.2920329,
      "timestamp": "2022-11-23T06:56:16Z",
      "version": 4,
      "changeset": 129265977,
      "user": "Balchug",
      "uid": 10888774,
      "tags": {
        "addr:street": "Kuwait Road",
        "amenity": "bar",
        "internet_access": "wlan",
        "name": "The Huddle Sports Bar & Grill at Citymax Hotel",
        "name:en": "The Huddle Sports Bar & Grill at Citymax Hotel",
        "opening_hours": "Mo-Sa 00:00-03:00"
      }
    },
    {
      "type": "node",
      "id": 4284970989,
      "lat": 25.0719045,
      "lon": 55.1406628,
      "timestamp": "2016-07-05T20:15:01Z",
      "version": 1,
      "changeset": 40508940,
      "user": "Vitaliy VHTSG",
      "uid": 4215450,
      "tags": {
        "amenity": "bar",
        "name": "алкалааа"
      }
    },
    {
      "type": "node",
      "id": 4291196390,
      "lat": 24.173941,
      "lon": 55.655716,
      "timestamp": "2018-03-06T22:15:05Z",
      "version": 2,
      "changeset": 56950374,
      "user": "سامبا",
      "uid": 4860517,
      "tags": {
        "amenity": "pub",
        "food": "yes",
        "name": "Rugby Club Restaurant",
        "name:en": "Rugby Club Restaurant",
        "outdoor_seating": "yes",
        "smoking": "separated"
      }
    },
    {
      "type": "node",
      "id": 4319967090,
      "lat": 24.2822704,
      "lon": 54.6542598,
      "timestamp": "2018-03-06T21:55:22Z",
      "version": 2,
      "changeset": 56949966,
      "user": "سامبا",
      "uid": 4860517,
      "tags": {
        "amenity": "bar",
        "name": "براعم العين",
        "name:ar": "براعم العين"
      }
    },
    {
      "type": "node",
      "id": 4322374689,
      "lat": 25.0049136,
      "lon": 51.5342185,
      "timestamp": "2016-07-27T00:00:23Z",
      "version": 1,
      "changeset": 41050931,
      "user": "shameer majeed",
      "uid": 4324457,
      "tags": {
        "amenity": "bar"
      }
    },
    {
      "type": "node",
      "id": 4327412590,
      "lat": 25.3378162,
      "lon": 55.393688,
      "timestamp": "2022-10-19T06:30:08Z",
      "version": 3,
      "changeset": 127759995,
      "user": "WaipioValley",
      "uid": 16782631,
      "tags": {
        "addr:street": "way 68511351",
        "amenity": "bar"
      }
    },
    {
      "type": "node",
      "id": 4332020895,
      "lat": 23.551942,
      "lon": 58.3933428,
      "timestamp": "2016-08-02T09:09:44Z",
      "version": 1,
      "changeset": 41187045,
      "user": "Mohammed Alhabsi",
      "uid": 4245537,
      "tags": {
        "amenity": "bar",
        "name": "ههتر"
      }
    },
    {
      "type": "node",
      "id": 4344951998,
      "lat": 24.3890082,
      "lon": 54.6940248,
      "timestamp": "2018-03-06T21:38:09Z",
      "version": 3,
      "changeset": 56949507,
      "user": "سامبا",
      "uid": 4860517,
      "tags": {
        "amenity": "bar",
        "name": "غاز",
        "name:ar": "غاز"
      }
    },
    {
      "type": "node",
      "id": 4353037091,
      "lat": 24.3273108,
      "lon": 54.5331597,
      "timestamp": "2018-03-06T21:49:10Z",
      "version": 2,
      "changeset": 56949816,
      "user": "سامبا",
      "uid": 4860517,
      "tags": {
        "amenity": "bar",
        "name": "مدرسة بيت المقدس الدولية",
        "name:ar": "مدرسة بيت المقدس الدولية"
      }
    },
    {
      "type": "node",
      "id": 4358278891,
      "lat": 23.6053273,
      "lon": 58.3302737,
      "timestamp": "2018-01-01T05:15:53Z",
      "version": 2,
      "changeset": 55069559,
      "user": "Zayed Al-Saidi",
      "uid": 1431727,
      "tags": {
        "addr:street": "18 November Street",
        "amenity": "bar",
        "name": "Al Shafaq Club",
        "name:ar": "نادي الشفق"
      }
    },
    {
      "type": "node",
      "id": 4358469889,
      "lat": 23.6038075,
      "lon": 58.3454798,
      "timestamp": "2016-08-20T06:27:26Z",
      "version": 1,
      "changeset": 41570672,
      "user": "Thomas Pitt",
      "uid": 3153936,
      "tags": {
        "addr:street": "18 November Street",
        "amenity": "bar",
        "name": "Al Qala Club"
      }
    },
    {
      "type": "node",
      "id": 4358470189,
      "lat": 23.6040008,
      "lon": 58.3416069,
      "timestamp": "2018-01-01T05:25:49Z",
      "version": 2,
      "changeset": 55069655,
      "user": "Zayed Al-Saidi",
      "uid": 1431727,
      "tags": {
        "amenity": "bar",
        "name": "Al Diwan Beach Club",
        "name:ar": "نادي موظفي الديوان"
      }
    },
    {
      "type": "node",
      "id": 4358470190,
      "lat": 23.6044894,
      "lon": 58.3334354,
      "timestamp": "2018-01-01T05:15:53Z",
      "version": 2,
      "changeset": 55069559,
      "user": "Zayed Al-Saidi",
      "uid": 1431727,
      "tags": {
        "addr:street": "18 November Street",
        "amenity": "bar",
        "name": "Beach Club",
        "name:ar": "نادي الشاطئ"
      }
    },
    {
      "type": "node",
      "id": 4363228190,
      "lat": 21.3401095,
      "lon": 57.365743,
      "timestamp": "2016-08-23T16:47:21Z",
      "version": 1,
      "changeset": 41642563,
      "user": "Chiran Kumar",
      "uid": 4464511,
      "tags": {
        "addr:postcode": "236",
        "amenity": "bar",
        "name:en": "salan"
      }
    },
    {
      "type": "node",
      "id": 4363261590,
      "lat": 24.3913005,
      "lon": 56.6919777,
      "timestamp": "2018-03-04T18:09:45Z",
      "version": 2,
      "changeset": 56877622,
      "user": "Rotilom",
      "uid": 6853562,
      "tags": {
        "amenity": "bar",
        "name": "al wadi hotel",
        "name:en": "al wadi hotel"
      }
    },
    {
      "type": "node",
      "id": 4386186092,
      "lat": 25.2128104,
      "lon": 55.2753284,
      "timestamp": "2024-04-07T21:29:46Z",
      "version": 5,
      "changeset": 149710627,
      "user": "Neonkaaaaa",
      "uid": 9660877,
      "tags": {
        "amenity": "bar",
        "indoor_seating": "yes",
        "name": "Long's Bar",
        "name:en": "Long's Bar",
        "outdoor_seating": "no"
      }
    },
    {
      "type": "node",
      "id": 4404170091,
      "lat": 25.1012419,
      "lon": 55.1776213,
      "timestamp": "2023-02-09T06:52:26Z",
      "version": 5,
      "changeset": 132290012,
      "user": "HalawaValley",
      "uid": 17826016,
      "tags": {
        "amenity": "bar",
        "level": "8",
        "name": "Lock, Stock & Barrel",
        "name:en": "Lock, Stock & Barrel",
        "website": "https://www.lsbdubai.com"
      }
    },
    {
      "type": "node",
      "id": 4405534290,
      "lat": 25.0970952,
      "lon": 55.1503697,
      "timestamp": "2021-02-15T19:26:21Z",
      "version": 3,
      "changeset": 99329531,
      "user": "Orionist",
      "uid": 1308582,
      "tags": {
        "amenity": "bar",
        "name": "Jetty Lounge - One & Only",
        "name:en": "Jetty Lounge - One & Only"
      }
    },
    {
      "type": "node",
      "id": 4424252291,
      "lat": 25.3588448,
      "lon": 55.5130715,
      "timestamp": "2018-03-03T11:21:51Z",
      "version": 2,
      "changeset": 56844397,
      "user": "سامبا",
      "uid": 4860517,
      "tags": {
        "amenity": "bar",
        "name": "Emrats road old",
        "name:en": "Emrats road old"
      }
    },
    {
      "type": "node",
      "id": 4424407689,
      "lat": 25.4048068,
      "lon": 55.4295121,
      "timestamp": "2019-02-12T08:29:01Z",
      "version": 4,
      "changeset": 67123587,
      "user": "Rotilom",
      "uid": 6853562,
      "tags": {
        "amenity": "bar",
        "name": "Ajman Beach",
        "name:en": "Ajman Beach"
      }
    },
    {
      "type": "node",
      "id": 4427541979,
      "lat": 25.276604,
      "lon": 51.5135315,
      "timestamp": "2016-10-18T06:50:59Z",
      "version": 2,
      "changeset": 42976163,
      "user": "Henkie100",
      "uid": 2249743,
      "tags": {
        "addr:city": "Doha",
        "amenity": "bar",
        "smoking": "outside",
        "wheelchair": "limited"
      }
    },
    {
      "type": "node",
      "id": 4435034789,
      "lat": 26.2127691,
      "lon": 50.5955292,
      "timestamp": "2016-10-06T20:54:36Z",
      "version": 1,
      "changeset": 42695821,
      "user": "ምልክት",
      "uid": 4673856,
      "tags": {
        "amenity": "bar",
        "name": "ስታር ናይት",
        "name:ar": "ስታር ናይት"
      }
    },
    {
      "type": "node",
      "id": 4435311589,
      "lat": 26.2279696,
      "lon": 50.5970901,
      "timestamp": "2016-10-07T01:12:48Z",
      "version": 1,
      "changeset": 42699191,
      "user": "ምልክት",
      "uid": 4673856,
      "tags": {
        "amenity": "bar",
        "name": "ምርኖ ክለብ",
        "name:ar": "ምርኖ ክለብ"
      }
    },
    {
      "type": "node",
      "id": 4437964793,
      "lat": 26.2148657,
      "lon": 50.5947072,
      "timestamp": "2016-10-08T17:21:33Z",
      "version": 1,
      "changeset": 42738491,
      "user": "ምልክት",
      "uid": 4673856,
      "tags": {
        "amenity": "bar",
        "name": "ቢራ መሸጫ",
        "name:ar": "ቢራ መሸጫ"
      }
    },
    {
      "type": "node",
      "id": 4443420891,
      "lat": 25.1839864,
      "lon": 55.2542314,
      "timestamp": "2024-01-24T07:32:34Z",
      "version": 13,
      "changeset": 146616725,
      "user": "Neonkaaaaa",
      "uid": 9660877,
      "tags": {
        "addr:city": "دبي",
        "addr:city:ar": "دبي",
        "addr:city:en": "Dubai",
        "addr:city:ur": "دبئی",
        "addr:street": "Al Habtoor City",
        "air_conditioning": "yes",
        "amenity": "bar",
        "indoor_seating": "yes",
        "name": "The Rose and Crown Dubai",
        "name:en": "The Rose and Crown Dubai",
        "opening_hours": "11:00-02:00",
        "outdoor_seating": "no",
        "payment:credit_cards": "yes",
        "payment:debit_cards": "yes",
        "smoking": "no",
        "website": "https://roseandcrowndubai.com/",
        "wheelchair": "yes"
      }
    },
    {
      "type": "node",
      "id": 4449217089,
      "lat": 25.7860051,
      "lon": 55.9395963,
      "timestamp": "2016-10-15T13:37:28Z",
      "version": 1,
      "changeset": 42918205,
      "user": "Malik Muhammad Emran Rubani",
      "uid": 4719855,
      "tags": {
        "amenity": "pub"
      }
    },
    {
      "type": "node",
      "id": 4470129597,
      "lat": 25.4796878,
      "lon": 51.3853486,
      "timestamp": "2018-03-02T20:28:49Z",
      "version": 3,
      "changeset": 56831875,
      "user": "سامبا",
      "uid": 4860517,
      "tags": {
        "addr:street": "Umm Ebairiya",
        "amenity": "pub",
        "internet_access": "wlan",
        "name": "Redco Almana Villa",
        "name:ar": "Redco Almana Villa",
        "name:en": "Redco Almana Villa"
      }
    },
    {
      "type": "node",
      "id": 4509412389,
      "lat": 25.2210487,
      "lon": 55.2861021,
      "timestamp": "2019-02-12T08:29:05Z",
      "version": 4,
      "changeset": 67123587,
      "user": "Rotilom",
      "uid": 6853562,
      "tags": {
        "amenity": "bar",
        "name": "Cubano Lito Bar and Lounge",
        "name:en": "Cubano Lito Bar and Lounge"
      }
    },
    {
      "type": "node",
      "id": 4520685490,
      "lat": 25.3103973,
      "lon": 55.4061546,
      "timestamp": "2016-11-25T13:46:28Z",
      "version": 1,
      "changeset": 43944665,
      "user": "Pakistan 123",
      "uid": 4884576,
      "tags": {
        "amenity": "bar"
      }
    },
    {
      "type": "node",
      "id": 4534109090,
      "lat": 24.4652754,
      "lon": 54.3343437,
      "timestamp": "2016-12-02T15:33:01Z",
      "version": 1,
      "changeset": 44116888,
      "user": "lamine007",
      "uid": 4871980,
      "tags": {
        "amenity": "bar"
      }
    },
    {
      "type": "node",
      "id": 4583423790,
      "lat": 25.1725769,
      "lon": 55.2301356,
      "timestamp": "2017-01-01T00:59:33Z",
      "version": 1,
      "changeset": 44815767,
      "user": "ahmed abdo edries nasur",
      "uid": 4138678,
      "tags": {
        "amenity": "bar"
      }
    },
    {
      "type": "node",
      "id": 4584886891,
      "lat": 25.2626053,
      "lon": 55.297333,
      "timestamp": "2019-02-12T11:31:43Z",
      "version": 3,
      "changeset": 67128302,
      "user": "Rotilom",
      "uid": 6853562,
      "tags": {
        "amenity": "bar",
        "name": "Fishers Hub Family Bar",
        "name:en": "Fishers Hub Family Bar"
      }
    },
    {
      "type": "node",
      "id": 4601053389,
      "lat": 26.2338733,
      "lon": 50.5952209,
      "timestamp": "2017-01-11T04:29:45Z",
      "version": 1,
      "changeset": 45067874,
      "user": "rnrnrnrnrnrnr",
      "uid": 5109802,
      "tags": {
        "amenity": "bar"
      }
    },
    {
      "type": "node",
      "id": 4602145092,
      "lat": 23.6715603,
      "lon": 58.2076171,
      "timestamp": "2017-01-11T17:39:29Z",
      "version": 1,
      "changeset": 45082257,
      "user": "سمعان العامري",
      "uid": 3577926,
      "tags": {
        "amenity": "pub",
        "name": "نادي العباب",
        "name:ar": "نادي العباب"
      }
    },
    {
      "type": "node",
      "id": 4622087994,
      "lat": 25.25691,
      "lon": 55.3006145,
      "timestamp": "2022-11-07T05:45:16Z",
      "version": 8,
      "changeset": 128580708,
      "user": "CaluequeDam",
      "uid": 16528248,
      "tags": {
        "addr:street": "Khalid Bin Waleed Road",
        "amenity": "bar",
        "name": "African Eastern",
        "name:en": "African Eastern",
        "source": "Kaart Ground Survey 2017"
      }
    },
    {
      "type": "node",
      "id": 4683021991,
      "lat": 25.238284,
      "lon": 55.3043894,
      "timestamp": "2019-02-12T08:29:13Z",
      "version": 2,
      "changeset": 67123587,
      "user": "Rotilom",
      "uid": 6853562,
      "tags": {
        "amenity": "bar",
        "name": "Asics",
        "name:en": "Asics"
      }
    },
    {
      "type": "node",
      "id": 4685654701,
      "lat": 25.7744797,
      "lon": 55.9636035,
      "timestamp": "2018-02-21T07:28:28Z",
      "version": 2,
      "changeset": 56540992,
      "user": "Rotilom",
      "uid": 6853562,
      "tags": {
        "amenity": "bar",
        "name": "Russian Pub",
        "name:en": "Russian Pub"
      }
    },
    {
      "type": "node",
      "id": 4689376290,
      "lat": 25.3279188,
      "lon": 51.4777303,
      "timestamp": "2017-02-16T20:33:23Z",
      "version": 1,
      "changeset": 46147379,
      "user": "redeyese",
      "uid": 5294489,
      "tags": {
        "amenity": "bar",
        "name:en": "MAMA AYIDHA"
      }
    },
    {
      "type": "node",
      "id": 4695304920,
      "lat": 25.0856904,
      "lon": 55.1411983,
      "timestamp": "2018-03-06T17:43:38Z",
      "version": 2,
      "changeset": 56942605,
      "user": "سامبا",
      "uid": 4860517,
      "tags": {
        "amenity": "bar",
        "name": "The Underground",
        "name:en": "The Underground"
      }
    },
    {
      "type": "node",
      "id": 4697407997,
      "lat": 25.2140242,
      "lon": 55.2761168,
      "timestamp": "2024-04-07T21:29:45Z",
      "version": 4,
      "changeset": 149710627,
      "user": "Neonkaaaaa",
      "uid": 9660877,
      "tags": {
        "amenity": "bar",
        "indoor_seating": "yes",
        "name": "Level 43 Sky Lounge Bar & Resto",
        "name:en": "Level 43 Sky Lounge Bar & Resto",
        "outdoor_seating": "no"
      }
    },
    {
      "type": "node",
      "id": 4712006732,
      "lat": 23.6063208,
      "lon": 58.5386783,
      "timestamp": "2017-03-01T17:10:09Z",
      "version": 1,
      "changeset": 46499318,
      "user": "calli3756",
      "uid": 546812,
      "tags": {
        "amenity": "bar",
        "name": "Stassten Tea"
      }
    },
    {
      "type": "node",
      "id": 4723779464,
      "lat": 26.2333743,
      "lon": 50.5716397,
      "timestamp": "2018-03-02T22:38:46Z",
      "version": 2,
      "changeset": 56834568,
      "user": "سامبا",
      "uid": 4860517,
      "tags": {
        "amenity": "bar",
        "name": "Riffa Lounge",
        "name:en": "Riffa Lounge",
        "name_1": "wendy's",
        "outdoor_seating": "no",
        "smoking": "outside"
      }
    },
    {
      "type": "node",
      "id": 4728704947,
      "lat": 22.1023698,
      "lon": 58.7594037,
      "timestamp": "2017-06-20T06:50:29Z",
      "version": 2,
      "changeset": 49683671,
      "user": "calli3756",
      "uid": 546812,
      "tags": {
        "access": "private",
        "amenity": "bar",
        "name": "Bar"
      }
    },
    {
      "type": "node",
      "id": 4728958889,
      "lat": 22.5655671,
      "lon": 59.5376126,
      "timestamp": "2017-03-11T10:18:36Z",
      "version": 1,
      "changeset": 46758836,
      "user": "calli3756",
      "uid": 546812,
      "tags": {
        "amenity": "bar"
      }
    },
    {
      "type": "node",
      "id": 4730063733,
      "lat": 22.5680999,
      "lon": 59.5264323,
      "timestamp": "2017-03-12T03:16:56Z",
      "version": 1,
      "changeset": 46776756,
      "user": "calli3756",
      "uid": 546812,
      "tags": {
        "amenity": "bar",
        "name": "Bawadi Al Afiya"
      }
    },
    {
      "type": "node",
      "id": 4744581821,
      "lat": 26.2709216,
      "lon": 50.6244576,
      "timestamp": "2025-02-12T22:45:13Z",
      "version": 2,
      "changeset": 162447545,
      "user": "Lars_TheViking",
      "uid": 9007988,
      "tags": {
        "amenity": "bar",
        "name:en": "Irish Bar",
        "name:ru": "Ирландский бар"
      }
    },
    {
      "type": "node",
      "id": 4747907244,
      "lat": 24.5026113,
      "lon": 54.3737988,
      "timestamp": "2024-01-08T12:23:38Z",
      "version": 4,
      "changeset": 146026908,
      "user": "Reentry0909",
      "uid": 20830350,
      "tags": {
        "addr:street": "Al Meena Street",
        "amenity": "pub",
        "name": "Mardi Gras Pub and Lounge",
        "name:en": "Mardi Gras Pub and Lounge",
        "source": "Kaart Ground Survey 2017"
      }
    },
    {
      "type": "node",
      "id": 4748875924,
      "lat": 25.242257,
      "lon": 55.2980545,
      "timestamp": "2021-03-20T11:18:08Z",
      "version": 4,
      "changeset": 101382752,
      "user": "Orionist",
      "uid": 1308582,
      "tags": {
        "amenity": "bar",
        "name": "Ratsky",
        "name:en": "Ratsky"
      }
    },
    {
      "type": "node",
      "id": 4748885122,
      "lat": 25.2707946,
      "lon": 55.3197217,
      "timestamp": "2019-02-18T13:07:46Z",
      "version": 3,
      "changeset": 67314907,
      "user": "Rotilom",
      "uid": 6853562,
      "tags": {
        "amenity": "bar",
        "name": "Kitakits Kafe & Klubb",
        "name:en": "Kitakits Kafe & Klubb"
      }
    },
    {
      "type": "node",
      "id": 4748916426,
      "lat": 25.3177671,
      "lon": 55.4480644,
      "timestamp": "2019-11-18T12:24:15Z",
      "version": 4,
      "changeset": 77225830,
      "user": "Rotilom",
      "uid": 6853562,
      "tags": {
        "addr:street": "University Road, Sharjah",
        "amenity": "pub",
        "cuisine": "german",
        "internet_access": "wlan",
        "name": "Doner Kebab;D🏺ner Kebab®",
        "name:en": "Doner Kebab",
        "opening_hours": "24/7",
        "phone": "06 5550144"
      }
    },
    {
      "type": "node",
      "id": 4753761620,
      "lat": 24.4641557,
      "lon": 54.3770911,
      "timestamp": "2025-08-11T08:36:58Z",
      "version": 6,
      "changeset": 170280405,
      "user": "Department of Municipalities and Transport Abu_Dhabi",
      "uid": 16903428,
      "tags": {
        "addr:street": "Sheikh Rashid bin Saeed Street",
        "amenity": "bar",
        "name": "Gulf Bride Saloon",
        "name:en": "Gulf Bride Saloon",
        "source": "Kaart Ground Survey 2017"
      }
    },
    {
      "type": "node",
      "id": 4758419278,
      "lat": 24.3550834,
      "lon": 54.5011447,
      "timestamp": "2018-03-06T21:49:37Z",
      "version": 3,
      "changeset": 56949816,
      "user": "سامبا",
      "uid": 4860517,
      "tags": {
        "addr:street": "14th Street",
        "amenity": "bar",
        "name": "Pak Style means Saloon",
        "name:en": "Pak Style means Saloon",
        "source": "Kaart Ground Survey 2017"
      }
    },
    {
      "type": "node",
      "id": 4758776912,
      "lat": 24.3545247,
      "lon": 54.5010185,
      "timestamp": "2018-03-06T21:49:41Z",
      "version": 3,
      "changeset": 56949816,
      "user": "سامبا",
      "uid": 4860517,
      "tags": {
        "addr:street": "14th Street",
        "amenity": "bar",
        "name": "Rang Gents Saloon",
        "name:en": "Rang Gents Saloon",
        "source": "Kaart Ground Survey 2017"
      }
    },
    {
      "type": "node",
      "id": 4767623770,
      "lat": 26.2345885,
      "lon": 50.5736323,
      "timestamp": "2018-03-02T22:39:07Z",
      "version": 3,
      "changeset": 56834568,
      "user": "سامبا",
      "uid": 4860517,
      "tags": {
        "addr:street": "1509",
        "amenity": "bar",
        "name": "Downtown Bar",
        "name:en": "Downtown Bar",
        "source": "Kaart Ground Survey 2017"
      }
    },
    {
      "type": "node",
      "id": 4780953522,
      "lat": 25.2457039,
      "lon": 55.3312024,
      "timestamp": "2019-02-12T11:32:19Z",
      "version": 2,
      "changeset": 67128302,
      "user": "Rotilom",
      "uid": 6853562,
      "tags": {
        "amenity": "bar",
        "name": "Cielo Sky Lounge",
        "name:en": "Cielo Sky Lounge"
      }
    },
    {
      "type": "node",
      "id": 4787925427,
      "lat": 24.9608308,
      "lon": 55.0592838,
      "timestamp": "2019-02-12T11:32:22Z",
      "version": 2,
      "changeset": 67128302,
      "user": "Rotilom",
      "uid": 6853562,
      "tags": {
        "amenity": "bar",
        "name": "Brasa Middle East FZE",
        "name:en": "Brasa Middle East FZE",
        "phone": "048833680"
      }
    },
    {
      "type": "node",
      "id": 4788958569,
      "lat": 26.2134143,
      "lon": 50.5127923,
      "timestamp": "2018-03-02T22:14:07Z",
      "version": 3,
      "changeset": 56834130,
      "user": "سامبا",
      "uid": 4860517,
      "tags": {
        "addr:street": "Avenue 55",
        "amenity": "bar",
        "name": "Al Surai Saloon",
        "name:en": "Al Surai Saloon",
        "source": "Kaart Ground Survey 2017"
      }
    },
    {
      "type": "node",
      "id": 4796103928,
      "lat": 24.4213413,
      "lon": 54.5841914,
      "timestamp": "2019-02-12T08:29:18Z",
      "version": 3,
      "changeset": 67123587,
      "user": "Rotilom",
      "uid": 6853562,
      "tags": {
        "amenity": "bar",
        "name": "Kalifacity mamai location",
        "name:en": "Kalifacity mamai location"
      }
    },
    {
      "type": "node",
      "id": 4818354294,
      "lat": 25.2814188,
      "lon": 51.5034307,
      "timestamp": "2018-03-02T20:51:41Z",
      "version": 4,
      "changeset": 56832475,
      "user": "سامبا",
      "uid": 4860517,
      "tags": {
        "amenity": "bar",
        "name": "Hollywood Saloon",
        "name:en": "Hollywood Saloon",
        "source": "Kaart Ground Survey 2017"
      }
    },
    {
      "type": "node",
      "id": 4834955173,
      "lat": 25.1124006,
      "lon": 55.1882958,
      "timestamp": "2023-02-02T04:53:02Z",
      "version": 3,
      "changeset": 131986384,
      "user": "HalawaValley",
      "uid": 17826016,
      "tags": {
        "amenity": "bar",
        "name": "Bubbles Bar",
        "name:en": "Bubbles Bar",
        "operator": "Novotel",
        "outdoor_seating": "no",
        "smoking": "yes"
      }
    },
    {
      "type": "node",
      "id": 4847429523,
      "lat": 25.2766901,
      "lon": 55.3092516,
      "timestamp": "2019-02-12T11:32:30Z",
      "version": 2,
      "changeset": 67128302,
      "user": "Rotilom",
      "uid": 6853562,
      "tags": {
        "amenity": "bar",
        "name": "Unison office",
        "name:en": "Unison office"
      }
    },
    {
      "type": "node",
      "id": 4895078522,
      "lat": 25.2305994,
      "lon": 55.3792072,
      "timestamp": "2023-07-22T17:15:13Z",
      "version": 2,
      "changeset": 138863933,
      "user": "Neonkaaaaa",
      "uid": 9660877,
      "tags": {
        "addr:street": "parking",
        "amenity": "pub",
        "indoor_seating": "yes",
        "outdoor_seating": "no"
      }
    },
    {
      "type": "node",
      "id": 4898199700,
      "lat": 25.2302189,
      "lon": 55.2618849,
      "timestamp": "2018-03-03T15:44:43Z",
      "version": 3,
      "changeset": 56850285,
      "user": "سامبا",
      "uid": 4860517,
      "tags": {
        "addr:street": "Jumeira Street",
        "amenity": "bar",
        "name": "Flowers Ale",
        "name:en": "Flowers Ale",
        "source": "Kaart Ground Survey 2017"
      }
    },
    {
      "type": "node",
      "id": 4902136051,
      "lat": 25.1154227,
      "lon": 55.1939542,
      "timestamp": "2021-04-02T06:33:03Z",
      "version": 4,
      "changeset": 102166625,
      "user": "Orionist",
      "uid": 1308582,
      "tags": {
        "addr:street": "Street 19",
        "amenity": "pub",
        "name": "Red Hot Chili",
        "name:en": "Red Hot Chili",
        "source": "Kaart Ground Survey 2017"
      }
    },
    {
      "type": "node",
      "id": 4911268497,
      "lat": 24.918888,
      "lon": 55.0080426,
      "timestamp": "2024-03-23T14:07:07Z",
      "version": 9,
      "changeset": 149052274,
      "user": "Neonkaaaaa",
      "uid": 9660877,
      "tags": {
        "air_conditioning": "yes",
        "amenity": "pub",
        "indoor_seating": "yes",
        "name": "Irish Village",
        "name:en": "Irish Village",
        "opening_hours": "Mo-Su,PH 10:00-22:00",
        "outdoor_seating": "no",
        "payment:credit_cards": "yes",
        "payment:debit_cards": "yes",
        "smoking": "no",
        "toilets": "yes",
        "toilets:wheelchair": "limited",
        "wheelchair": "limited"
      }
    },
    {
      "type": "node",
      "id": 4914336421,
      "lat": 24.4516389,
      "lon": 54.6008582,
      "timestamp": "2017-06-14T07:50:17Z",
      "version": 1,
      "changeset": 49520909,
      "user": "mahmoud abumallouh",
      "uid": 5226834,
      "tags": {
        "amenity": "bar",
        "name": "شاطئ البندر والمنيره",
        "name:ar": "شاطئ البندر والمنيره"
      }
    },
    {
      "type": "node",
      "id": 4919771796,
      "lat": 25.2652393,
      "lon": 55.3098535,
      "timestamp": "2024-03-24T21:58:37Z",
      "version": 4,
      "changeset": 149107543,
      "user": "Neonkaaaaa",
      "uid": 9660877,
      "tags": {
        "addr:street": "Baniyas Road",
        "amenity": "pub",
        "indoor_seating": "yes",
        "name": "The Pub",
        "name:en": "The Pub",
        "outdoor_seating": "no",
        "source": "Kaart Ground Survey 2017"
      }
    },
    {
      "type": "node",
      "id": 4942611623,
      "lat": 25.3999961,
      "lon": 55.4484298,
      "timestamp": "2018-03-03T01:46:56Z",
      "version": 3,
      "changeset": 56836671,
      "user": "سامبا",
      "uid": 4860517,
      "tags": {
        "addr:street": "19 Street",
        "amenity": "bar",
        "name": "Al Zaeem Billiardo & Games Hall",
        "name:en": "Al Zaeem Billiardo & Games Hall",
        "source": "Kaart Ground Survey 2017",
        "sport": "billiards"
      }
    },
    {
      "type": "node",
      "id": 4987245823,
      "lat": 24.4999368,
      "lon": 54.3707368,
      "timestamp": "2023-04-06T07:05:50Z",
      "version": 4,
      "changeset": 134563941,
      "user": "CaluequeDam",
      "uid": 16528248,
      "tags": {
        "addr:city": "أبوظبي",
        "amenity": "bar",
        "name": "مينا",
        "name:ar": "مينا"
      }
    },
    {
      "type": "node",
      "id": 4987245825,
      "lat": 25.3937997,
      "lon": 55.4613279,
      "timestamp": "2017-07-22T22:10:29Z",
      "version": 1,
      "changeset": 50490050,
      "user": "Mustafaosman",
      "uid": 6360484,
      "tags": {
        "amenity": "bar",
        "name": "أستور عجمان ١",
        "name:ar": "أستور عجمان ١"
      }
    },
    {
      "type": "node",
      "id": 4987250224,
      "lat": 25.4153433,
      "lon": 55.4527496,
      "timestamp": "2017-07-22T22:10:29Z",
      "version": 1,
      "changeset": 50490050,
      "user": "Mustafaosman",
      "uid": 6360484,
      "tags": {
        "amenity": "bar",
        "name": "أستور عجمان المينه",
        "name:ar": "أستور عجمان المينه"
      }
    },
    {
      "type": "node",
      "id": 5027205080,
      "lat": 24.4681646,
      "lon": 54.3731299,
      "timestamp": "2024-03-04T19:59:25Z",
      "version": 7,
      "changeset": 148223843,
      "user": "Sangueffusor",
      "uid": 6793422,
      "tags": {
        "air_conditioning": "yes",
        "amenity": "bar",
        "brewery": "yes",
        "email": "fb.centroalmanhal@rotana.com",
        "fax": "+97128115111",
        "internet_access": "wlan",
        "internet_access:ssid": "Rotana Hotels",
        "min_age": "21",
        "name": "c.mondo @ Centro Al Manhal",
        "opening_hours": "Mo-Su 12:00-1:00",
        "payment:cards": "yes",
        "payment:cash": "yes",
        "payment:coins": "yes",
        "payment:credit_cards": "yes",
        "payment:debit_cards": "yes",
        "payment:mastercard": "yes",
        "payment:notes": "yes",
        "payment:visa": "yes",
        "payment:visa_debit": "yes",
        "phone": "+97128115000",
        "smoking": "isolated",
        "website": "https://www.rotana.com/centrohotels/unitedarabemirates/abudhabi/centroalmanhal/dining",
        "wheelchair": "yes"
      }
    },
    {
      "type": "node",
      "id": 5076498770,
      "lat": 24.4672112,
      "lon": 54.605371,
      "timestamp": "2020-02-23T12:37:03Z",
      "version": 4,
      "changeset": 81365673,
      "user": "Werthertheoriginal",
      "uid": 10741315,
      "tags": {
        "amenity": "bar",
        "name": "W Lounge"
      }
    },
    {
      "type": "node",
      "id": 5112028124,
      "lat": 25.5032899,
      "lon": 55.5547294,
      "timestamp": "2017-09-18T03:30:38Z",
      "version": 1,
      "changeset": 52131004,
      "user": "Aron98867",
      "uid": 6670697,
      "tags": {
        "amenity": "bar"
      }
    },
    {
      "type": "node",
      "id": 5158573024,
      "lat": 25.7551638,
      "lon": 55.9203826,
      "timestamp": "2018-02-21T07:28:30Z",
      "version": 2,
      "changeset": 56540992,
      "user": "Rotilom",
      "uid": 6853562,
      "tags": {
        "amenity": "bar",
        "name": "Beit khui Salami",
        "name:en": "Beit khui Salami"
      }
    },
    {
      "type": "node",
      "id": 5159087921,
      "lat": 25.3936908,
      "lon": 55.4614201,
      "timestamp": "2017-10-10T13:59:54Z",
      "version": 1,
      "changeset": 52794348,
      "user": "ʠʉŝäî ĀŁ-ɧäɖäβÎ ツ",
      "uid": 5227949,
      "tags": {
        "amenity": "pub"
      }
    },
    {
      "type": "node",
      "id": 5179517925,
      "lat": 23.5905347,
      "lon": 58.4075159,
      "timestamp": "2017-10-21T09:02:39Z",
      "version": 1,
      "changeset": 53122628,
      "user": "$h@h@d",
      "uid": 4182091,
      "tags": {
        "addr:street": "شارع السلطان قابوس",
        "amenity": "bar",
        "name:en": "Bowshar Sunset Bar"
      }
    },
    {
      "type": "node",
      "id": 5183028421,
      "lat": 25.2461756,
      "lon": 55.3310965,
      "timestamp": "2019-11-18T12:24:15Z",
      "version": 3,
      "changeset": 77225830,
      "user": "Rotilom",
      "uid": 6853562,
      "tags": {
        "amenity": "bar",
        "name": "Q D’s"
      }
    },
    {
      "type": "node",
      "id": 5241244721,
      "lat": 23.5905459,
      "lon": 58.407684,
      "timestamp": "2017-11-21T15:53:35Z",
      "version": 1,
      "changeset": 53979484,
      "user": "$h@h@d",
      "uid": 4182091,
      "tags": {
        "addr:street": "شارع السلطان قابوس",
        "amenity": "bar",
        "cuisine": "fish_and_chips;grill",
        "name:en": "Sunset Bar",
        "opening_hours": "Su-Th 16:00-2:00; Fr-Sa 14:00-3:00"
      }
    },
    {
      "type": "node",
      "id": 5242299121,
      "lat": 25.3474629,
      "lon": 55.4791664,
      "timestamp": "2017-11-22T07:29:10Z",
      "version": 1,
      "changeset": 53993362,
      "user": "wail alwaili",
      "uid": 4583348,
      "tags": {
        "amenity": "bar"
      }
    },
    {
      "type": "node",
      "id": 5257583123,
      "lat": 24.3453447,
      "lon": 54.48378,
      "timestamp": "2018-03-06T21:49:52Z",
      "version": 2,
      "changeset": 56949816,
      "user": "سامبا",
      "uid": 4860517,
      "tags": {
        "amenity": "bar",
        "name": "Eurostar cellar bar icad gate 3",
        "name:en": "Eurostar cellar bar icad gate 3"
      }
    },
    {
      "type": "node",
      "id": 5257594622,
      "lat": 24.3599738,
      "lon": 54.4877857,
      "timestamp": "2018-03-06T21:44:37Z",
      "version": 2,
      "changeset": 56949667,
      "user": "سامبا",
      "uid": 4860517,
      "tags": {
        "amenity": "bar",
        "name": "African easten bar",
        "name:en": "African easten bar"
      }
    },
    {
      "type": "node",
      "id": 5285408025,
      "lat": 24.3348355,
      "lon": 54.4829103,
      "timestamp": "2018-03-06T21:49:52Z",
      "version": 2,
      "changeset": 56949816,
      "user": "سامبا",
      "uid": 4860517,
      "tags": {
        "amenity": "bar",
        "name": "Icad gate 3 eurostar",
        "name:en": "Icad gate 3 eurostar"
      }
    },
    {
      "type": "node",
      "id": 5287703922,
      "lat": 25.1787251,
      "lon": 55.3490076,
      "timestamp": "2017-12-16T15:57:09Z",
      "version": 2,
      "changeset": 54683440,
      "user": "Gillian Jem",
      "uid": 7259001,
      "tags": {
        "amenity": "bar",
        "tourism": "artwork"
      }
    },
    {
      "type": "node",
      "id": 5381821923,
      "lat": 26.2174146,
      "lon": 50.6056403,
      "timestamp": "2018-03-02T22:14:32Z",
      "version": 2,
      "changeset": 56834130,
      "user": "سامبا",
      "uid": 4860517,
      "tags": {
        "amenity": "bar",
        "name": "Twister",
        "name:en": "Twister"
      }
    },
    {
      "type": "node",
      "id": 5403739823,
      "lat": 24.409041,
      "lon": 54.5605536,
      "timestamp": "2018-02-10T15:44:41Z",
      "version": 1,
      "changeset": 56243270,
      "user": "Milorad Maksimovic",
      "uid": 5120580,
      "tags": {
        "amenity": "bar",
        "name": "Free jam"
      }
    },
    {
      "type": "node",
      "id": 5462791521,
      "lat": 25.0677197,
      "lon": 55.1418667,
      "timestamp": "2023-12-01T14:52:11Z",
      "version": 7,
      "changeset": 144665454,
      "user": "Neonkaaaaa",
      "uid": 9660877,
      "tags": {
        "air_conditioning": "yes",
        "amenity": "bar",
        "indoor_seating": "yes",
        "name": "Healey’s Bar and Terrace",
        "outdoor_seating": "no",
        "payment:credit_cards": "yes",
        "payment:debit_cards": "yes",
        "smoking": "no",
        "toilets": "yes",
        "toilets:wheelchair": "limited",
        "wheelchair": "limited"
      }
    },
    {
      "type": "node",
      "id": 5462791522,
      "lat": 25.0771091,
      "lon": 55.1405392,
      "timestamp": "2024-04-28T16:48:32Z",
      "version": 2,
      "changeset": 150627596,
      "user": "Neonkaaaaa",
      "uid": 9660877,
      "tags": {
        "amenity": "bar",
        "indoor_seating": "yes",
        "name": "Shades",
        "outdoor_seating": "no"
      }
    },
    {
      "type": "node",
      "id": 5462796621,
      "lat": 25.2342398,
      "lon": 55.2618216,
      "timestamp": "2018-03-07T18:49:17Z",
      "version": 1,
      "changeset": 56978014,
      "user": "Ági Metz",
      "uid": 7716344,
      "tags": {
        "amenity": "bar",
        "name": "Barefoot Lounge"
      }
    },
    {
      "type": "node",
      "id": 5462796623,
      "lat": 25.0779899,
      "lon": 55.1346274,
      "timestamp": "2025-07-25T09:41:56Z",
      "version": 3,
      "changeset": 169443230,
      "user": "onovy",
      "uid": 27052,
      "tags": {
        "addr:city": "Dubai",
        "addr:full": "Tower B, The Walk, Level 35, Dubai, United Arab Emirates",
        "addr:housenumber": "Tower B",
        "addr:street:en": "The Walk",
        "amenity": "bar",
        "amenity_1": "restaurant",
        "contact:facebook": "https://www.facebook.com/PureSkyLounge",
        "contact:instagram": "https://www.instagram.com/pureskylounge/",
        "contact:twitter": "https://twitter.com/pureskylounge/",
        "contact:website": "https://www.hilton.com/en/hotels/dxbjbhi-hilton-dubai-jumeirah/dining/pure-sky-lounge/",
        "cuisine": "international",
        "email": "Restaurant.jbr@hilton.com",
        "level": "35",
        "name": "Pure Sky Lounge & Dining",
        "opening_hours": "Mon-Sun 17:00-02:00",
        "payment:american_express": "yes",
        "payment:cash": "yes",
        "payment:debit_cards": "yes",
        "payment:diners_club": "yes",
        "payment:mastercard": "yes",
        "payment:nfc": "yes",
        "payment:visa": "yes",
        "pets_allowed": "no",
        "phone": "+971 4 374 7888",
        "wikidata": "Q135055467"
      }
    },
    {
      "type": "node",
      "id": 5462796625,
      "lat": 25.0865725,
      "lon": 55.1434259,
      "timestamp": "2018-03-07T19:11:57Z",
      "version": 1,
      "changeset": 56978585,
      "user": "Ági Metz",
      "uid": 7716344,
      "tags": {
        "amenity": "bar",
        "name": "Siddharta Lounge"
      }
    },
    {
      "type": "node",
      "id": 5462836121,
      "lat": 25.2275927,
      "lon": 55.3203171,
      "timestamp": "2024-06-25T08:05:36Z",
      "version": 2,
      "changeset": 153144481,
      "user": "Neonkaaaaa",
      "uid": 9660877,
      "tags": {
        "amenity": "bar",
        "indoor_seating": "yes",
        "name": "Tomo Restaurant",
        "outdoor_seating": "no"
      }
    },
    {
      "type": "node",
      "id": 5468878448,
      "lat": 26.2438604,
      "lon": 50.590307,
      "timestamp": "2018-03-10T09:57:13Z",
      "version": 1,
      "changeset": 57054142,
      "user": "blackadder",
      "uid": 735,
      "tags": {
        "amenity": "pub",
        "name": "Harvesters"
      }
    },
    {
      "type": "node",
      "id": 5468878487,
      "lat": 26.2438255,
      "lon": 50.5915166,
      "timestamp": "2018-03-10T09:57:14Z",
      "version": 1,
      "changeset": 57054142,
      "user": "blackadder",
      "uid": 735,
      "tags": {
        "amenity": "pub",
        "name": "Tracks"
      }
    },
    {
      "type": "node",
      "id": 5480533328,
      "lat": 26.2352843,
      "lon": 50.5354853,
      "timestamp": "2020-02-20T22:58:28Z",
      "version": 2,
      "changeset": 81293248,
      "user": "بشير إبراهيمي",
      "uid": 9838430,
      "tags": {
        "addr:city": "المنامة",
        "addr:place": "السيف",
        "amenity": "pub",
        "name": "نايت كلوبي",
        "name:ar": "نايت كلوبي"
      }
    },
    {
      "type": "node",
      "id": 5497782221,
      "lat": 26.2124825,
      "lon": 50.6083408,
      "timestamp": "2020-12-03T03:46:15Z",
      "version": 2,
      "changeset": 95188936,
      "user": "MustafaQasim",
      "uid": 9535554,
      "tags": {
        "amenity": "pub",
        "name": "زينيل",
        "name:ar": "زينيل"
      }
    },
    {
      "type": "node",
      "id": 5501828022,
      "lat": 24.9870851,
      "lon": 55.0255652,
      "timestamp": "2019-02-12T11:33:35Z",
      "version": 2,
      "changeset": 67128302,
      "user": "Rotilom",
      "uid": 6853562,
      "tags": {
        "amenity": "bar",
        "name": "Club Joumana Sports Cafe",
        "name:en": "Club Joumana Sports Cafe"
      }
    },
    {
      "type": "node",
      "id": 5542466922,
      "lat": 25.0998605,
      "lon": 55.135539,
      "timestamp": "2018-04-10T09:55:51Z",
      "version": 1,
      "changeset": 57966947,
      "user": "Gorey Rapstah",
      "uid": 7664591,
      "tags": {
        "amenity": "bar",
        "name": "101 Privé"
      }
    },
    {
      "type": "node",
      "id": 5551224921,
      "lat": 22.4052931,
      "lon": 58.7994209,
      "timestamp": "2018-04-13T20:53:42Z",
      "version": 1,
      "changeset": 58076057,
      "user": "nasser the game",
      "uid": 6446225,
      "tags": {
        "amenity": "bar"
      }
    },
    {
      "type": "node",
      "id": 5592817524,
      "lat": 24.0878269,
      "lon": 55.6259157,
      "timestamp": "2018-05-02T17:17:05Z",
      "version": 1,
      "changeset": 58621286,
      "user": "Mhalcomb Proel",
      "uid": 6554078,
      "tags": {
        "amenity": "bar"
      }
    },
    {
      "type": "node",
      "id": 5713804839,
      "lat": 24.4970437,
      "lon": 54.3648218,
      "timestamp": "2023-04-12T09:00:36Z",
      "version": 2,
      "changeset": 134806235,
      "user": "RiverCasiquiare",
      "uid": 16161917,
      "tags": {
        "amenity": "pub",
        "name": "Das Brauhaus Abu Dhabi",
        "name:en": "Ally Pally",
        "opening_hours": "12:00-03:00",
        "phone": "+971 2 678 0522",
        "website": "https://www.dasbrauhaus.rocks/"
      }
    },
    {
      "type": "node",
      "id": 5775039526,
      "lat": 24.5419414,
      "lon": 54.4306167,
      "timestamp": "2018-07-21T13:57:19Z",
      "version": 1,
      "changeset": 60931384,
      "user": "mkarau",
      "uid": 2172,
      "tags": {
        "addr:city": "Saadiyat Island, Abu Dhabi",
        "amenity": "pub",
        "name": "Hamilton's Gastro Pub",
        "outdoor_seating": "yes",
        "smoking": "separated"
      }
    },
    {
      "type": "node",
      "id": 5831276720,
      "lat": 25.2493214,
      "lon": 55.3595395,
      "timestamp": "2018-08-14T03:48:29Z",
      "version": 1,
      "changeset": 61643961,
      "user": "Mapanauta",
      "uid": 3093366,
      "tags": {
        "amenity": "bar",
        "name": "Heineken"
      }
    },
    {
      "type": "node",
      "id": 5905846887,
      "lat": 21.8566222,
      "lon": 59.5716537,
      "timestamp": "2021-11-10T09:44:58Z",
      "version": 2,
      "changeset": 113600213,
      "user": "Sal73x",
      "uid": 1293386,
      "tags": {
        "amenity": "pub",
        "name": "سوق السمك. الأشخرة"
      }
    },
    {
      "type": "node",
      "id": 5954371585,
      "lat": 25.1857841,
      "lon": 55.2736164,
      "timestamp": "2019-02-12T11:34:04Z",
      "version": 2,
      "changeset": 67128302,
      "user": "Rotilom",
      "uid": 6853562,
      "tags": {
        "amenity": "bar",
        "name": "poppy, renaissance downtown hotel",
        "name:en": "poppy, renaissance downtown hotel"
      }
    },
    {
      "type": "node",
      "id": 5954371685,
      "lat": 25.2083655,
      "lon": 55.2607531,
      "timestamp": "2019-03-24T02:36:43Z",
      "version": 3,
      "changeset": 68459672,
      "user": "b-jazz-bot",
      "uid": 9451067,
      "tags": {
        "amenity": "bar",
        "name": "look up, la ville hotel",
        "name:en": "look up, la ville hotel",
        "website": "https://livelaville.com/"
      }
    },
    {
      "type": "node",
      "id": 5954379785,
      "lat": 25.2436413,
      "lon": 55.3332294,
      "timestamp": "2019-02-12T11:34:04Z",
      "version": 2,
      "changeset": 67128302,
      "user": "Rotilom",
      "uid": 6853562,
      "tags": {
        "amenity": "bar",
        "name": "seventy seven",
        "name:en": "seventy seven",
        "website": "http://Hyatt.com"
      }
    },
    {
      "type": "node",
      "id": 6002633588,
      "lat": 25.1838039,
      "lon": 55.2541617,
      "timestamp": "2024-01-24T07:32:34Z",
      "version": 9,
      "changeset": 146616725,
      "user": "Neonkaaaaa",
      "uid": 9660877,
      "tags": {
        "addr:city": "دبي",
        "addr:city:ar": "دبي",
        "addr:city:en": "Dubai",
        "addr:city:ur": "دبئی",
        "addr:street": "Canal Walk",
        "air_conditioning": "yes",
        "amenity": "bar",
        "indoor_seating": "yes",
        "name": "V Deck",
        "opening_hours": "Mo-Su 09:00-21:00",
        "operator": "V Hotel Dubai, Curio Collection by Hilton",
        "outdoor_seating": "no",
        "payment:credit_cards": "yes",
        "payment:debit_cards": "yes",
        "smoking": "no",
        "wheelchair": "yes"
      }
    },
    {
      "type": "node",
      "id": 6002660164,
      "lat": 25.1843589,
      "lon": 55.2546583,
      "timestamp": "2024-01-24T07:32:59Z",
      "version": 9,
      "changeset": 146616725,
      "user": "Neonkaaaaa",
      "uid": 9660877,
      "tags": {
        "addr:city": "دبي",
        "addr:city:ar": "دبي",
        "addr:city:en": "Dubai",
        "addr:city:ur": "دبئی",
        "addr:street": "Canal Walk",
        "air_conditioning": "yes",
        "amenity": "bar",
        "description": "Toast the town at V Lounge 30th floors above Sheikh Zayed Road. Groove to global rhythms and shake things up as the city's most buzzworthy scene plays out against its stunning skyline.",
        "indoor_seating": "yes",
        "name": "V Lounge",
        "opening_hours": "Mo-Su 08:00-02:00",
        "operator": "V Hotel Dubai, Curio Collection by Hilton",
        "outdoor_seating": "no",
        "payment:credit_cards": "yes",
        "payment:debit_cards": "yes",
        "phone": "+971-4-4366666",
        "smoking": "no",
        "toilets": "yes",
        "toilets:wheelchair": "limited",
        "wheelchair": "limited"
      }
    },
    {
      "type": "node",
      "id": 6069168385,
      "lat": 23.5869489,
      "lon": 58.4284834,
      "timestamp": "2018-11-17T19:33:12Z",
      "version": 1,
      "changeset": 64604688,
      "user": "durka",
      "uid": 4909334,
      "tags": {
        "amenity": "bar",
        "cuisine": "chicken;fish;oriental;grill;indian;local",
        "name": "Bombay Bar",
        "opening_hours": "Mo-Su 18:00-03:00"
      }
    },
    {
      "type": "node",
      "id": 6074466776,
      "lat": 25.2441277,
      "lon": 55.3703141,
      "timestamp": "2025-06-23T06:15:14Z",
      "version": 3,
      "changeset": 167985369,
      "user": "Fizzie-DWG",
      "uid": 461130,
      "tags": {
        "amenity": "bar",
        "name": "Heineken"
      }
    },
    {
      "type": "node",
      "id": 6205999485,
      "lat": 23.1131135,
      "lon": 57.2920655,
      "timestamp": "2019-01-13T18:17:03Z",
      "version": 1,
      "changeset": 66280929,
      "user": "فتى الحياة",
      "uid": 9353137,
      "tags": {
        "amenity": "pub"
      }
    },
    {
      "type": "node",
      "id": 6219004845,
      "lat": 24.8204587,
      "lon": 56.135121,
      "timestamp": "2019-02-11T16:21:24Z",
      "version": 2,
      "changeset": 67104399,
      "user": "Rotilom",
      "uid": 6853562,
      "tags": {
        "amenity": "bar",
        "internet_access": "wlan",
        "internet_access:fee": "no",
        "level": "1",
        "name": "Roumoul",
        "name:de": "Roumoul",
        "name:en": "Roumoul",
        "outdoor_seating": "yes",
        "smoking": "outside",
        "wheelchair": "yes"
      }
    },
    {
      "type": "node",
      "id": 6306589585,
      "lat": 22.0095104,
      "lon": 59.1316852,
      "timestamp": "2019-02-27T18:58:10Z",
      "version": 1,
      "changeset": 67627929,
      "user": "Shabir Al Yousef",
      "uid": 6485197,
      "tags": {
        "amenity": "bar"
      }
    },
    {
      "type": "node",
      "id": 6371769485,
      "lat": 24.4500867,
      "lon": 54.3862376,
      "timestamp": "2023-04-29T02:24:09Z",
      "version": 2,
      "changeset": 135489046,
      "user": "Gurusraouta",
      "uid": 18913526,
      "tags": {
        "amenity": "bar"
      }
    },
    {
      "type": "node",
      "id": 6404126485,
      "lat": 25.0802779,
      "lon": 55.1360939,
      "timestamp": "2020-07-18T05:24:51Z",
      "version": 3,
      "changeset": 88167527,
      "user": "PelleV",
      "uid": 39463,
      "tags": {
        "amenity": "bar",
        "name": "Black Tap Craft Burgers & Shakes",
        "name:en": "Black Tap Craft Burgers & Shakes"
      }
    },
    {
      "type": "node",
      "id": 6512253588,
      "lat": 25.2473152,
      "lon": 55.3460832,
      "timestamp": "2024-02-05T18:10:21Z",
      "version": 5,
      "changeset": 147104217,
      "user": "Neonkaaaaa",
      "uid": 9660877,
      "tags": {
        "air_conditioning": "yes",
        "amenity": "bar",
        "indoor_seating": "yes",
        "name:en": "Jules Bar",
        "outdoor_seating": "yes",
        "smoking": "no"
      }
    },
    {
      "type": "node",
      "id": 6512253790,
      "lat": 25.1922368,
      "lon": 55.2675289,
      "timestamp": "2020-12-08T11:39:23Z",
      "version": 3,
      "changeset": 95473170,
      "user": "wheelmap_visitor",
      "uid": 290680,
      "tags": {
        "amenity": "bar",
        "name:en": "The Eloquent Elephant",
        "toilets:wheelchair": "yes",
        "wheelchair": "yes"
      }
    },
    {
      "type": "node",
      "id": 6512253791,
      "lat": 25.1853485,
      "lon": 55.2574705,
      "timestamp": "2019-05-30T23:22:02Z",
      "version": 1,
      "changeset": 70788798,
      "user": "Brian773",
      "uid": 10044482,
      "tags": {
        "amenity": "bar",
        "name:en": "Café Artois"
      }
    },
    {
      "type": "node",
      "id": 6512253792,
      "lat": 25.2093276,
      "lon": 55.2772504,
      "timestamp": "2024-01-02T07:16:04Z",
      "version": 2,
      "changeset": 145786328,
      "user": "Neonkaaaaa",
      "uid": 9660877,
      "tags": {
        "amenity": "bar",
        "indoor_seating": "yes",
        "name:en": "Wings n Things",
        "outdoor_seating": "no"
      }
    },
    {
      "type": "node",
      "id": 6512253797,
      "lat": 25.2237287,
      "lon": 55.3491447,
      "timestamp": "2023-12-25T17:52:27Z",
      "version": 2,
      "changeset": 145506869,
      "user": "Neonkaaaaa",
      "uid": 9660877,
      "tags": {
        "amenity": "bar",
        "indoor_seating": "yes",
        "name:en": "Belgian Beer Café",
        "outdoor_seating": "no"
      }
    },
    {
      "type": "node",
      "id": 6512253798,
      "lat": 24.8171376,
      "lon": 55.2309105,
      "timestamp": "2019-06-28T05:53:45Z",
      "version": 2,
      "changeset": 71694556,
      "user": "baraakamal",
      "uid": 5788062,
      "tags": {
        "amenity": "bar",
        "name": "Al-Sarab Rooftop Lounge",
        "name:en": "Al-Sarab Rooftop Lounge"
      }
    },
    {
      "type": "node",
      "id": 6512253799,
      "lat": 25.2577097,
      "lon": 55.344986,
      "timestamp": "2019-05-30T23:22:10Z",
      "version": 1,
      "changeset": 70788798,
      "user": "Brian773",
      "uid": 10044482,
      "tags": {
        "amenity": "bar",
        "name:en": "The Draft House Sports Bar and Canteen"
      }
    },
    {
      "type": "node",
      "id": 6512253800,
      "lat": 25.1340658,
      "lon": 55.186084,
      "timestamp": "2019-05-30T23:22:12Z",
      "version": 1,
      "changeset": 70788798,
      "user": "Brian773",
      "uid": 10044482,
      "tags": {
        "amenity": "bar",
        "name:en": "Perry & Blackwelder’s"
      }
    },
    {
      "type": "node",
      "id": 6512253801,
      "lat": 25.1853928,
      "lon": 55.2575853,
      "timestamp": "2019-05-30T23:22:13Z",
      "version": 1,
      "changeset": 70788798,
      "user": "Brian773",
      "uid": 10044482,
      "tags": {
        "amenity": "bar",
        "name:en": "Bridgewater Tavern"
      }
    },
    {
      "type": "node",
      "id": 6512253802,
      "lat": 25.2250352,
      "lon": 55.2548551,
      "timestamp": "2019-09-23T06:48:17Z",
      "version": 2,
      "changeset": 74790393,
      "user": "aktameemi",
      "uid": 10320558,
      "tags": {
        "amenity": "bar",
        "name:en": "Masti Cocktails and Cuisine"
      }
    },
    {
      "type": "node",
      "id": 6512253804,
      "lat": 25.2615765,
      "lon": 55.2806165,
      "timestamp": "2024-06-25T06:51:56Z",
      "version": 2,
      "changeset": 153141948,
      "user": "Neonkaaaaa",
      "uid": 9660877,
      "tags": {
        "amenity": "bar",
        "indoor_seating": "yes",
        "name:en": "Chart Room",
        "outdoor_seating": "no"
      }
    },
    {
      "type": "node",
      "id": 6512256300,
      "lat": 25.1339698,
      "lon": 55.18473,
      "timestamp": "2019-05-30T23:22:09Z",
      "version": 1,
      "changeset": 70788798,
      "user": "Brian773",
      "uid": 10044482,
      "tags": {
        "amenity": "bar",
        "name:en": "Belgian Beer Café"
      }
    },
    {
      "type": "node",
      "id": 6512256301,
      "lat": 25.233632,
      "lon": 55.260478,
      "timestamp": "2019-05-30T23:22:09Z",
      "version": 1,
      "changeset": 70788798,
      "user": "Brian773",
      "uid": 10044482,
      "tags": {
        "amenity": "bar",
        "name:en": "Stars n Bars"
      }
    },
    {
      "type": "node",
      "id": 6512256302,
      "lat": 25.2785941,
      "lon": 55.3048513,
      "timestamp": "2020-04-18T07:12:22Z",
      "version": 2,
      "changeset": 83733578,
      "user": "47NOE",
      "uid": 1811738,
      "tags": {
        "amenity": "bar",
        "name": "Hibiki Karaoke Bar",
        "name:en": "Hibiki Karaoke Bar"
      }
    },
    {
      "type": "node",
      "id": 6512256304,
      "lat": 25.1831163,
      "lon": 55.2742509,
      "timestamp": "2019-05-30T23:22:13Z",
      "version": 1,
      "changeset": 70788798,
      "user": "Brian773",
      "uid": 10044482,
      "tags": {
        "amenity": "bar",
        "name:en": "Beau Rivage Bar"
      }
    },
    {
      "type": "node",
      "id": 6512256589,
      "lat": 25.1181166,
      "lon": 55.1973767,
      "timestamp": "2024-04-06T07:01:06Z",
      "version": 2,
      "changeset": 149641675,
      "user": "Neonkaaaaa",
      "uid": 9660877,
      "tags": {
        "amenity": "bar",
        "indoor_seating": "yes",
        "name:en": "Après",
        "outdoor_seating": "no"
      }
    },
    {
      "type": "node",
      "id": 6512256591,
      "lat": 25.2618359,
      "lon": 55.2807819,
      "timestamp": "2024-06-25T06:51:57Z",
      "version": 2,
      "changeset": 153141948,
      "user": "Neonkaaaaa",
      "uid": 9660877,
      "tags": {
        "amenity": "bar",
        "indoor_seating": "yes",
        "name:en": "Golden Lion",
        "outdoor_seating": "no"
      }
    },
    {
      "type": "node",
      "id": 6512256785,
      "lat": 25.1194565,
      "lon": 55.2030286,
      "timestamp": "2024-04-06T07:14:25Z",
      "version": 2,
      "changeset": 149641675,
      "user": "Neonkaaaaa",
      "uid": 9660877,
      "tags": {
        "amenity": "bar",
        "indoor_seating": "yes",
        "name:en": "Brunswick Sports Grill",
        "outdoor_seating": "no"
      }
    },
    {
      "type": "node",
      "id": 6513189486,
      "lat": 25.2225491,
      "lon": 55.2816725,
      "timestamp": "2022-12-28T04:55:10Z",
      "version": 2,
      "changeset": 130582235,
      "user": "BenMacdhuiMountain",
      "uid": 16408144,
      "tags": {
        "amenity": "bar",
        "name:en": "Fibber Magee’s"
      }
    },
    {
      "type": "node",
      "id": 6513189487,
      "lat": 25.2227922,
      "lon": 55.2818109,
      "timestamp": "2022-12-28T04:55:10Z",
      "version": 2,
      "changeset": 130582235,
      "user": "BenMacdhuiMountain",
      "uid": 16408144,
      "tags": {
        "amenity": "bar",
        "name:en": "The Stables"
      }
    },
    {
      "type": "node",
      "id": 6562292092,
      "lat": 25.6543181,
      "lon": 55.7966942,
      "timestamp": "2019-06-21T06:31:24Z",
      "version": 1,
      "changeset": 71469574,
      "user": "Joseph Jude",
      "uid": 4392283,
      "tags": {
        "addr:street": "Al Aqeeq Street",
        "amenity": "bar",
        "name:en": "Premium Liqour"
      }
    },
    {
      "type": "node",
      "id": 6741746892,
      "lat": 26.212815,
      "lon": 50.5920038,
      "timestamp": "2022-05-08T14:37:24Z",
      "version": 2,
      "changeset": 120705329,
      "user": "Eman_Mehrez",
      "uid": 9945423,
      "tags": {
        "amenity": "bar",
        "name": "Irish village Bahrain"
      }
    },
    {
      "type": "node",
      "id": 6745416686,
      "lat": 29.0123838,
      "lon": 57.593301,
      "timestamp": "2019-08-26T06:58:32Z",
      "version": 1,
      "changeset": 73735760,
      "user": "Mkhosravi",
      "uid": 9926569,
      "tags": {
        "amenity": "biergarten",
        "name": "مجتمع آرامش"
      }
    },
    {
      "type": "node",
      "id": 6785043044,
      "lat": 25.3744479,
      "lon": 51.5401251,
      "timestamp": "2022-03-06T14:41:51Z",
      "version": 10,
      "changeset": 118161703,
      "user": "rocky24",
      "uid": 340404,
      "tags": {
        "addr:city": "The Pearl",
        "addr:full": "Abraj Quartier, Pearl Boulevard Tower AQ-07, Doha, Qatar",
        "amenity": "bar",
        "name": "La Pergola",
        "opening_hours": "Mo-Su 11:00-18:00",
        "outdoor_seating": "yes",
        "phone": "+974 4492 4615",
        "website": "https://www.hilton.com/en/hotels/dohprhi-hilton-doha-the-pearl-residences/dining/?WT.mc_id=zNMDM0QA1HI2NaturalSearch3GoogleMyBusiness4locallisting_Sep56DOHPRHI7ML8i90508",
        "wikidata": "Q82713262"
      }
    },
    {
      "type": "node",
      "id": 6785089661,
      "lat": 25.3746787,
      "lon": 51.5398136,
      "timestamp": "2023-05-04T08:54:27Z",
      "version": 13,
      "changeset": 135690847,
      "user": "Hilton Hotels",
      "uid": 1915697,
      "tags": {
        "addr:city": "The Pearl",
        "addr:street": "Abraj Quartier, Pearl Boulevard Tower AQ-07, Doha, Qatar",
        "amenity": "bar",
        "contact:facebook": "https://www.facebook.com/mulberrytaverndoha/",
        "contact:instagram": "https://www.instagram.com/mulberrytaverndoha/",
        "email": "themulberrytavern.doha@hilton.com",
        "name": "Mulberry Tavern Doha",
        "opening_hours": "Mo-Th 15:00-02:00; Fr-Sa 13:00-02:00; Su 15:00-02:00",
        "phone": "+974 44924630",
        "website": "https://www.mulberrytaverndoha.com/",
        "wikidata": "Q82707520"
      }
    },
    {
      "type": "node",
      "id": 6786803385,
      "lat": 25.080061,
      "lon": 55.1352385,
      "timestamp": "2025-01-07T14:01:07Z",
      "version": 2,
      "changeset": 161096813,
      "user": "rene78",
      "uid": 257555,
      "tags": {
        "amenity": "bar",
        "name": "Lock Stock & Barrel"
      }
    },
    {
      "type": "node",
      "id": 6927044485,
      "lat": 27.4731691,
      "lon": 52.6224731,
      "timestamp": "2019-10-29T12:34:43Z",
      "version": 1,
      "changeset": 76343506,
      "user": "Maxime Leboeuf",
      "uid": 6726224,
      "tags": {
        "amenity": "bar",
        "name:fr": "bar à chicha"
      }
    },
    {
      "type": "node",
      "id": 6986844041,
      "lat": 25.1294545,
      "lon": 56.3577243,
      "timestamp": "2019-11-18T10:28:20Z",
      "version": 1,
      "changeset": 77220027,
      "user": "Rotilom",
      "uid": 6853562,
      "tags": {
        "amenity": "bar"
      }
    },
    {
      "type": "node",
      "id": 7023917085,
      "lat": 25.0743534,
      "lon": 55.128173,
      "timestamp": "2025-07-27T08:34:59Z",
      "version": 2,
      "changeset": 169544477,
      "user": "Philippe0607",
      "uid": 23132883,
      "tags": {
        "amenity": "bar",
        "name:en": "Stella Bar",
        "opening_hours": "Mo-Su 12:00-18:00",
        "outdoor_seating": "yes"
      }
    },
    {
      "type": "node",
      "id": 7047374685,
      "lat": 25.2640218,
      "lon": 55.2934428,
      "timestamp": "2020-04-18T07:12:22Z",
      "version": 2,
      "changeset": 83733578,
      "user": "47NOE",
      "uid": 1811738,
      "tags": {
        "amenity": "bar",
        "name": "Lassi Bar",
        "name:en": "Lassi Bar"
      }
    },
    {
      "type": "node",
      "id": 7051807876,
      "lat": 22.6080468,
      "lon": 59.4727594,
      "timestamp": "2019-12-17T13:20:07Z",
      "version": 2,
      "changeset": 78529146,
      "user": "BlaeX",
      "uid": 9338507,
      "tags": {
        "amenity": "bar",
        "name": "Soft Drinks, Juices & Mineral Water"
      }
    },
    {
      "type": "node",
      "id": 7057872217,
      "lat": 25.0556419,
      "lon": 55.267634,
      "timestamp": "2023-07-06T15:53:40Z",
      "version": 9,
      "changeset": 138194367,
      "user": "Neonkaaaaa",
      "uid": 9660877,
      "tags": {
        "addr:city": "دبي",
        "addr:city:ar": "دبي",
        "addr:city:en": "Dubai",
        "addr:city:ur": "دبئی",
        "addr:street": "Saheel 3",
        "air_conditioning": "yes",
        "amenity": "pub",
        "indoor_seating": "yes",
        "name": "Dino's",
        "opening_hours": "Th-Sa 09:00-21:00",
        "outdoor_seating": "yes",
        "payment:credit_cards": "yes",
        "payment:debit_cards": "yes",
        "smoking": "no",
        "toilets": "yes",
        "toilets:wheelchair": "limited",
        "wheelchair": "limited"
      }
    },
    {
      "type": "node",
      "id": 7096422785,
      "lat": 25.1997436,
      "lon": 55.277337,
      "timestamp": "2023-12-31T18:15:04Z",
      "version": 2,
      "changeset": 145742913,
      "user": "Neonkaaaaa",
      "uid": 9660877,
      "tags": {
        "amenity": "bar",
        "indoor_seating": "yes",
        "internet_access": "wlan",
        "name:en": "Cabana",
        "name:fr": "Cabana",
        "outdoor_seating": "no"
      }
    },
    {
      "type": "node",
      "id": 7122647091,
      "lat": 22.1834373,
      "lon": 59.2220575,
      "timestamp": "2020-01-10T15:38:53Z",
      "version": 1,
      "changeset": 79424333,
      "user": "juergenb22",
      "uid": 1660455,
      "tags": {
        "amenity": "bar"
      }
    },
    {
      "type": "node",
      "id": 7164302786,
      "lat": 25.1154958,
      "lon": 55.193756,
      "timestamp": "2021-04-02T06:33:03Z",
      "version": 2,
      "changeset": 102166625,
      "user": "Orionist",
      "uid": 1308582,
      "tags": {
        "addr:street": "شارع الشيخ زايد",
        "amenity": "bar",
        "name:en": "The Hungry Monkey",
        "phone": "+971 50 707 5307"
      }
    },
    {
      "type": "node",
      "id": 7200026468,
      "lat": 25.2424157,
      "lon": 55.298115,
      "timestamp": "2021-03-20T11:18:08Z",
      "version": 6,
      "changeset": 101382752,
      "user": "Orionist",
      "uid": 1308582,
      "tags": {
        "amenity": "bar",
        "contact:email": "jpajith9@gmail.com",
        "contact:phone": "+971 4 334 8777",
        "contact:website": "https://fortunegroupofhotels.com/",
        "name": "Chandini South Indian",
        "opening_hours": "Mo-Su 16:00-01:00",
        "operator": "Chandini South Indian"
      }
    },
    {
      "type": "node",
      "id": 7247059288,
      "lat": 25.8139511,
      "lon": 55.9594454,
      "timestamp": "2020-04-01T16:02:55Z",
      "version": 2,
      "changeset": 82934043,
      "user": "Arslan Tahir Mian",
      "uid": 10968160,
      "tags": {
        "amenity": "pub",
        "cuisine": "german;sandwich;polish",
        "name:en": "Czech Pub"
      }
    },
    {
      "type": "node",
      "id": 7309250328,
      "lat": 25.230003,
      "lon": 55.2870108,
      "timestamp": "2023-05-19T13:05:32Z",
      "version": 5,
      "changeset": 136299532,
      "user": "Gurusraouta",
      "uid": 18913526,
      "tags": {
        "addr:city": "دبي",
        "addr:city:ar": "دبي",
        "addr:city:en": "Dubai",
        "addr:city:ur": "دبئی",
        "addr:housenumber": "40",
        "amenity": "bar",
        "contact:email": "shola.medupin@enishdubai.com",
        "contact:facebook": "https://facebook.com/EnishRestaurantDubai",
        "contact:instagram": "https://instagram.com/enish_dubai",
        "contact:phone": "+971 54 998 5860",
        "contact:website": "https://www.enishdubai.com/",
        "cuisine": "african",
        "name": "Enish Nigerian Restaurant & Lounge",
        "opening_hours": "Mo-Su 07:30-03:00",
        "operator": "Enish Nigerian Restaurant & Lounge"
      }
    },
    {
      "type": "node",
      "id": 7401659585,
      "lat": 27.6029434,
      "lon": 54.3209782,
      "timestamp": "2020-04-14T10:51:35Z",
      "version": 1,
      "changeset": 83529150,
      "user": "Abdolaziz",
      "uid": 10440380,
      "tags": {
        "amenity": "bar"
      }
    },
    {
      "type": "node",
      "id": 7614457985,
      "lat": 24.3817264,
      "lon": 54.5119306,
      "timestamp": "2020-06-12T07:29:50Z",
      "version": 1,
      "changeset": 86550933,
      "user": "Hjri",
      "uid": 11334377,
      "tags": {
        "amenity": "pub"
      }
    },
    {
      "type": "node",
      "id": 7717724185,
      "lat": 25.3864569,
      "lon": 51.4394374,
      "timestamp": "2020-07-15T19:50:17Z",
      "version": 1,
      "changeset": 88049379,
      "user": "Kamish",
      "uid": 9087534,
      "tags": {
        "amenity": "pub",
        "name:en": "Doha festival City"
      }
    },
    {
      "type": "node",
      "id": 7898925885,
      "lat": 25.12053,
      "lon": 55.1540984,
      "timestamp": "2020-09-11T23:02:13Z",
      "version": 1,
      "changeset": 90780075,
      "user": "Tra Um",
      "uid": 11801236,
      "tags": {
        "amenity": "bar",
        "name:de": "Nomade Beach Club"
      }
    },
    {
      "type": "node",
      "id": 7898925985,
      "lat": 25.1067999,
      "lon": 55.151003,
      "timestamp": "2020-09-11T23:02:13Z",
      "version": 1,
      "changeset": 90780075,
      "user": "Tra Um",
      "uid": 11801236,
      "tags": {
        "amenity": "bar",
        "name:de": "Riva Beach Club"
      }
    },
    {
      "type": "node",
      "id": 8327606944,
      "lat": 25.037501,
      "lon": 55.184192,
      "timestamp": "2021-02-04T09:20:53Z",
      "version": 2,
      "changeset": 98693430,
      "user": "kate_rocketdata",
      "uid": 12100948,
      "tags": {
        "amenity": "bar",
        "contact:facebook": "https://facebook.com/ChampsSportsDxb",
        "contact:phone": "+971 4 246 4500",
        "name": "Champs Sports Bar",
        "opening_hours": "Mo-Su 14:00-00:00",
        "operator": "Champs Sports Bar"
      }
    },
    {
      "type": "node",
      "id": 8346315174,
      "lat": 27.8257536,
      "lon": 52.3448355,
      "timestamp": "2023-09-09T17:07:55Z",
      "version": 2,
      "changeset": 141032932,
      "user": "Mateusz Konieczny - bot account",
      "uid": 3199858,
      "tags": {
        "amenity": "biergarten",
        "name": "سردخانه بهشت"
      }
    },
    {
      "type": "node",
      "id": 8349291171,
      "lat": 27.7990242,
      "lon": 52.3422399,
      "timestamp": "2023-09-09T17:07:57Z",
      "version": 2,
      "changeset": 141032932,
      "user": "Mateusz Konieczny - bot account",
      "uid": 3199858,
      "tags": {
        "amenity": "pub",
        "name": "ویلای استاد علیرضا اکسیر"
      }
    },
    {
      "type": "node",
      "id": 8393346231,
      "lat": 25.037474,
      "lon": 55.184609,
      "timestamp": "2021-02-04T09:21:31Z",
      "version": 1,
      "changeset": 98693475,
      "user": "kate_rocketdata",
      "uid": 12100948,
      "tags": {
        "amenity": "bar",
        "contact:email": "dubaiproductioncity.fbm@occidentalhotels.com",
        "contact:phone": "+971 4 246 4500",
        "name": "Stage Sky Lounge & Pool",
        "opening_hours": "Fr 13:00-01:00;Mo-Th,Sa-Su 18:00-01:00",
        "operator": "Stage Sky Lounge & Pool"
      }
    },
    {
      "type": "node",
      "id": 8417327671,
      "lat": 25.2141147,
      "lon": 55.2760967,
      "timestamp": "2024-04-07T21:29:46Z",
      "version": 3,
      "changeset": 149710627,
      "user": "Neonkaaaaa",
      "uid": 9660877,
      "tags": {
        "amenity": "pub",
        "indoor_seating": "yes",
        "name": "Charlie's Pub",
        "outdoor_seating": "no"
      }
    },
    {
      "type": "node",
      "id": 8423934528,
      "lat": 25.2371709,
      "lon": 55.27466,
      "timestamp": "2025-05-15T22:29:22Z",
      "version": 3,
      "changeset": 166325688,
      "user": "Neonkaaaaa",
      "uid": 9660877,
      "tags": {
        "amenity": "bar",
        "indoor_seating": "yes",
        "name": "The Boston Bar",
        "outdoor_seating": "no"
      }
    },
    {
      "type": "node",
      "id": 8564436097,
      "lat": 25.2338553,
      "lon": 55.3119185,
      "timestamp": "2023-01-04T06:44:13Z",
      "version": 2,
      "changeset": 130852918,
      "user": "HalawaValley",
      "uid": 17826016,
      "tags": {
        "amenity": "bar",
        "brewery": "yes",
        "internet_access": "wlan",
        "name": "Somerset's"
      }
    },
    {
      "type": "node",
      "id": 8564436102,
      "lat": 25.2336895,
      "lon": 55.3117274,
      "timestamp": "2023-01-04T06:44:13Z",
      "version": 2,
      "changeset": 130852918,
      "user": "HalawaValley",
      "uid": 17826016,
      "tags": {
        "amenity": "bar",
        "name": "PoolHouse OUtdoor Pool Bar"
      }
    },
    {
      "type": "node",
      "id": 8585102458,
      "lat": 25.1155814,
      "lon": 55.1938181,
      "timestamp": "2021-04-02T06:33:03Z",
      "version": 1,
      "changeset": 102166625,
      "user": "Orionist",
      "uid": 1308582,
      "tags": {
        "amenity": "bar",
        "name": "Oro Lounge"
      }
    },
    {
      "type": "node",
      "id": 8585102460,
      "lat": 25.1159153,
      "lon": 55.1944565,
      "timestamp": "2023-02-01T05:57:16Z",
      "version": 2,
      "changeset": 131947832,
      "user": "LakeBato",
      "uid": 18064678,
      "tags": {
        "amenity": "bar",
        "name": "Bodega Garage"
      }
    },
    {
      "type": "node",
      "id": 8585102462,
      "lat": 25.1164229,
      "lon": 55.1940796,
      "timestamp": "2023-02-01T05:57:16Z",
      "version": 2,
      "changeset": 131947832,
      "user": "LakeBato",
      "uid": 18064678,
      "tags": {
        "amenity": "bar",
        "brewery": "yes",
        "name": "The Q"
      }
    },
    {
      "type": "node",
      "id": 8589946752,
      "lat": 25.1142126,
      "lon": 55.202188,
      "timestamp": "2023-01-24T08:45:09Z",
      "version": 2,
      "changeset": 131639961,
      "user": "IrtyshRiver",
      "uid": 18064741,
      "tags": {
        "amenity": "pub",
        "name": "The Stag"
      }
    },
    {
      "type": "node",
      "id": 8593474380,
      "lat": 25.1153863,
      "lon": 55.2037334,
      "timestamp": "2023-01-17T05:05:15Z",
      "version": 2,
      "changeset": 131361499,
      "user": "BavarianPlateau",
      "uid": 18064715,
      "tags": {
        "amenity": "pub",
        "name": "The Huddle Sports Bar & Grill"
      }
    },
    {
      "type": "node",
      "id": 8593474381,
      "lat": 25.1153401,
      "lon": 55.203956,
      "timestamp": "2023-01-17T05:05:15Z",
      "version": 2,
      "changeset": 131361499,
      "user": "BavarianPlateau",
      "uid": 18064715,
      "tags": {
        "amenity": "bar",
        "name": "Maxx Music Bar"
      }
    },
    {
      "type": "node",
      "id": 8598535392,
      "lat": 25.0965648,
      "lon": 55.1739002,
      "timestamp": "2021-04-06T09:45:51Z",
      "version": 1,
      "changeset": 102394848,
      "user": "Orionist",
      "uid": 1308582,
      "tags": {
        "amenity": "bar",
        "name": "The Clavichord Music Lounge"
      }
    },
    {
      "type": "node",
      "id": 8601100442,
      "lat": 25.0974289,
      "lon": 55.1734208,
      "timestamp": "2021-04-07T05:01:46Z",
      "version": 1,
      "changeset": 102445815,
      "user": "Orionist",
      "uid": 1308582,
      "tags": {
        "amenity": "pub",
        "brewery": "yes",
        "name": "Crown & Lion"
      }
    },
    {
      "type": "node",
      "id": 8604522851,
      "lat": 25.0966216,
      "lon": 55.1723873,
      "timestamp": "2021-04-08T04:35:18Z",
      "version": 2,
      "changeset": 102520492,
      "user": "Orionist",
      "uid": 1308582,
      "tags": {
        "amenity": "bar",
        "name": "Waves Pool Lounge"
      }
    },
    {
      "type": "node",
      "id": 8626717372,
      "lat": 25.1013365,
      "lon": 55.177392,
      "timestamp": "2023-02-09T06:52:26Z",
      "version": 2,
      "changeset": 132290012,
      "user": "HalawaValley",
      "uid": 17826016,
      "tags": {
        "amenity": "bar",
        "brewery": "yes",
        "level": "0",
        "name": "Belgian Beer Cafe"
      }
    },
    {
      "type": "node",
      "id": 8651762060,
      "lat": 25.0998473,
      "lon": 55.1797729,
      "timestamp": "2023-02-13T05:36:18Z",
      "version": 2,
      "changeset": 132471739,
      "user": "HalawaValley",
      "uid": 17826016,
      "tags": {
        "amenity": "bar",
        "outdoor_seating": "yes"
      }
    },
    {
      "type": "node",
      "id": 8651762061,
      "lat": 25.1000526,
      "lon": 55.1795314,
      "timestamp": "2023-02-13T05:36:18Z",
      "version": 2,
      "changeset": 132471739,
      "user": "HalawaValley",
      "uid": 17826016,
      "tags": {
        "amenity": "bar",
        "name": "Nelson's"
      }
    },
    {
      "type": "node",
      "id": 8757968617,
      "lat": 24.3239946,
      "lon": 54.536006,
      "timestamp": "2021-05-23T14:45:06Z",
      "version": 1,
      "changeset": 105169375,
      "user": "Vinay Jose",
      "uid": 4894580,
      "tags": {
        "amenity": "bar",
        "name:en": "Peninsula"
      }
    },
    {
      "type": "node",
      "id": 8856144289,
      "lat": 25.2107308,
      "lon": 55.2819798,
      "timestamp": "2024-01-01T21:02:40Z",
      "version": 10,
      "changeset": 145775858,
      "user": "Neonkaaaaa",
      "uid": 9660877,
      "tags": {
        "addr:city": "دبي",
        "addr:city:ar": "دبي",
        "addr:city:en": "Dubai",
        "addr:city:ur": "دبئی",
        "addr:street": "Al Mustaqbal St",
        "air_conditioning": "yes",
        "amenity": "bar",
        "contact:facebook": "https://www.facebook.com/StTrop.DIFC/",
        "contact:instagram": "https://www.instagram.com/sttrop.difc/",
        "contact:phone": "+971 4 515 9800",
        "email": "sttrop.difc@waldorfastoria.com",
        "indoor_seating": "yes",
        "name": "St. Trop",
        "opening_hours": "Sa-We 10:00-24:00; Th,Fr 11:00-24:00",
        "outdoor_seating": "no",
        "payment:credit_cards": "yes",
        "payment:debit_cards": "yes",
        "smoking": "no",
        "website": "https://www.hilton.com/en/hotels/dxbwawa-waldorf-astoria-dubai-international-financial-centre/dining/",
        "wheelchair": "yes"
      }
    },
    {
      "type": "node",
      "id": 8856150266,
      "lat": 25.2109945,
      "lon": 55.2818325,
      "timestamp": "2025-03-19T14:55:51Z",
      "version": 9,
      "changeset": 163821461,
      "user": "Hilton Hotels",
      "uid": 1915697,
      "tags": {
        "addr:city": "دبي",
        "addr:city:ar": "دبي",
        "addr:city:en": "Dubai",
        "addr:city:ur": "دبئی",
        "addr:street": "Al Mustaqbal St",
        "air_conditioning": "yes",
        "amenity": "bar",
        "contact:website": "https://peacockalleydifc.com",
        "indoor_seating": "yes",
        "name": "Peacock Alley DIFC",
        "opening_hours": "Mo-Fr 08:00-00:00 Sa-Su 09:00-00:00",
        "outdoor_seating": "no",
        "payment:credit_cards": "yes",
        "payment:debit_cards": "yes",
        "phone": "+971 58 600 6772",
        "smoking": "separated",
        "wheelchair": "no"
      }
    },
    {
      "type": "node",
      "id": 8883912937,
      "lat": 25.1039904,
      "lon": 55.148789,
      "timestamp": "2024-01-13T12:54:24Z",
      "version": 2,
      "changeset": 146213379,
      "user": "Neonkaaaaa",
      "uid": 9660877,
      "tags": {
        "amenity": "bar",
        "indoor_seating": "yes",
        "name": "Above 21",
        "outdoor_seating": "no"
      }
    },
    {
      "type": "node",
      "id": 8883912939,
      "lat": 25.1043507,
      "lon": 55.1483739,
      "timestamp": "2021-07-01T20:42:17Z",
      "version": 1,
      "changeset": 107279081,
      "user": "rikardojfernandez",
      "uid": 6549800,
      "tags": {
        "amenity": "bar",
        "name": "Roar"
      }
    },
    {
      "type": "node",
      "id": 8883912948,
      "lat": 25.1040974,
      "lon": 55.1488216,
      "timestamp": "2021-07-01T20:42:17Z",
      "version": 1,
      "changeset": 107279081,
      "user": "rikardojfernandez",
      "uid": 6549800,
      "tags": {
        "amenity": "bar",
        "name": "The Penthouse"
      }
    },
    {
      "type": "node",
      "id": 9042427670,
      "lat": 25.2317586,
      "lon": 55.2596781,
      "timestamp": "2021-08-28T08:15:15Z",
      "version": 1,
      "changeset": 110370317,
      "user": "thetornado76",
      "uid": 1624486,
      "tags": {
        "amenity": "bar",
        "name": "Smoky Beach"
      }
    },
    {
      "type": "node",
      "id": 9047304462,
      "lat": 25.2180135,
      "lon": 55.3227095,
      "timestamp": "2023-01-03T11:30:12Z",
      "version": 2,
      "changeset": 130822211,
      "user": "CaluequeDam",
      "uid": 16528248,
      "tags": {
        "amenity": "bar",
        "contact:phone": "+971 4 596 9999",
        "name": "Stage Pool Lounge",
        "opening_hours": "Mo-Su 10:30-01:00",
        "operator": "Stage Pool Lounge"
      }
    },
    {
      "type": "node",
      "id": 9077396989,
      "lat": 25.2260638,
      "lon": 55.2556651,
      "timestamp": "2021-09-09T17:56:44Z",
      "version": 1,
      "changeset": 110988825,
      "user": "thetornado76",
      "uid": 1624486,
      "tags": {
        "amenity": "bar",
        "name": "Kaftan"
      }
    },
    {
      "type": "node",
      "id": 9211747103,
      "lat": 24.4523932,
      "lon": 54.3360854,
      "timestamp": "2021-10-30T07:48:09Z",
      "version": 1,
      "changeset": 113150795,
      "user": "redleo85",
      "uid": 12016851,
      "tags": {
        "amenity": "bar",
        "name": "ANNEX Lounge & Nightclub",
        "opening_hours": "We 19:00-01:00,Th-Fr 19:00-04:00"
      }
    },
    {
      "type": "node",
      "id": 9299774195,
      "lat": 25.2761837,
      "lon": 51.49813,
      "timestamp": "2025-10-22T08:54:38Z",
      "version": 5,
      "changeset": 173616256,
      "user": "Hilton Hotels",
      "uid": 1915697,
      "tags": {
        "addr:city": "Doha",
        "addr:housenumber": "65",
        "addr:street": "Mohamed Bin Al Qassim St",
        "amenity": "bar",
        "amenity_1": "bar",
        "bar": "yes",
        "brewery": "yes",
        "contact:facebook": "https://www.facebook.com/bluterracedoha",
        "contact:instagram": "https://www.instagram.com/bluterracedoha",
        "name": "Blu Terrace",
        "name:en": "Blu Terrace",
        "phone": "+974 3359 3043",
        "website": "https://www.hilton.com/en/hotels/dohsadi-doubletree-doha-al-sadd/dining/"
      }
    },
    {
      "type": "node",
      "id": 9519241291,
      "lat": 25.3765838,
      "lon": 51.5492164,
      "timestamp": "2022-02-19T14:35:16Z",
      "version": 1,
      "changeset": 117606591,
      "user": "rocky24",
      "uid": 340404,
      "tags": {
        "amenity": "pub",
        "name": "Public House"
      }
    },
    {
      "type": "node",
      "id": 9547825486,
      "lat": 25.1915114,
      "lon": 55.2671191,
      "timestamp": "2025-01-23T15:46:32Z",
      "version": 7,
      "changeset": 161679622,
      "user": "Neonkaaaaa",
      "uid": 9660877,
      "tags": {
        "amenity": "bar",
        "indoor_seating": "yes",
        "min_age": "18",
        "opening_hours": "24/7",
        "outdoor_seating": "no",
        "payment:cash": "yes"
      }
    },
    {
      "type": "node",
      "id": 9575930017,
      "lat": 26.212575,
      "lon": 50.5916122,
      "timestamp": "2022-03-13T18:07:52Z",
      "version": 1,
      "changeset": 118440623,
      "user": "Daniel Seymour",
      "uid": 6314004,
      "tags": {
        "amenity": "bar",
        "name:en": "JJs Irish Bar"
      }
    },
    {
      "type": "node",
      "id": 9629567567,
      "lat": 24.4191889,
      "lon": 54.6453707,
      "timestamp": "2022-04-01T16:54:01Z",
      "version": 1,
      "changeset": 119210159,
      "user": "rene78",
      "uid": 257555,
      "tags": {
        "amenity": "bar",
        "bar": "sportsbar",
        "name": "Murphy's Sports Bar"
      }
    },
    {
      "type": "node",
      "id": 9739426242,
      "lat": 25.0259585,
      "lon": 55.1531064,
      "timestamp": "2024-03-31T17:10:11Z",
      "version": 7,
      "changeset": 149399815,
      "user": "Neonkaaaaa",
      "uid": 9660877,
      "tags": {
        "air_conditioning": "yes",
        "amenity": "pub",
        "indoor_seating": "yes",
        "name": "McCafferty's",
        "opening_hours": "Su-Th 10:00-00:00; Fr-Sa 10:00-02:00",
        "outdoor_seating": "no",
        "payment:credit_cards": "yes",
        "payment:debit_cards": "yes",
        "phone": "+971 4 422 1491",
        "smoking": "no",
        "theme": "irish",
        "toilets": "no",
        "website": "https://mccaffertysalfurjan.com/",
        "wheelchair": "limited"
      }
    },
    {
      "type": "node",
      "id": 9812540530,
      "lat": 25.0859585,
      "lon": 55.1439819,
      "timestamp": "2024-11-04T04:31:13Z",
      "version": 2,
      "changeset": 158725142,
      "user": "PelleV",
      "uid": 39463,
      "tags": {
        "addr:housename": "Grosvenor House",
        "amenity": "bar",
        "cuisine": "asian",
        "internet_access": "wlan",
        "name": "Buddha Bar",
        "name:en": "Buddha Bar",
        "opening_hours": "19:00+",
        "phone": "+971 43176000",
        "smoking": "no",
        "website": "https://www.buddhabar-dubai.com"
      }
    },
    {
      "type": "node",
      "id": 9835541049,
      "lat": 25.0970328,
      "lon": 55.1435729,
      "timestamp": "2022-06-21T09:07:52Z",
      "version": 1,
      "changeset": 122656043,
      "user": "rene78",
      "uid": 257555,
      "tags": {
        "amenity": "bar",
        "name": "Bar Du Port Dubai",
        "opening_hours": "Mo-We 17:00-02:00, Th,Fr 17:00-03:00, Sa 13:00-03:00, Su 16:00-02:00",
        "outdoor_seating": "yes",
        "phone": "+97143324868",
        "short_name": "BDP",
        "website": "https://www.barduportdubai.com/"
      }
    },
    {
      "type": "node",
      "id": 10102540979,
      "lat": 23.6173397,
      "lon": 58.4662077,
      "timestamp": "2023-10-20T15:42:47Z",
      "version": 3,
      "changeset": 142876532,
      "user": "Virtho",
      "uid": 9390897,
      "tags": {
        "air_conditioning": "yes",
        "amenity": "bar",
        "contact:facebook": "https://www.facebook.com/pages/category/Lounge/Siddhartaloungebybuddhabar/about/",
        "contact:instagram": "https://www.instagram.com/siddhartaloungemuscat/",
        "level": "6",
        "min_age": "18",
        "name": "Siddharta Lounge by Buddha-Bar",
        "opening_hours": "Mo,Sa,Su 12:30-24:00; Tu off, We 17:00-24:00; Th 17:00-01:00; Fr 12:30-01:00",
        "outdoor_seating": "yes",
        "phone": "+968 22 120033",
        "website": "https://www.siddhartaloungemuscat.com/"
      }
    },
    {
      "type": "node",
      "id": 10102620344,
      "lat": 23.6166121,
      "lon": 58.4661276,
      "timestamp": "2022-10-15T06:08:00Z",
      "version": 1,
      "changeset": 127555432,
      "user": "rene78",
      "uid": 257555,
      "tags": {
        "amenity": "bar",
        "name": "Living Room",
        "opening_hours": "18:00-02:00",
        "phone": "+968 22120036 6006",
        "website": "https://www.marriott.com/en-us/hotels/mctwh-w-muscat/dining/"
      }
    },
    {
      "type": "node",
      "id": 10559262600,
      "lat": 26.2235508,
      "lon": 50.6091085,
      "timestamp": "2024-10-22T06:04:26Z",
      "version": 5,
      "changeset": 158196390,
      "user": "Khan Azam",
      "uid": 73096,
      "tags": {
        "addr:city": "Bahrain",
        "addr:floor": "6th floor",
        "addr:postcode": "324",
        "addr:street": "Building 4672, Road 2468",
        "amenity": "bar",
        "cuisine": "casual_dining",
        "email": "Bahhh.dining@hilton.com",
        "internet_access": "wlan",
        "internet_access:fee": "no",
        "name": "Cocoluna Lounge",
        "opening_hours": "Mo-Su 13:00-02:00",
        "phone": "+973 3369 2013",
        "wheelchair": "yes"
      }
    },
    {
      "type": "node",
      "id": 10562282591,
      "lat": 26.2236337,
      "lon": 50.6090079,
      "timestamp": "2024-10-22T06:04:26Z",
      "version": 3,
      "changeset": 158196390,
      "user": "Khan Azam",
      "uid": 73096,
      "tags": {
        "addr:city": "Bahrain",
        "addr:floor": "44th floor",
        "addr:postcode": "324",
        "addr:street": "Building 4672, Road 2468",
        "amenity": "bar",
        "email": "bahhh_fb@hilton.com",
        "internet_access": "wlan",
        "internet_access:fee": "no",
        "name": "Block44Juffair",
        "opening_hours": "We-Fri 20:00-02:00",
        "phone": "+973 7701 0100",
        "wheelchair": "no"
      }
    },
    {
      "type": "node",
      "id": 10620458875,
      "lat": 25.6778106,
      "lon": 55.7406633,
      "timestamp": "2023-02-08T14:44:10Z",
      "version": 1,
      "changeset": 132260286,
      "user": "f1mishutka",
      "uid": 278075,
      "tags": {
        "amenity": "bar"
      }
    },
    {
      "type": "node",
      "id": 10721274651,
      "lat": 25.1058321,
      "lon": 55.1467845,
      "timestamp": "2024-01-12T17:12:23Z",
      "version": 8,
      "changeset": 146189130,
      "user": "Neonkaaaaa",
      "uid": 9660877,
      "tags": {
        "addr:city": "دبي",
        "addr:city:ar": "دبي",
        "addr:city:en": "Dubai",
        "addr:city:ur": "دبئی",
        "addr:street": "Palm Jumeirah Road",
        "air_conditioning": "yes",
        "amenity": "bar",
        "contact:instagram": "https://www.instagram.com/mcgettigansfactorythepalm/",
        "indoor_seating": "yes",
        "name": "McGettigan's Factory - The Palm",
        "opening_hours": "Mo-Su 16:00-03:00",
        "outdoor_seating": "yes",
        "payment:credit_cards": "yes",
        "payment:debit_cards": "yes",
        "phone": "+971 4 230 0062",
        "smoking": "no",
        "website": "https://www.factorythepalm.com/",
        "wheelchair": "yes"
      }
    },
    {
      "type": "node",
      "id": 10836568405,
      "lat": 23.6061715,
      "lon": 58.1283834,
      "timestamp": "2023-04-24T08:16:38Z",
      "version": 1,
      "changeset": 135290286,
      "user": "Tonimu",
      "uid": 11639766,
      "tags": {
        "amenity": "bar",
        "name:it": "kharak aldar"
      }
    },
    {
      "type": "node",
      "id": 10836568406,
      "lat": 23.6037467,
      "lon": 58.1282708,
      "timestamp": "2023-04-24T08:18:07Z",
      "version": 1,
      "changeset": 135290345,
      "user": "Tonimu",
      "uid": 11639766,
      "tags": {
        "amenity": "bar",
        "name:it": "kharak aldar"
      }
    },
    {
      "type": "node",
      "id": 11012023707,
      "lat": 26.2163597,
      "lon": 50.595967,
      "timestamp": "2023-06-28T09:58:59Z",
      "version": 1,
      "changeset": 137871199,
      "user": "Chdoula",
      "uid": 54304,
      "tags": {
        "amenity": "bar"
      }
    },
    {
      "type": "node",
      "id": 11021712662,
      "lat": 25.2758438,
      "lon": 51.4981693,
      "timestamp": "2023-07-03T08:49:59Z",
      "version": 1,
      "changeset": 138054113,
      "user": "Hilton Hotels",
      "uid": 1915697,
      "tags": {
        "addr:city": "Doha",
        "addr:housenumber": "65",
        "addr:street": "Mohamed Bin Al Qassim St",
        "air_conditioning": "yes",
        "amenity": "bar",
        "brewery": "yes;various",
        "contact:facebook": "https://www.facebook.com/StrEATcultureQA",
        "contact:instagram": "https://www.instagram.com/streatculture/",
        "cuisine": "street food",
        "diet:gluten_free": "yes",
        "diet:lactose_free": "yes",
        "diet:vegan": "yes",
        "diet:vegetarian": "yes",
        "drink:beer": "yes",
        "drink:wine": "yes",
        "email": "hello@streatculturedoha.com",
        "name": "StrEAT Culture",
        "opening_hours": "Mo-Su 12:30-02:00",
        "operator": "Hilton",
        "phone": "+974 3345 0981",
        "website": "https://streatculturedoha.com/"
      }
    },
    {
      "type": "node",
      "id": 11057698505,
      "lat": 25.1858336,
      "lon": 55.2580008,
      "timestamp": "2023-07-21T00:00:41Z",
      "version": 1,
      "changeset": 138788133,
      "user": "Omnific",
      "uid": 1408522,
      "tags": {
        "amenity": "bar",
        "name": "The Vault Bar"
      }
    },
    {
      "type": "node",
      "id": 11057698605,
      "lat": 25.0897748,
      "lon": 55.1523768,
      "timestamp": "2023-07-21T00:00:43Z",
      "version": 1,
      "changeset": 138788133,
      "user": "Omnific",
      "uid": 1408522,
      "tags": {
        "amenity": "bar",
        "name": "Mr. Miyagi's"
      }
    },
    {
      "type": "node",
      "id": 11057698705,
      "lat": 25.0739302,
      "lon": 55.1303549,
      "timestamp": "2025-07-27T09:36:44Z",
      "version": 2,
      "changeset": 169547361,
      "user": "Philippe0607",
      "uid": 23132883,
      "tags": {
        "amenity": "pub",
        "name": "JB Gastropub",
        "smoking": "separated"
      }
    },
    {
      "type": "node",
      "id": 11058983705,
      "lat": 25.185493,
      "lon": 55.2579004,
      "timestamp": "2023-07-21T09:16:58Z",
      "version": 1,
      "changeset": 138802677,
      "user": "Omnific",
      "uid": 1408522,
      "tags": {
        "amenity": "pub",
        "name": "Bridgewater Tavern"
      }
    },
    {
      "type": "node",
      "id": 11163348026,
      "lat": 25.0797296,
      "lon": 55.1502142,
      "timestamp": "2024-02-03T08:04:24Z",
      "version": 2,
      "changeset": 147010651,
      "user": "Neonkaaaaa",
      "uid": 9660877,
      "tags": {
        "amenity": "pub",
        "indoor_seating": "yes",
        "level": "-1",
        "name": "The Black Sheep",
        "outdoor_seating": "no",
        "wheelchair": "no"
      }
    },
    {
      "type": "node",
      "id": 11342904195,
      "lat": 25.2301804,
      "lon": 55.2872314,
      "timestamp": "2023-11-12T08:10:27Z",
      "version": 1,
      "changeset": 143923909,
      "user": "MiMoHo",
      "uid": 4115745,
      "tags": {
        "amenity": "bar",
        "description": "The H-Hotel Complex, B01",
        "name": "Satoshi House",
        "opening_hours": "Tu-Su 21:00-03:30",
        "phone": "+971 50 8597796",
        "website": "https://www.satoshihouse.com"
      }
    },
    {
      "type": "node",
      "id": 11373819239,
      "lat": 29.8233782,
      "lon": 52.3978301,
      "timestamp": "2023-11-24T16:20:50Z",
      "version": 1,
      "changeset": 144414349,
      "user": "ariavash",
      "uid": 16888876,
      "tags": {
        "addr:city": "شیراز گویم",
        "addr:housenumber": "1",
        "addr:street": "جمهوری",
        "amenity": "bar",
        "name": "تخمه سنتی حسین",
        "opening_hours": "Mo-Su 09:00-21:00"
      }
    },
    {
      "type": "node",
      "id": 11756440432,
      "lat": 25.2429665,
      "lon": 55.359082,
      "timestamp": "2024-03-23T19:07:07Z",
      "version": 1,
      "changeset": 149064151,
      "user": "DanielFig",
      "uid": 8246041,
      "tags": {
        "amenity": "pub",
        "name": "Mr Toads Pub & Kitchen"
      }
    },
    {
      "type": "node",
      "id": 11756459226,
      "lat": 25.2426409,
      "lon": 55.3596671,
      "timestamp": "2024-03-23T19:07:08Z",
      "version": 1,
      "changeset": 149064151,
      "user": "DanielFig",
      "uid": 8246041,
      "tags": {
        "amenity": "pub",
        "name": "The Brick Wall Sports Bar"
      }
    },
    {
      "type": "node",
      "id": 11769348769,
      "lat": 25.0793659,
      "lon": 55.1509149,
      "timestamp": "2024-03-28T16:52:41Z",
      "version": 9,
      "changeset": 149279054,
      "user": "Neonkaaaaa",
      "uid": 9660877,
      "tags": {
        "air_conditioning": "yes",
        "amenity": "bar",
        "indoor_seating": "yes",
        "name": "Buffalo Wings & Rings JLT",
        "opening_hours": "Mo-Su,PH 00:00-01:00",
        "outdoor_seating": "no",
        "payment:credit_cards": "yes",
        "payment:debit_cards": "yes",
        "smoking": "no",
        "toilets": "yes",
        "toilets:wheelchair": "limited",
        "wheelchair": "limited"
      }
    },
    {
      "type": "node",
      "id": 11821250273,
      "lat": 25.2302855,
      "lon": 55.2871364,
      "timestamp": "2024-04-16T07:25:39Z",
      "version": 1,
      "changeset": 150069974,
      "user": "Traveler00502",
      "uid": 18836518,
      "tags": {
        "amenity": "bar",
        "name:en": "Electric pawn shop"
      }
    },
    {
      "type": "node",
      "id": 11854285198,
      "lat": 24.465102,
      "lon": 54.3267871,
      "timestamp": "2024-04-27T12:39:11Z",
      "version": 1,
      "changeset": 150578044,
      "user": "John Carl",
      "uid": 7048641,
      "tags": {
        "amenity": "bar",
        "name": "Vertigo"
      }
    },
    {
      "type": "node",
      "id": 11942119825,
      "lat": 24.4582381,
      "lon": 54.3222576,
      "timestamp": "2025-01-02T10:12:55Z",
      "version": 7,
      "changeset": 160899901,
      "user": "Neonkaaaaa",
      "uid": 9660877,
      "tags": {
        "addr:city": "أبو ظبي",
        "addr:postcode": "20001",
        "addr:street": "شارع الملك عبدالله بن عبدالعزيز آل سعود",
        "air_conditioning": "yes",
        "alcohol": "yes",
        "amenity": "bar",
        "contact:instagram": "https://www.instagram.com/raysbarabudhabi/",
        "indoor_seating": "yes",
        "name": "Ray's Bar",
        "opening_hours": "Su-We 18:00-01:00; Th-Fr 18:00-02:00; Sa 4:30-02:00",
        "outdoor_seating": "no",
        "payment:credit_cards": "yes",
        "payment:debit_cards": "yes",
        "smoking": "no",
        "toilets": "no",
        "website": "https://www.hilton.com/en/hotels/auhetci-conrad-abu-dhabi-etihad-towers/dining/rays-bar/",
        "wheelchair": "limited"
      }
    },
    {
      "type": "node",
      "id": 12035306352,
      "lat": 26.2399486,
      "lon": 50.5381543,
      "timestamp": "2024-07-05T08:01:17Z",
      "version": 1,
      "changeset": 153576303,
      "user": "Social Monkey",
      "uid": 21724540,
      "tags": {
        "addr:city": "Seef",
        "addr:housenumber": "600",
        "addr:postcode": "428",
        "addr:street": "Road 2808",
        "amenity": "bar",
        "min_age": "21",
        "name": "Blu Club Lounge",
        "opening_hours": "mo-su 18:00-03:00"
      }
    },
    {
      "type": "node",
      "id": 12076445769,
      "lat": 25.2083289,
      "lon": 55.2764411,
      "timestamp": "2024-07-27T06:31:50Z",
      "version": 1,
      "changeset": 154469058,
      "user": "Alistair Podgers",
      "uid": 9146703,
      "tags": {
        "amenity": "pub",
        "name": "British Pub"
      }
    },
    {
      "type": "node",
      "id": 12245768901,
      "lat": 24.5674042,
      "lon": 54.4581507,
      "timestamp": "2024-10-12T06:02:40Z",
      "version": 1,
      "changeset": 157780657,
      "user": "Pavel_Pushkin",
      "uid": 22058084,
      "tags": {
        "addr:postcode": "00000",
        "addr:street": "شارع الضباء",
        "amenity": "bar",
        "name": "Sunset Residences SS1"
      }
    },
    {
      "type": "node",
      "id": 12246782601,
      "lat": 25.395308,
      "lon": 51.5242026,
      "timestamp": "2024-10-12T18:15:09Z",
      "version": 1,
      "changeset": 157808152,
      "user": "Makedonskiiii",
      "uid": 22059084,
      "tags": {
        "amenity": "bar",
        "internet_access": "wlan",
        "name": "Beefbar"
      }
    },
    {
      "type": "node",
      "id": 12247103601,
      "lat": 25.3886846,
      "lon": 51.5303337,
      "timestamp": "2024-10-12T20:54:13Z",
      "version": 1,
      "changeset": 157812785,
      "user": "Makedonskiiii",
      "uid": 22059084,
      "tags": {
        "amenity": "bar",
        "level": "33"
      }
    },
    {
      "type": "node",
      "id": 12247748001,
      "lat": 25.3287335,
      "lon": 51.5361962,
      "timestamp": "2024-10-13T07:08:39Z",
      "version": 1,
      "changeset": 157821770,
      "user": "Makedonskiiii",
      "uid": 22059084,
      "tags": {
        "amenity": "bar",
        "internet_access": "wlan",
        "level": "32",
        "name": "IrishBar (паб со спортивной тематикой)"
      }
    },
    {
      "type": "node",
      "id": 12311152181,
      "lat": 25.0863475,
      "lon": 55.1436004,
      "timestamp": "2024-11-04T04:31:13Z",
      "version": 1,
      "changeset": 158725142,
      "user": "PelleV",
      "uid": 39463,
      "tags": {
        "addr:housename": "Grosvenor House",
        "amenity": "bar",
        "name": "City Social"
      }
    },
    {
      "type": "node",
      "id": 12313200777,
      "lat": 25.097593,
      "lon": 55.1736538,
      "timestamp": "2024-11-05T03:31:30Z",
      "version": 1,
      "changeset": 158763172,
      "user": "PelleV",
      "uid": 39463,
      "tags": {
        "addr:housename": "Social Hotel",
        "amenity": "pub",
        "name": "Fibber Magee’s",
        "theme": "irish"
      }
    },
    {
      "type": "node",
      "id": 12318154295,
      "lat": 25.0907191,
      "lon": 55.1276752,
      "timestamp": "2024-11-06T10:15:26Z",
      "version": 1,
      "changeset": 158810929,
      "user": "axel007",
      "uid": 85007,
      "tags": {
        "amenity": "bar",
        "name": "Be Beach DXB",
        "website": "https://www.bebeachdxb.com/"
      }
    },
    {
      "type": "node",
      "id": 12334230346,
      "lat": 24.4891048,
      "lon": 54.3681994,
      "timestamp": "2024-11-12T10:15:10Z",
      "version": 1,
      "changeset": 159043462,
      "user": "John Carl",
      "uid": 7048641,
      "tags": {
        "amenity": "bar",
        "name": "Emjay Bar"
      }
    },
    {
      "type": "node",
      "id": 12669900676,
      "lat": 29.596121,
      "lon": 52.5485726,
      "timestamp": "2025-03-16T11:45:17Z",
      "version": 1,
      "changeset": 163684846,
      "user": "Dj Meysam",
      "uid": 22624335,
      "tags": {
        "amenity": "pub",
        "name": "کاوه تقطیر"
      }
    },
    {
      "type": "node",
      "id": 12676286001,
      "lat": 25.1840325,
      "lon": 55.2558857,
      "timestamp": "2025-03-18T11:50:25Z",
      "version": 1,
      "changeset": 163771076,
      "user": "TIMELESS Dubai",
      "uid": 22644137,
      "tags": {
        "addr:street": "Meera Tower, Business Bay",
        "amenity": "bar",
        "name:en": "TIMELESS Luxury Lounge",
        "name:ru": "TIMELESS Luxury Lounge",
        "website": "https://timeless.club/"
      }
    },
    {
      "type": "node",
      "id": 12690224698,
      "lat": 25.2271975,
      "lon": 55.257223,
      "timestamp": "2025-03-22T06:16:06Z",
      "version": 1,
      "changeset": 163933104,
      "user": "rene78",
      "uid": 257555,
      "tags": {
        "amenity": "bar",
        "name": "Ninive Beach Dubai"
      }
    },
    {
      "type": "node",
      "id": 12820735545,
      "lat": 26.2156931,
      "lon": 50.5922844,
      "timestamp": "2025-05-08T17:00:04Z",
      "version": 1,
      "changeset": 165994180,
      "user": "Dave Stanley",
      "uid": 111410,
      "tags": {
        "amenity": "bar",
        "name": "The Tavern Eatery and Hobbies"
      }
    },
    {
      "type": "node",
      "id": 12825990787,
      "lat": 26.2140888,
      "lon": 50.5994193,
      "timestamp": "2025-05-10T14:57:28Z",
      "version": 1,
      "changeset": 166073335,
      "user": "Dave Stanley",
      "uid": 111410,
      "tags": {
        "amenity": "bar",
        "name": "Terrace@28"
      }
    },
    {
      "type": "node",
      "id": 12948934990,
      "lat": 25.0786474,
      "lon": 55.1344751,
      "timestamp": "2025-07-25T09:41:56Z",
      "version": 2,
      "changeset": 169443230,
      "user": "onovy",
      "uid": 27052,
      "tags": {
        "addr:city": "Dubai",
        "addr:street": "The Walk at Jumeirah Beach Residence",
        "amenity": "pub",
        "brewery": "various;guiness;kilkenny;magners;peroni;moretti_birra;hoegaarden;asahi;artois_stella;tiger;amstel;corona;weissbrau_erdinger;budweiser;heineken",
        "contact:facebook": "https://www.facebook.com/McGettigansJBR",
        "contact:instagram": "https://www.instagram.com/mcgettigansjbr/",
        "contact:twitter": "https://x.com/mcgettigansjbr",
        "name": "McGettigan's JBR",
        "opening_hours": "Mon-Thu 12:30 - 02:00  Friday 12:30 - 03:00 Sat 10:00 - 03:00 Sun 10:00 - 02:00",
        "phone": "+971 4 318 2319",
        "theme": "irish",
        "website": "https://www.jbr-restaurants.com/mcgettigans-jbr",
        "wikidata": "Q135047247"
      }
    },
    {
      "type": "node",
      "id": 13028001533,
      "lat": 25.0742041,
      "lon": 55.128039,
      "timestamp": "2025-07-27T08:34:59Z",
      "version": 1,
      "changeset": 169544477,
      "user": "Philippe0607",
      "uid": 23132883,
      "tags": {
        "amenity": "bar",
        "name": "Bliss Lounge",
        "opening_hours": "Mo-Su 18:00-03:00",
        "outdoor_seating": "yes"
      }
    },
    {
      "type": "node",
      "id": 13070218121,
      "lat": 25.0730537,
      "lon": 55.13062,
      "timestamp": "2025-08-14T05:09:22Z",
      "version": 1,
      "changeset": 170416919,
      "user": "Philippe0607",
      "uid": 23132883,
      "tags": {
        "amenity": "pub",
        "name": "Offside",
        "opening_hours": "Mo-Su 16:00-02:00",
        "smoking": "outside"
      }
    },
    {
      "type": "way",
      "id": 62103707,
      "timestamp": "2021-11-29T15:20:43Z",
      "version": 5,
      "changeset": 114365649,
      "user": "Puntertje",
      "uid": 11497255,
      "center": {
        "lat": 26.2456078,
        "lon": 50.5382141
      },
      "nodes": [
        774462803,
        774462804,
        9293694031,
        9293694032,
        9293694033,
        9293694034,
        9293694035,
        9293694036,
        774462805,
        774462807,
        774462808,
        774462810,
        774462811,
        774462812,
        9293694037,
        9293694038,
        774462813,
        774462814,
        774462803
      ],
      "tags": {
        "amenity": "pub",
        "building": "yes",
        "cuisine": "international",
        "name": "Trader Vic's",
        "name:en": "Trader Vic's",
        "phone": "+97317586555"
      }
    },
    {
      "type": "way",
      "id": 136713761,
      "timestamp": "2018-02-21T07:28:33Z",
      "version": 5,
      "changeset": 56540992,
      "user": "Rotilom",
      "uid": 6853562,
      "center": {
        "lat": 25.7397526,
        "lon": 55.8864291
      },
      "nodes": [
        1499899607,
        1499899609,
        4464532826,
        1499899610,
        1499899608,
        1499899611,
        1499899612,
        1499899607
      ],
      "tags": {
        "amenity": "bar",
        "building": "yes",
        "internet_access": "wlan",
        "internet_access:fee": "yes",
        "level": "0",
        "name": "Beach Bar Breakers",
        "name:en": "Beach Bar Breakers",
        "outdoor_seating": "yes"
      }
    },
    {
      "type": "way",
      "id": 136729385,
      "timestamp": "2018-02-21T07:28:33Z",
      "version": 4,
      "changeset": 56540992,
      "user": "Rotilom",
      "uid": 6853562,
      "center": {
        "lat": 25.7379686,
        "lon": 55.8877478
      },
      "nodes": [
        1500093787,
        1500093781,
        1500093786,
        1500093788,
        1500093787
      ],
      "tags": {
        "amenity": "bar",
        "building": "yes",
        "level": "0",
        "name": "Pool Bar Sunset Bar",
        "name:en": "Pool Bar Sunset Bar",
        "outdoor_seating": "yes"
      }
    },
    {
      "type": "way",
      "id": 136729386,
      "timestamp": "2018-02-21T07:28:34Z",
      "version": 4,
      "changeset": 56540992,
      "user": "Rotilom",
      "uid": 6853562,
      "center": {
        "lat": 25.7380189,
        "lon": 55.8877079
      },
      "nodes": [
        1500093782,
        1500093783,
        1500093780,
        1500093785,
        1500093782
      ],
      "tags": {
        "amenity": "bar",
        "building": "yes",
        "level": "0",
        "name": "Pool Bar Sunset Bar",
        "name:en": "Pool Bar Sunset Bar",
        "outdoor_seating": "yes"
      }
    },
    {
      "type": "way",
      "id": 279536862,
      "timestamp": "2024-01-12T21:08:31Z",
      "version": 5,
      "changeset": 146195694,
      "user": "km2bp",
      "uid": 3610826,
      "center": {
        "lat": 25.0788381,
        "lon": 55.132822
      },
      "nodes": [
        2837596227,
        2837596228,
        2837596230,
        2837596229,
        2837596227
      ],
      "tags": {
        "amenity": "bar",
        "image": "https://photos.app.goo.gl/cN7ff2pQpkYgFUiH9",
        "level": "0",
        "name": "The Empire",
        "outdoor_seating": "yes",
        "wheelchair": "limited"
      }
    },
    {
      "type": "way",
      "id": 337133197,
      "timestamp": "2015-04-07T05:49:41Z",
      "version": 1,
      "changeset": 30031495,
      "user": "sebbehr",
      "uid": 1926223,
      "center": {
        "lat": 25.7694696,
        "lon": 55.9377066
      },
      "nodes": [
        3442340116,
        3442340117,
        3442340118,
        3442340119,
        3442340120,
        3442340121,
        3442340122,
        3442340123,
        3442340124,
        3442340125,
        3442340116
      ],
      "tags": {
        "amenity": "bar",
        "building": "yes"
      }
    },
    {
      "type": "way",
      "id": 338592095,
      "timestamp": "2021-05-10T11:11:14Z",
      "version": 4,
      "changeset": 104446445,
      "user": "SerraDeCollserola",
      "uid": 11387772,
      "center": {
        "lat": 25.7956838,
        "lon": 55.9599598
      },
      "nodes": [
        3457022866,
        3457022867,
        3457022868,
        3457022869,
        8718266682,
        8718266683,
        3457022866
      ],
      "tags": {
        "amenity": "bar",
        "building": "yes",
        "cuisine": "arab",
        "internet_access": "wlan",
        "name": "Traditional Cafe",
        "name:en": "Traditional Cafe"
      }
    },
    {
      "type": "way",
      "id": 349977386,
      "timestamp": "2024-02-05T17:24:27Z",
      "version": 11,
      "changeset": 147102532,
      "user": "Neonkaaaaa",
      "uid": 9660877,
      "center": {
        "lat": 25.2473624,
        "lon": 55.3467357
      },
      "nodes": [
        3557531098,
        3557531104,
        3557531106,
        3557531102,
        3557531097,
        3557531098
      ],
      "tags": {
        "air_conditioning": "yes",
        "amenity": "bar",
        "building": "yes",
        "designation": "Beverage Dispensing Unit",
        "indoor_seating": "yes",
        "name": "Warehouse",
        "name:en": "Warehouse",
        "outdoor_seating": "yes",
        "payment:credit_cards": "yes",
        "payment:debit_cards": "yes",
        "smoking": "no",
        "toilets": "no",
        "wheelchair": "limited"
      }
    },
    {
      "type": "way",
      "id": 444307402,
      "timestamp": "2018-03-03T01:42:14Z",
      "version": 2,
      "changeset": 56836635,
      "user": "سامبا",
      "uid": 4860517,
      "center": {
        "lat": 25.4205684,
        "lon": 55.4408909
      },
      "nodes": [
        4417944842,
        4417944836,
        4417944831,
        4417944834,
        4417944841,
        4417944837,
        4417944842
      ],
      "tags": {
        "amenity": "pub",
        "building": "yes",
        "name": "Marina",
        "name:en": "Marina",
        "smoking": "yes"
      }
    },
    {
      "type": "way",
      "id": 469473729,
      "timestamp": "2017-01-27T15:47:28Z",
      "version": 2,
      "changeset": 45564405,
      "user": "Geomapper69",
      "uid": 2362154,
      "center": {
        "lat": 23.6286768,
        "lon": 58.4825975
      },
      "nodes": [
        4637863887,
        4637863888,
        4637865389,
        4637865390,
        4637865391,
        4637865392,
        4637865393,
        4637865394,
        4637863887
      ],
      "tags": {
        "amenity": "bar",
        "building": "yes",
        "name": "Pool Bar",
        "outdoor_seating": "yes",
        "smoking": "outside"
      }
    },
    {
      "type": "way",
      "id": 469476983,
      "timestamp": "2017-01-27T15:46:34Z",
      "version": 1,
      "changeset": 45564365,
      "user": "Geomapper69",
      "uid": 2362154,
      "center": {
        "lat": 23.6284722,
        "lon": 58.48305
      },
      "nodes": [
        4637871624,
        4637871916,
        4637871917,
        4637871625,
        4637871624
      ],
      "tags": {
        "amenity": "bar",
        "building": "yes",
        "name": "Dukes",
        "outdoor_seating": "terrace",
        "smoking": "outside"
      }
    },
    {
      "type": "way",
      "id": 485724450,
      "timestamp": "2017-04-09T19:34:45Z",
      "version": 1,
      "changeset": 47602135,
      "user": "Arthtoach",
      "uid": 3316592,
      "center": {
        "lat": 25.1403565,
        "lon": 55.1346754
      },
      "nodes": [
        4784982277,
        4784982274,
        4784982275,
        4784982276,
        4784982277
      ],
      "tags": {
        "amenity": "bar",
        "building": "roof"
      }
    },
    {
      "type": "way",
      "id": 500755954,
      "timestamp": "2023-05-19T13:05:32Z",
      "version": 5,
      "changeset": 136299532,
      "user": "Gurusraouta",
      "uid": 18913526,
      "center": {
        "lat": 25.1843711,
        "lon": 55.2400938
      },
      "nodes": [
        4917380675,
        4917380676,
        4917380677,
        4917380678,
        4917380675
      ],
      "tags": {
        "addr:city": "دبي",
        "addr:city:ar": "دبي",
        "addr:city:en": "Dubai",
        "addr:city:ur": "دبئی",
        "addr:street": "Street 3",
        "amenity": "bar",
        "building": "yes",
        "name": "The Club",
        "name:en": "The Club",
        "source": "Kaart Ground Survey 2017"
      }
    },
    {
      "type": "way",
      "id": 585358302,
      "timestamp": "2024-06-25T06:51:58Z",
      "version": 3,
      "changeset": 153141948,
      "user": "Neonkaaaaa",
      "uid": 9660877,
      "center": {
        "lat": 25.262333,
        "lon": 55.2811535
      },
      "nodes": [
        5594051751,
        5594051750,
        5594051749,
        5594051753,
        5594051751
      ],
      "tags": {
        "amenity": "bar",
        "indoor": "room",
        "indoor_seating": "yes",
        "internet_access": "wlan",
        "internet_access:fee": "no",
        "level": "7",
        "name": "Gin Bar",
        "operator": "QE2",
        "outdoor_seating": "no",
        "room": "bar",
        "smoking": "no",
        "wheelchair": "yes"
      }
    },
    {
      "type": "way",
      "id": 585358305,
      "timestamp": "2024-06-25T06:51:56Z",
      "version": 2,
      "changeset": 153141948,
      "user": "Neonkaaaaa",
      "uid": 9660877,
      "center": {
        "lat": 25.2615264,
        "lon": 55.2804182
      },
      "nodes": [
        5594051759,
        5594051758,
        5594051757,
        5594051756,
        5594051755,
        5594051754,
        5594051759
      ],
      "tags": {
        "amenity": "bar",
        "indoor": "room",
        "indoor_seating": "yes",
        "internet_access": "yes",
        "internet_access:fee": "no",
        "level": "8",
        "name": "Yacht Club",
        "operator": "QE2",
        "outdoor_seating": "no",
        "room": "bar",
        "smoking": "no",
        "wheelchair": "yes"
      }
    },
    {
      "type": "way",
      "id": 599704240,
      "timestamp": "2018-06-20T09:59:07Z",
      "version": 1,
      "changeset": 60005400,
      "user": "Mr Lockwood",
      "uid": 4264030,
      "center": {
        "lat": 25.3391431,
        "lon": 55.4190588
      },
      "nodes": [
        5704739107,
        5704739108,
        5704739109,
        5704739110,
        5704739107
      ],
      "tags": {
        "amenity": "bar",
        "building": "yes",
        "name": "Joe's Bar",
        "operator": "Sharjah Wanderers"
      }
    },
    {
      "type": "way",
      "id": 599704245,
      "timestamp": "2018-06-20T09:59:08Z",
      "version": 1,
      "changeset": 60005400,
      "user": "Mr Lockwood",
      "uid": 4264030,
      "center": {
        "lat": 25.3392263,
        "lon": 55.4193427
      },
      "nodes": [
        5704739443,
        5704739444,
        5704739445,
        5704739446,
        5704739447,
        5704739448,
        5704739449,
        5704739450,
        5704739443
      ],
      "tags": {
        "amenity": "bar",
        "building": "yes",
        "name": "Dive Bar",
        "operator": "Sharjah Wanderers"
      }
    },
    {
      "type": "way",
      "id": 628864491,
      "timestamp": "2018-09-28T18:21:20Z",
      "version": 1,
      "changeset": 63017465,
      "user": "ConsEbt",
      "uid": 313448,
      "center": {
        "lat": 25.0851248,
        "lon": 55.1400137
      },
      "nodes": [
        5937421139,
        5937421138,
        5937421137,
        5937421136,
        5937421135,
        5937421140,
        5937421134,
        5937421133,
        5937421132,
        5937421141,
        5937421131,
        5937421130,
        5937421129,
        5937421128,
        5937421127,
        5937421126,
        5937421125,
        5937421124,
        5937421139
      ],
      "tags": {
        "amenity": "bar",
        "building": "yes",
        "building:levels": "1",
        "internet_access": "wlan",
        "internet_access:fee": "yes",
        "name": "Le Deck",
        "operator": "Hotel Le Royal Méridien Beach Resort & Spa",
        "outdoor_seating": "yes",
        "wheelchair": "yes"
      }
    },
    {
      "type": "way",
      "id": 628864498,
      "timestamp": "2018-09-28T18:21:21Z",
      "version": 1,
      "changeset": 63017465,
      "user": "ConsEbt",
      "uid": 313448,
      "center": {
        "lat": 25.0850146,
        "lon": 55.1384776
      },
      "nodes": [
        5937421917,
        5937421916,
        5937421915,
        5937421914,
        5937421913,
        5937421912,
        5937421911,
        5937421910,
        5937421909,
        5937421919,
        5937421908,
        5937421907,
        5937421918,
        5937421906,
        5937421905,
        5937421904,
        5937421903,
        5937421902,
        5937421917
      ],
      "tags": {
        "amenity": "bar",
        "building": "yes",
        "building:levels": "1",
        "name": "Pool Bar",
        "operator": "Hotel Le Royal Méridien Beach Resort & Spa",
        "outdoor_seating": "yes"
      }
    },
    {
      "type": "way",
      "id": 730778377,
      "timestamp": "2019-10-02T13:41:18Z",
      "version": 2,
      "changeset": 75189168,
      "user": "mkarau",
      "uid": 2172,
      "center": {
        "lat": 24.5408849,
        "lon": 54.4248822
      },
      "nodes": [
        6844659152,
        6844659153,
        6844659154,
        6844659155,
        6844659156,
        6844659157,
        6844659158,
        6844659159,
        6844659160,
        6844659161,
        6844659162,
        6844659163,
        6844659164,
        6844659165,
        6844659166,
        6844659167,
        6844659168,
        6844659169,
        6844659170,
        6844659171,
        6844659172,
        6844659173,
        6844684690,
        6844659174,
        6844684689,
        6844659175,
        6844659176,
        6844684688,
        6844659152
      ],
      "tags": {
        "amenity": "bar",
        "building": "yes",
        "name": "Buddha-Bar Beach"
      }
    },
    {
      "type": "way",
      "id": 759818913,
      "timestamp": "2019-12-31T10:53:27Z",
      "version": 1,
      "changeset": 79052149,
      "user": "Lukša",
      "uid": 8124577,
      "center": {
        "lat": 25.679806,
        "lon": 55.746135
      },
      "nodes": [
        7098005854,
        7098005855,
        7098005856,
        7098005857,
        7098005854
      ],
      "tags": {
        "amenity": "bar",
        "building": "yes"
      }
    },
    {
      "type": "way",
      "id": 770899980,
      "timestamp": "2022-10-14T18:55:05Z",
      "version": 2,
      "changeset": 127540360,
      "user": "kmpoppe (@ Mapillary Update)",
      "uid": 14309561,
      "center": {
        "lat": 25.3240828,
        "lon": 51.5402952
      },
      "nodes": [
        7195876912,
        7195876913,
        7195876914,
        7195876915,
        7195876912
      ],
      "tags": {
        "amenity": "bar",
        "building": "yes",
        "image": "https://images.mapillary.com/Xlabg_Fh2bRhwhg2Q4twqw/thumb-2048.jpg",
        "mapillary": "767481673965931"
      }
    },
    {
      "type": "way",
      "id": 803289556,
      "timestamp": "2020-05-13T10:02:20Z",
      "version": 1,
      "changeset": 85137132,
      "user": "mkarau",
      "uid": 2172,
      "center": {
        "lat": 24.5426098,
        "lon": 54.438852
      },
      "nodes": [
        7514124482,
        7514124483,
        7514124484,
        7514124485,
        7514124486,
        7514124487,
        7514124488,
        7514124489,
        7514124490,
        7514124491,
        7514124492,
        7514124493,
        7514124494,
        7514124495,
        7514124496,
        7514124497,
        7514124498,
        7514124499,
        7514124482
      ],
      "tags": {
        "amenity": "bar",
        "building": "roof",
        "min_age": "21"
      }
    },
    {
      "type": "way",
      "id": 1128092726,
      "timestamp": "2023-01-07T23:23:45Z",
      "version": 1,
      "changeset": 130999043,
      "user": "km2bp",
      "uid": 3610826,
      "center": {
        "lat": 25.0760621,
        "lon": 55.1302766
      },
      "nodes": [
        7027774613,
        10313792524,
        10313792525,
        10313792526,
        10313792527,
        10313792528,
        10313792529,
        10313792530,
        10313792531,
        10313792532,
        10313792533,
        10313792534,
        10313792535,
        10313792536,
        10313792537,
        10313792538,
        10313792539,
        7027774613
      ],
      "tags": {
        "amenity": "bar",
        "leisure": "outdoor_seating",
        "name": "Yalseah Lounge",
        "outdoor_seating": "yes"
      }
    },
    {
      "type": "way",
      "id": 1128092727,
      "timestamp": "2023-01-07T23:23:45Z",
      "version": 1,
      "changeset": 130999043,
      "user": "km2bp",
      "uid": 3610826,
      "center": {
        "lat": 25.0768119,
        "lon": 55.1309096
      },
      "nodes": [
        4396327899,
        10313792540,
        10313792541,
        10313792542,
        10313792543,
        10313792544,
        10313792545,
        10313792546,
        10313792547,
        10313792548,
        10313792549,
        10313792550,
        4396327899
      ],
      "tags": {
        "amenity": "bar",
        "image": "https://photos.app.goo.gl/HtMHHDwEmytsTTKaA",
        "leisure": "outdoor_seating",
        "name": "Smoky Beach",
        "name:en": "Smoky Beach",
        "outdoor_seating": "yes"
      }
    },
    {
      "type": "way",
      "id": 1139588158,
      "timestamp": "2023-02-08T14:48:56Z",
      "version": 1,
      "changeset": 132260491,
      "user": "f1mishutka",
      "uid": 278075,
      "center": {
        "lat": 25.6782902,
        "lon": 55.7412235
      },
      "nodes": [
        10620705300,
        10620705301,
        10620705302,
        10620705303,
        10620705300
      ],
      "tags": {
        "amenity": "bar",
        "building": "yes"
      }
    },
    {
      "type": "way",
      "id": 1173799867,
      "timestamp": "2024-05-28T10:51:10Z",
      "version": 2,
      "changeset": 151938126,
      "user": "salma_z",
      "uid": 9945354,
      "center": {
        "lat": 25.1414347,
        "lon": 55.1851498
      },
      "nodes": [
        2246469718,
        10906273241,
        10906273242,
        10906273243,
        2246469718
      ],
      "tags": {
        "addr:housename": "Burj Al Arab",
        "addr:street": "Jumeira Street",
        "amenity": "bar",
        "building": "yes",
        "layer": "-1",
        "name": "Skyview Bar",
        "opening_hours": "18:30-23:00",
        "source": "+971 4 301 7600",
        "website": "https://www.jumeirah.com/en/dine/dubai/burj-al-arab-skyview-bar-and-restaurant"
      }
    },
    {
      "type": "way",
      "id": 1265736705,
      "timestamp": "2024-03-24T12:28:27Z",
      "version": 2,
      "changeset": 149086504,
      "user": "Hager_M",
      "uid": 18031119,
      "center": {
        "lat": 24.5455108,
        "lon": 54.6752228
      },
      "nodes": [
        11757386207,
        11757386204,
        11757386205,
        11757386206,
        11757386207
      ],
      "tags": {
        "amenity": "bar",
        "name": "المحيط الازرق للوجبات الخفيفة",
        "name:ar": "المحيط الازرق للوجبات الخفيفة",
        "name:en": "Blue Ocean Snack Bar"
      }
    },
    {
      "type": "way",
      "id": 1284825779,
      "timestamp": "2024-05-21T11:13:26Z",
      "version": 2,
      "changeset": 151622917,
      "user": "Eman Ghareeb",
      "uid": 15567153,
      "center": {
        "lat": 25.106709,
        "lon": 55.1122987
      },
      "nodes": [
        11919487101,
        11919487099,
        11919487098,
        11919487097,
        11919487096,
        11919487089,
        11919487100,
        11919487095,
        11919487094,
        11919487093,
        11919487091,
        11919487092,
        11919487090,
        11919487101
      ],
      "tags": {
        "amenity": "bar"
      }
    },
    {
      "type": "way",
      "id": 1304051587,
      "timestamp": "2024-07-27T10:32:08Z",
      "version": 1,
      "changeset": 154476646,
      "user": "Ser9ei",
      "uid": 10524327,
      "center": {
        "lat": 25.4226521,
        "lon": 55.441515
      },
      "nodes": [
        12076659050,
        12076659051,
        12076659052,
        12076659053,
        12076659050
      ],
      "tags": {
        "amenity": "bar",
        "building": "yes",
        "name": "Zanzibar",
        "opening_hours": "Mo-Su 11:00-23:30"
      }
    },
    {
      "type": "way",
      "id": 1377417538,
      "timestamp": "2025-04-14T10:09:40Z",
      "version": 1,
      "changeset": 164931351,
      "user": "MWind_",
      "uid": 10417379,
      "center": {
        "lat": 24.3988396,
        "lon": 54.4750499
      },
      "nodes": [
        12754076220,
        12754076221,
        12754076222,
        12754076223,
        12754076224,
        12754076225,
        12754076226,
        12754076208,
        12754076209,
        12754076213,
        12754076214,
        12754076215,
        12754076216,
        12754076217,
        12754076218,
        12754076219,
        12754076210,
        12754076211,
        12754076212,
        12754076220
      ],
      "tags": {
        "amenity": "bar",
        "building": "yes"
      }
    }
  ]
}